{
"type": "FeatureCollection",
"name": "stations_shared_bike_30min",
"crs": { "type": "name", "properties": { "name": "urn:ogc:def:crs:OGC:1.3:CRS84" } },
"features": [
{ "type": "Feature", "properties": { "uid": 27619716, "name": "Veselá", "bike_travel_time_min": 8.1, "remaining_walk_min": 21.9 }, "geometry": { "type": "Point", "coordinates": [ 16.606506, 49.194872 ] } },
{ "type": "Feature", "properties": { "uid": 27619804, "name": "Dominikánské náměstí - Jalta", "bike_travel_time_min": 7.0, "remaining_walk_min": 23.0 }, "geometry": { "type": "Point", "coordinates": [ 16.606447, 49.194139 ] } },
{ "type": "Feature", "properties": { "uid": 27619911, "name": "Dominikánské náměstí - kostel sv. Michala", "bike_travel_time_min": 14.6, "remaining_walk_min": 15.4 }, "geometry": { "type": "Point", "coordinates": [ 16.607117, 49.193813 ] } },
{ "type": "Feature", "properties": { "uid": 27619984, "name": "Jakubská", "bike_travel_time_min": 8.3, "remaining_walk_min": 21.7 }, "geometry": { "type": "Point", "coordinates": [ 16.607289, 49.196369 ] } },
{ "type": "Feature", "properties": { "uid": 27620016, "name": "Zelný trh - Husa na provázku", "bike_travel_time_min": 5.4, "remaining_walk_min": 24.6 }, "geometry": { "type": "Point", "coordinates": [ 16.608168, 49.192036 ] } },
{ "type": "Feature", "properties": { "uid": 27620034, "name": "Zelný trh - Tržnice", "bike_travel_time_min": 5.0, "remaining_walk_min": 25.0 }, "geometry": { "type": "Point", "coordinates": [ 16.608233, 49.192544 ] } },
{ "type": "Feature", "properties": { "uid": 27620053, "name": "Zelný trh - Reduta", "bike_travel_time_min": 6.4, "remaining_walk_min": 23.6 }, "geometry": { "type": "Point", "coordinates": [ 16.609182, 49.192043 ] } },
{ "type": "Feature", "properties": { "uid": 27620080, "name": "Hlavní nádraží - pošta", "bike_travel_time_min": 12.1, "remaining_walk_min": 17.9 }, "geometry": { "type": "Point", "coordinates": [ 16.610845, 49.190507 ] } },
{ "type": "Feature", "properties": { "uid": 27620101, "name": "Hlavní nádraží - Hlavní vstup", "bike_travel_time_min": 14.1, "remaining_walk_min": 15.9 }, "geometry": { "type": "Point", "coordinates": [ 16.613045, 49.191272 ] } },
{ "type": "Feature", "properties": { "uid": 27620138, "name": "Autobusové nádraží Grand", "bike_travel_time_min": 25.4, "remaining_walk_min": 4.6 }, "geometry": { "type": "Point", "coordinates": [ 16.614043, 49.192969 ] } },
{ "type": "Feature", "properties": { "uid": 27620182, "name": "Orlí", "bike_travel_time_min": 5.9, "remaining_walk_min": 24.1 }, "geometry": { "type": "Point", "coordinates": [ 16.612144, 49.193999 ] } },
{ "type": "Feature", "properties": { "uid": 27620208, "name": "Novobranská", "bike_travel_time_min": 5.4, "remaining_walk_min": 24.6 }, "geometry": { "type": "Point", "coordinates": [ 16.612846, 49.195037 ] } },
{ "type": "Feature", "properties": { "uid": 27620228, "name": "Šilingrovo náměstí", "bike_travel_time_min": 21.1, "remaining_walk_min": 8.9 }, "geometry": { "type": "Point", "coordinates": [ 16.60558, 49.1925 ] } },
{ "type": "Feature", "properties": { "uid": 27620262, "name": "Malinovského náměstí - Dům umění", "bike_travel_time_min": 8.4, "remaining_walk_min": 21.6 }, "geometry": { "type": "Point", "coordinates": [ 16.615046, 49.196004 ] } },
{ "type": "Feature", "properties": { "uid": 27620309, "name": "Dvořákova", "bike_travel_time_min": 8.1, "remaining_walk_min": 21.9 }, "geometry": { "type": "Point", "coordinates": [ 16.611285, 49.196159 ] } },
{ "type": "Feature", "properties": { "uid": 27620341, "name": "Moravské náměstí - Joštova", "bike_travel_time_min": 7.4, "remaining_walk_min": 22.6 }, "geometry": { "type": "Point", "coordinates": [ 16.606833, 49.197915 ] } },
{ "type": "Feature", "properties": { "uid": 27620421, "name": "Komenského náměstí - FSS MU", "bike_travel_time_min": 8.0, "remaining_walk_min": 22.0 }, "geometry": { "type": "Point", "coordinates": [ 16.601908, 49.197126 ] } },
{ "type": "Feature", "properties": { "uid": 27620459, "name": "Marešova - Café Atlas", "bike_travel_time_min": 7.8, "remaining_walk_min": 22.2 }, "geometry": { "type": "Point", "coordinates": [ 16.602257, 49.198122 ] } },
{ "type": "Feature", "properties": { "uid": 27708395, "name": "Veveří - Gorkého", "bike_travel_time_min": 9.5, "remaining_walk_min": 20.5 }, "geometry": { "type": "Point", "coordinates": [ 16.601045, 49.200137 ] } },
{ "type": "Feature", "properties": { "uid": 27708448, "name": "Gorkého - Čápkova", "bike_travel_time_min": 14.2, "remaining_walk_min": 15.8 }, "geometry": { "type": "Point", "coordinates": [ 16.5948, 49.199338 ] } },
{ "type": "Feature", "properties": { "uid": 27708601, "name": "Arne Nováka - FF MU", "bike_travel_time_min": 10.6, "remaining_walk_min": 19.4 }, "geometry": { "type": "Point", "coordinates": [ 16.598657, 49.200137 ] } },
{ "type": "Feature", "properties": { "uid": 27719385, "name": "Kounicova - Melodka", "bike_travel_time_min": 9.5, "remaining_walk_min": 20.5 }, "geometry": { "type": "Point", "coordinates": [ 16.600626, 49.202871 ] } },
{ "type": "Feature", "properties": { "uid": 27719520, "name": "Björnsonův sad - FAST VUT", "bike_travel_time_min": 15.2, "remaining_walk_min": 14.8 }, "geometry": { "type": "Point", "coordinates": [ 16.593609, 49.20735 ] } },
{ "type": "Feature", "properties": { "uid": 27719609, "name": "Kounicova - Listovy koleje", "bike_travel_time_min": 16.1, "remaining_walk_min": 13.9 }, "geometry": { "type": "Point", "coordinates": [ 16.594226, 49.21028 ] } },
{ "type": "Feature", "properties": { "uid": 27719818, "name": "Srbská - Billa", "bike_travel_time_min": 21.5, "remaining_walk_min": 8.5 }, "geometry": { "type": "Point", "coordinates": [ 16.585906, 49.229341 ] } },
{ "type": "Feature", "properties": { "uid": 27719869, "name": "Nádraží Královo Pole", "bike_travel_time_min": 20.2, "remaining_walk_min": 9.8 }, "geometry": { "type": "Point", "coordinates": [ 16.595594, 49.230739 ] } },
{ "type": "Feature", "properties": { "uid": 27719898, "name": "Husitská", "bike_travel_time_min": 18.9, "remaining_walk_min": 11.1 }, "geometry": { "type": "Point", "coordinates": [ 16.594371, 49.223914 ] } },
{ "type": "Feature", "properties": { "uid": 27719919, "name": "Chaloupkova", "bike_travel_time_min": 18.8, "remaining_walk_min": 11.2 }, "geometry": { "type": "Point", "coordinates": [ 16.597762, 49.223585 ] } },
{ "type": "Feature", "properties": { "uid": 27720050, "name": "Koupaliště Dobrák", "bike_travel_time_min": 20.1, "remaining_walk_min": 9.9 }, "geometry": { "type": "Point", "coordinates": [ 16.588787, 49.218182 ] } },
{ "type": "Feature", "properties": { "uid": 27759817, "name": "Poříčí - FA VUT", "bike_travel_time_min": 10.9, "remaining_walk_min": 19.1 }, "geometry": { "type": "Point", "coordinates": [ 16.594189, 49.186798 ] } },
{ "type": "Feature", "properties": { "uid": 27760315, "name": "Vaňkovka - Trnitá", "bike_travel_time_min": 6.2, "remaining_walk_min": 23.8 }, "geometry": { "type": "Point", "coordinates": [ 16.614209, 49.187121 ] } },
{ "type": "Feature", "properties": { "uid": 27760444, "name": "Tkalcovská - Albert", "bike_travel_time_min": 10.1, "remaining_walk_min": 19.9 }, "geometry": { "type": "Point", "coordinates": [ 16.627577, 49.199692 ] } },
{ "type": "Feature", "properties": { "uid": 27760512, "name": "Bubeníčkova - Kaufland", "bike_travel_time_min": 14.1, "remaining_walk_min": 15.9 }, "geometry": { "type": "Point", "coordinates": [ 16.636348, 49.202517 ] } },
{ "type": "Feature", "properties": { "uid": 27760608, "name": "Úřad MČ Brno - Židenice", "bike_travel_time_min": 15.0, "remaining_walk_min": 15.0 }, "geometry": { "type": "Point", "coordinates": [ 16.64432, 49.20135 ] } },
{ "type": "Feature", "properties": { "uid": 28124480, "name": "Sedláčkova - Billa", "bike_travel_time_min": 20.7, "remaining_walk_min": 9.3 }, "geometry": { "type": "Point", "coordinates": [ 16.66752, 49.202149 ] } },
{ "type": "Feature", "properties": { "uid": 28124608, "name": "Novobranská - DPMB", "bike_travel_time_min": 6.6, "remaining_walk_min": 23.4 }, "geometry": { "type": "Point", "coordinates": [ 16.613436, 49.193663 ] } },
{ "type": "Feature", "properties": { "uid": 28124700, "name": "Koupaliště Juliánov", "bike_travel_time_min": 15.1, "remaining_walk_min": 14.9 }, "geometry": { "type": "Point", "coordinates": [ 16.654222, 49.191345 ] } },
{ "type": "Feature", "properties": { "uid": 28124979, "name": "Řípská - Kaufland", "bike_travel_time_min": 18.3, "remaining_walk_min": 11.7 }, "geometry": { "type": "Point", "coordinates": [ 16.667054, 49.182142 ] } },
{ "type": "Feature", "properties": { "uid": 28138524, "name": "Gymnázium Elgartova", "bike_travel_time_min": 14.5, "remaining_walk_min": 15.5 }, "geometry": { "type": "Point", "coordinates": [ 16.632469, 49.212257 ] } },
{ "type": "Feature", "properties": { "uid": 28138980, "name": "Sportovní - Kaufland", "bike_travel_time_min": 13.8, "remaining_walk_min": 16.2 }, "geometry": { "type": "Point", "coordinates": [ 16.604574, 49.215772 ] } },
{ "type": "Feature", "properties": { "uid": 28139060, "name": "NC Královo Pole", "bike_travel_time_min": 14.2, "remaining_walk_min": 15.8 }, "geometry": { "type": "Point", "coordinates": [ 16.607707, 49.217362 ] } },
{ "type": "Feature", "properties": { "uid": 28139790, "name": "Kounicova/Šumavská", "bike_travel_time_min": 16.3, "remaining_walk_min": 13.7 }, "geometry": { "type": "Point", "coordinates": [ 16.59351, 49.21051 ] } },
{ "type": "Feature", "properties": { "uid": 28139907, "name": "Konečného náměstí", "bike_travel_time_min": 11.3, "remaining_walk_min": 18.7 }, "geometry": { "type": "Point", "coordinates": [ 16.594602, 49.204613 ] } },
{ "type": "Feature", "properties": { "uid": 28140167, "name": "Náměstí Míru - Brněnka", "bike_travel_time_min": 17.6, "remaining_walk_min": 12.4 }, "geometry": { "type": "Point", "coordinates": [ 16.581105, 49.201869 ] } },
{ "type": "Feature", "properties": { "uid": 28140685, "name": "Stránského - Billa", "bike_travel_time_min": 21.8, "remaining_walk_min": 8.2 }, "geometry": { "type": "Point", "coordinates": [ 16.568402, 49.212628 ] } },
{ "type": "Feature", "properties": { "uid": 28140921, "name": "Makovského náměstí - Billa", "bike_travel_time_min": 20.1, "remaining_walk_min": 9.9 }, "geometry": { "type": "Point", "coordinates": [ 16.576191, 49.218371 ] } },
{ "type": "Feature", "properties": { "uid": 28142691, "name": "Poliklinika Kohoutovice", "bike_travel_time_min": 27.9, "remaining_walk_min": 2.1 }, "geometry": { "type": "Point", "coordinates": [ 16.533533, 49.196975 ] } },
{ "type": "Feature", "properties": { "uid": 28337537, "name": "Univerzitní kampus Bohunice", "bike_travel_time_min": 28.7, "remaining_walk_min": 1.3 }, "geometry": { "type": "Point", "coordinates": [ 16.56747, 49.177322 ] } },
{ "type": "Feature", "properties": { "uid": 28345023, "name": "Mendlovo náměstí - Albert", "bike_travel_time_min": 10.0, "remaining_walk_min": 20.0 }, "geometry": { "type": "Point", "coordinates": [ 16.593508, 49.189694 ] } },
{ "type": "Feature", "properties": { "uid": 28358300, "name": "Skandinávská - McDonald's", "bike_travel_time_min": 20.3, "remaining_walk_min": 9.7 }, "geometry": { "type": "Point", "coordinates": [ 16.628446, 49.152307 ] } },
{ "type": "Feature", "properties": { "uid": 28358314, "name": "IKEA", "bike_travel_time_min": 18.7, "remaining_walk_min": 11.3 }, "geometry": { "type": "Point", "coordinates": [ 16.627518, 49.156296 ] } },
{ "type": "Feature", "properties": { "uid": 28364366, "name": "Avion shopping park Brno", "bike_travel_time_min": 17.9, "remaining_walk_min": 12.1 }, "geometry": { "type": "Point", "coordinates": [ 16.627733, 49.15826 ] } },
{ "type": "Feature", "properties": { "uid": 28370511, "name": "Sokolova - Scio škola", "bike_travel_time_min": 14.5, "remaining_walk_min": 15.5 }, "geometry": { "type": "Point", "coordinates": [ 16.615883, 49.16575 ] } },
{ "type": "Feature", "properties": { "uid": 28370607, "name": "Spielberk Office Centre", "bike_travel_time_min": 9.3, "remaining_walk_min": 20.7 }, "geometry": { "type": "Point", "coordinates": [ 16.605315, 49.180353 ] } },
{ "type": "Feature", "properties": { "uid": 28371142, "name": "Vídeňská - Albert", "bike_travel_time_min": 11.7, "remaining_walk_min": 18.3 }, "geometry": { "type": "Point", "coordinates": [ 16.59635, 49.17646 ] } },
{ "type": "Feature", "properties": { "uid": 28371232, "name": "Kamenice - Kaufland", "bike_travel_time_min": 17.6, "remaining_walk_min": 12.4 }, "geometry": { "type": "Point", "coordinates": [ 16.582752, 49.174223 ] } },
{ "type": "Feature", "properties": { "uid": 28380295, "name": "Švermova - Billa", "bike_travel_time_min": 20.7, "remaining_walk_min": 9.3 }, "geometry": { "type": "Point", "coordinates": [ 16.572254, 49.168752 ] } },
{ "type": "Feature", "properties": { "uid": 28380433, "name": "Karpatská - U Pošty", "bike_travel_time_min": 22.0, "remaining_walk_min": 8.0 }, "geometry": { "type": "Point", "coordinates": [ 16.564422, 49.167931 ] } },
{ "type": "Feature", "properties": { "uid": 28400362, "name": "Hřiště u Anthroposu", "bike_travel_time_min": 20.1, "remaining_walk_min": 9.9 }, "geometry": { "type": "Point", "coordinates": [ 16.567109, 49.192597 ] } },
{ "type": "Feature", "properties": { "uid": 28400949, "name": "Lipová - ESF MU", "bike_travel_time_min": 15.7, "remaining_walk_min": 14.3 }, "geometry": { "type": "Point", "coordinates": [ 16.576921, 49.193186 ] } },
{ "type": "Feature", "properties": { "uid": 28401324, "name": "Gorkého - Bláhovka", "bike_travel_time_min": 13.3, "remaining_walk_min": 16.7 }, "geometry": { "type": "Point", "coordinates": [ 16.593615, 49.199177 ] } },
{ "type": "Feature", "properties": { "uid": 28401418, "name": "Biskupské gymnázium", "bike_travel_time_min": 19.6, "remaining_walk_min": 10.4 }, "geometry": { "type": "Point", "coordinates": [ 16.573697, 49.202447 ] } },
{ "type": "Feature", "properties": { "uid": 28401709, "name": "Veslařská - u mostu", "bike_travel_time_min": 27.4, "remaining_walk_min": 2.6 }, "geometry": { "type": "Point", "coordinates": [ 16.557121, 49.209569 ] } },
{ "type": "Feature", "properties": { "uid": 28421175, "name": "Veveří - PF MU", "bike_travel_time_min": 16.1, "remaining_walk_min": 13.9 }, "geometry": { "type": "Point", "coordinates": [ 16.592081, 49.208384 ] } },
{ "type": "Feature", "properties": { "uid": 28422677, "name": "Malátova/Rostislavovo náměstí", "bike_travel_time_min": 18.7, "remaining_walk_min": 11.3 }, "geometry": { "type": "Point", "coordinates": [ 16.597209, 49.223641 ] } },
{ "type": "Feature", "properties": { "uid": 28422688, "name": "Malátova/Palackého tř.", "bike_travel_time_min": 18.9, "remaining_walk_min": 11.1 }, "geometry": { "type": "Point", "coordinates": [ 16.595321, 49.223343 ] } },
{ "type": "Feature", "properties": { "uid": 28431102, "name": "Stará Osada", "bike_travel_time_min": 16.2, "remaining_walk_min": 13.8 }, "geometry": { "type": "Point", "coordinates": [ 16.641787, 49.201914 ] } },
{ "type": "Feature", "properties": { "uid": 28431275, "name": "Čejkova", "bike_travel_time_min": 15.6, "remaining_walk_min": 14.4 }, "geometry": { "type": "Point", "coordinates": [ 16.638992, 49.20626 ] } },
{ "type": "Feature", "properties": { "uid": 28450830, "name": "Jírova - Knihovna J.M.", "bike_travel_time_min": 26.9, "remaining_walk_min": 3.1 }, "geometry": { "type": "Point", "coordinates": [ 16.685974, 49.207669 ] } },
{ "type": "Feature", "properties": { "uid": 28452105, "name": "Halasovo náměstí - bazén", "bike_travel_time_min": 21.4, "remaining_walk_min": 8.6 }, "geometry": { "type": "Point", "coordinates": [ 16.624836, 49.223589 ] } },
{ "type": "Feature", "properties": { "uid": 28452354, "name": "NC Okružní", "bike_travel_time_min": 19.8, "remaining_walk_min": 10.2 }, "geometry": { "type": "Point", "coordinates": [ 16.62578, 49.222043 ] } },
{ "type": "Feature", "properties": { "uid": 28453395, "name": "Majdalenky - Billa", "bike_travel_time_min": 25.8, "remaining_walk_min": 4.2 }, "geometry": { "type": "Point", "coordinates": [ 16.624069, 49.234308 ] } },
{ "type": "Feature", "properties": { "uid": 28842231, "name": "Gorkého - Jiráskova", "bike_travel_time_min": 10.7, "remaining_walk_min": 19.3 }, "geometry": { "type": "Point", "coordinates": [ 16.596667, 49.19959 ] } },
{ "type": "Feature", "properties": { "uid": 28842401, "name": "Joštova", "bike_travel_time_min": 7.7, "remaining_walk_min": 22.3 }, "geometry": { "type": "Point", "coordinates": [ 16.604832, 49.197372 ] } },
{ "type": "Feature", "properties": { "uid": 28849751, "name": "Hotel Avanti", "bike_travel_time_min": 14.2, "remaining_walk_min": 15.8 }, "geometry": { "type": "Point", "coordinates": [ 16.604548, 49.212965 ] } },
{ "type": "Feature", "properties": { "uid": 28968877, "name": "Žerotínovo náměstí - Bílý dům", "bike_travel_time_min": 7.3, "remaining_walk_min": 22.7 }, "geometry": { "type": "Point", "coordinates": [ 16.603035, 49.198514 ] } },
{ "type": "Feature", "properties": { "uid": 29078342, "name": "Morgal", "bike_travel_time_min": 8.1, "remaining_walk_min": 21.9 }, "geometry": { "type": "Point", "coordinates": [ 16.607959, 49.197754 ] } },
{ "type": "Feature", "properties": { "uid": 29316893, "name": "Jánská - U Tří knížat", "bike_travel_time_min": 6.5, "remaining_walk_min": 23.5 }, "geometry": { "type": "Point", "coordinates": [ 16.610405, 49.194364 ] } },
{ "type": "Feature", "properties": { "uid": 29559619, "name": "Mendlovo náměstí - Bazilika", "bike_travel_time_min": 11.2, "remaining_walk_min": 18.8 }, "geometry": { "type": "Point", "coordinates": [ 16.595079, 49.191128 ] } },
{ "type": "Feature", "properties": { "uid": 29559680, "name": "Pekařská - FNUSA", "bike_travel_time_min": 7.1, "remaining_walk_min": 22.9 }, "geometry": { "type": "Point", "coordinates": [ 16.598942, 49.191349 ] } },
{ "type": "Feature", "properties": { "uid": 29559771, "name": "Nové sady - Rondo", "bike_travel_time_min": 7.9, "remaining_walk_min": 22.1 }, "geometry": { "type": "Point", "coordinates": [ 16.603416, 49.18575 ] } },
{ "type": "Feature", "properties": { "uid": 29560088, "name": "Husova - SSUD", "bike_travel_time_min": 8.9, "remaining_walk_min": 21.1 }, "geometry": { "type": "Point", "coordinates": [ 16.605454, 49.193736 ] } },
{ "type": "Feature", "properties": { "uid": 29568816, "name": "Obilní trh - hřiště", "bike_travel_time_min": 10.5, "remaining_walk_min": 19.5 }, "geometry": { "type": "Point", "coordinates": [ 16.597515, 49.199527 ] } },
{ "type": "Feature", "properties": { "uid": 29798652, "name": "Moravské náměstí - Scala", "bike_travel_time_min": 8.5, "remaining_walk_min": 21.5 }, "geometry": { "type": "Point", "coordinates": [ 16.608324, 49.19747 ] } },
{ "type": "Feature", "properties": { "uid": 29798705, "name": "Tř. Kpt. Jaroše - Gymnázium", "bike_travel_time_min": 9.6, "remaining_walk_min": 20.4 }, "geometry": { "type": "Point", "coordinates": [ 16.610942, 49.202258 ] } },
{ "type": "Feature", "properties": { "uid": 29799492, "name": "ZŠ Náměstí Míru", "bike_travel_time_min": 17.5, "remaining_walk_min": 12.5 }, "geometry": { "type": "Point", "coordinates": [ 16.580172, 49.202524 ] } },
{ "type": "Feature", "properties": { "uid": 29799643, "name": "Moravské náměstí - průchod Mášova", "bike_travel_time_min": 7.0, "remaining_walk_min": 23.0 }, "geometry": { "type": "Point", "coordinates": [ 16.606404, 49.199762 ] } },
{ "type": "Feature", "properties": { "uid": 30000076, "name": "ZŠ Řehořova", "bike_travel_time_min": 12.4, "remaining_walk_min": 17.6 }, "geometry": { "type": "Point", "coordinates": [ 16.634878, 49.18421 ] } },
{ "type": "Feature", "properties": { "uid": 30048036, "name": "Titanium", "bike_travel_time_min": 6.6, "remaining_walk_min": 23.4 }, "geometry": { "type": "Point", "coordinates": [ 16.606532, 49.187952 ] } },
{ "type": "Feature", "properties": { "uid": 30919249, "name": "Radnice MČ Černovice", "bike_travel_time_min": 10.4, "remaining_walk_min": 19.6 }, "geometry": { "type": "Point", "coordinates": [ 16.636949, 49.186563 ] } },
{ "type": "Feature", "properties": { "uid": 30921410, "name": "Cornovova - Albert", "bike_travel_time_min": 11.4, "remaining_walk_min": 18.6 }, "geometry": { "type": "Point", "coordinates": [ 16.642731, 49.187605 ] } },
{ "type": "Feature", "properties": { "uid": 32493608, "name": "Jamborova - Dělnický dům", "bike_travel_time_min": 14.2, "remaining_walk_min": 15.8 }, "geometry": { "type": "Point", "coordinates": [ 16.650252, 49.195861 ] } },
{ "type": "Feature", "properties": { "uid": 32494084, "name": "ZŠ Štolcova", "bike_travel_time_min": 11.6, "remaining_walk_min": 18.4 }, "geometry": { "type": "Point", "coordinates": [ 16.635919, 49.188902 ] } },
{ "type": "Feature", "properties": { "uid": 32494412, "name": "Nádraží Židenice", "bike_travel_time_min": 12.2, "remaining_walk_min": 17.8 }, "geometry": { "type": "Point", "coordinates": [ 16.636573, 49.203719 ] } },
{ "type": "Feature", "properties": { "uid": 32657593, "name": "Quality Hotel", "bike_travel_time_min": 15.2, "remaining_walk_min": 14.8 }, "geometry": { "type": "Point", "coordinates": [ 16.58052, 49.184095 ] } },
{ "type": "Feature", "properties": { "uid": 32872836, "name": "ZET Office - Nová Zbrojovka", "bike_travel_time_min": 16.3, "remaining_walk_min": 13.7 }, "geometry": { "type": "Point", "coordinates": [ 16.636042, 49.207161 ] } },
{ "type": "Feature", "properties": { "uid": 34836514, "name": "Vlněna Office Park", "bike_travel_time_min": 4.3, "remaining_walk_min": 25.7 }, "geometry": { "type": "Point", "coordinates": [ 16.617106, 49.189396 ] } },
{ "type": "Feature", "properties": { "uid": 34836775, "name": "Ponávka Business Park", "bike_travel_time_min": 6.7, "remaining_walk_min": 23.3 }, "geometry": { "type": "Point", "coordinates": [ 16.621928, 49.184929 ] } },
{ "type": "Feature", "properties": { "uid": 34862672, "name": "Palackého tř. - VFU", "bike_travel_time_min": 14.4, "remaining_walk_min": 15.6 }, "geometry": { "type": "Point", "coordinates": [ 16.597965, 49.218221 ] } },
{ "type": "Feature", "properties": { "uid": 34862907, "name": "Palackého tř./Dobrovského", "bike_travel_time_min": 16.8, "remaining_walk_min": 13.2 }, "geometry": { "type": "Point", "coordinates": [ 16.596705, 49.220446 ] } },
{ "type": "Feature", "properties": { "uid": 34863080, "name": "Koupaliště Křižíkova", "bike_travel_time_min": 20.3, "remaining_walk_min": 9.7 }, "geometry": { "type": "Point", "coordinates": [ 16.607852, 49.224093 ] } },
{ "type": "Feature", "properties": { "uid": 35300105, "name": "Slovanské náměstí", "bike_travel_time_min": 19.4, "remaining_walk_min": 10.6 }, "geometry": { "type": "Point", "coordinates": [ 16.5917, 49.222856 ] } },
{ "type": "Feature", "properties": { "uid": 36274109, "name": "Spielberk Office Centre - hotel", "bike_travel_time_min": 8.8, "remaining_walk_min": 21.2 }, "geometry": { "type": "Point", "coordinates": [ 16.605695, 49.181865 ] } },
{ "type": "Feature", "properties": { "uid": 39610886, "name": "Amenities - Nová Zbrojovka", "bike_travel_time_min": 15.8, "remaining_walk_min": 14.2 }, "geometry": { "type": "Point", "coordinates": [ 16.635706, 49.20778 ] } },
{ "type": "Feature", "properties": { "uid": 42907906, "name": "Gajdošova - kostel", "bike_travel_time_min": 13.9, "remaining_walk_min": 16.1 }, "geometry": { "type": "Point", "coordinates": [ 16.646056, 49.198745 ] } },
{ "type": "Feature", "properties": { "uid": 42908015, "name": "Horova - úřad", "bike_travel_time_min": 21.4, "remaining_walk_min": 8.6 }, "geometry": { "type": "Point", "coordinates": [ 16.575001, 49.21365 ] } },
{ "type": "Feature", "properties": { "uid": 42908308, "name": "Burianovo náměstí", "bike_travel_time_min": 16.4, "remaining_walk_min": 13.6 }, "geometry": { "type": "Point", "coordinates": [ 16.578847, 49.212224 ] } },
{ "type": "Feature", "properties": { "uid": 42909153, "name": "Náměstí Svornosti", "bike_travel_time_min": 20.3, "remaining_walk_min": 9.7 }, "geometry": { "type": "Point", "coordinates": [ 16.581936, 49.215862 ] } },
{ "type": "Feature", "properties": { "uid": 42911999, "name": "Červinkova - zastávka MHD", "bike_travel_time_min": 21.2, "remaining_walk_min": 8.8 }, "geometry": { "type": "Point", "coordinates": [ 16.58269, 49.22552 ] } },
{ "type": "Feature", "properties": { "uid": 43219342, "name": "ZŠ Merhautova", "bike_travel_time_min": 12.3, "remaining_walk_min": 17.7 }, "geometry": { "type": "Point", "coordinates": [ 16.624193, 49.205131 ] } },
{ "type": "Feature", "properties": { "uid": 43219489, "name": "Šámalova - Tyršova ZŠ", "bike_travel_time_min": 10.9, "remaining_walk_min": 19.1 }, "geometry": { "type": "Point", "coordinates": [ 16.631748, 49.200186 ] } },
{ "type": "Feature", "properties": { "uid": 43220112, "name": "Masná - parkovací stání", "bike_travel_time_min": 7.0, "remaining_walk_min": 23.0 }, "geometry": { "type": "Point", "coordinates": [ 16.626689, 49.191178 ] } },
{ "type": "Feature", "properties": { "uid": 47249773, "name": "Štěpánská - parkovací stání", "bike_travel_time_min": 5.5, "remaining_walk_min": 24.5 }, "geometry": { "type": "Point", "coordinates": [ 16.619807, 49.191415 ] } },
{ "type": "Feature", "properties": { "uid": 47848330, "name": "Hrnčířská - parkovací stání", "bike_travel_time_min": 14.2, "remaining_walk_min": 15.8 }, "geometry": { "type": "Point", "coordinates": [ 16.603069, 49.210177 ] } },
{ "type": "Feature", "properties": { "uid": 47848716, "name": "Kartouzská - parkovací stání", "bike_travel_time_min": 15.0, "remaining_walk_min": 15.0 }, "geometry": { "type": "Point", "coordinates": [ 16.598915, 49.216595 ] } },
{ "type": "Feature", "properties": { "uid": 47848960, "name": "Tábor - parkovací stání", "bike_travel_time_min": 16.5, "remaining_walk_min": 13.5 }, "geometry": { "type": "Point", "coordinates": [ 16.58659, 49.210465 ] } },
{ "type": "Feature", "properties": { "uid": 47849096, "name": "Lužánecká - vstup do parku", "bike_travel_time_min": 11.2, "remaining_walk_min": 18.8 }, "geometry": { "type": "Point", "coordinates": [ 16.610548, 49.204735 ] } },
{ "type": "Feature", "properties": { "uid": 47849221, "name": "Výstaviště - parkovací stání", "bike_travel_time_min": 9.8, "remaining_walk_min": 20.2 }, "geometry": { "type": "Point", "coordinates": [ 16.587333, 49.188733 ] } },
{ "type": "Feature", "properties": { "uid": 54661294, "name": "Hanesova", "bike_travel_time_min": 14.8, "remaining_walk_min": 15.2 }, "geometry": { "type": "Point", "coordinates": [ 16.601098, 49.213014 ] } },
{ "type": "Feature", "properties": { "uid": 58736437, "name": "Moravská galerie - Pražákův palác", "bike_travel_time_min": 6.8, "remaining_walk_min": 23.2 }, "geometry": { "type": "Point", "coordinates": [ 16.604413, 49.195343 ] } },
{ "type": "Feature", "properties": { "uid": 59619776, "name": "Pionýrská", "bike_travel_time_min": 10.9, "remaining_walk_min": 19.1 }, "geometry": { "type": "Point", "coordinates": [ 16.604758, 49.207695 ] } },
{ "type": "Feature", "properties": { "uid": 63609999, "name": "River park", "bike_travel_time_min": 8.5, "remaining_walk_min": 21.5 }, "geometry": { "type": "Point", "coordinates": [ 16.601447, 49.182598 ] } },
{ "type": "Feature", "properties": { "uid": 67199345, "name": "Pokladníkova", "bike_travel_time_min": 20.4, "remaining_walk_min": 9.6 }, "geometry": { "type": "Point", "coordinates": [ 16.615842, 49.226967 ] } },
{ "type": "Feature", "properties": { "uid": 75593168, "name": "UÁN Zvonařka 1", "bike_travel_time_min": 6.9, "remaining_walk_min": 23.1 }, "geometry": { "type": "Point", "coordinates": [ 16.615596, 49.186015 ] } },
{ "type": "Feature", "properties": { "uid": 77290768, "name": "Sekaninova", "bike_travel_time_min": 11.9, "remaining_walk_min": 18.1 }, "geometry": { "type": "Point", "coordinates": [ 16.629138, 49.205791 ] } },
{ "type": "Feature", "properties": { "uid": 77290989, "name": "Zábrdovická", "bike_travel_time_min": 10.9, "remaining_walk_min": 19.1 }, "geometry": { "type": "Point", "coordinates": [ 16.628671, 49.202928 ] } },
{ "type": "Feature", "properties": { "uid": 77680310, "name": "Karáskovo náměstí", "bike_travel_time_min": 12.8, "remaining_walk_min": 17.2 }, "geometry": { "type": "Point", "coordinates": [ 16.64021, 49.197684 ] } },
{ "type": "Feature", "properties": { "uid": 78665624, "name": "Durďákova", "bike_travel_time_min": 10.8, "remaining_walk_min": 19.2 }, "geometry": { "type": "Point", "coordinates": [ 16.6189, 49.20321 ] } },
{ "type": "Feature", "properties": { "uid": 82238102, "name": "Plynárenská", "bike_travel_time_min": 9.2, "remaining_walk_min": 20.8 }, "geometry": { "type": "Point", "coordinates": [ 16.625609, 49.197184 ] } },
{ "type": "Feature", "properties": { "uid": 82418817, "name": "Botanická", "bike_travel_time_min": 15.6, "remaining_walk_min": 14.4 }, "geometry": { "type": "Point", "coordinates": [ 16.597514, 49.210611 ] } },
{ "type": "Feature", "properties": { "uid": 86012628, "name": "Náměstí SNP", "bike_travel_time_min": 16.8, "remaining_walk_min": 13.2 }, "geometry": { "type": "Point", "coordinates": [ 16.621773, 49.217629 ] } },
{ "type": "Feature", "properties": { "uid": 92054630, "name": "Volejníkova", "bike_travel_time_min": 12.4, "remaining_walk_min": 17.6 }, "geometry": { "type": "Point", "coordinates": [ 16.62126, 49.20877 ] } },
{ "type": "Feature", "properties": { "uid": 92055441, "name": "Jugoslávská - pošta", "bike_travel_time_min": 16.2, "remaining_walk_min": 13.8 }, "geometry": { "type": "Point", "coordinates": [ 16.62268, 49.2114 ] } },
{ "type": "Feature", "properties": { "uid": 92057955, "name": "Koleje J. A. Komenského", "bike_travel_time_min": 16.1, "remaining_walk_min": 13.9 }, "geometry": { "type": "Point", "coordinates": [ 16.63005, 49.21548 ] } },
{ "type": "Feature", "properties": { "uid": 92061069, "name": "Zemědělská", "bike_travel_time_min": 16.9, "remaining_walk_min": 13.1 }, "geometry": { "type": "Point", "coordinates": [ 16.618377, 49.210382 ] } },
{ "type": "Feature", "properties": { "uid": 92061992, "name": "Durďákova/Tomanova", "bike_travel_time_min": 10.8, "remaining_walk_min": 19.2 }, "geometry": { "type": "Point", "coordinates": [ 16.61852, 49.20713 ] } },
{ "type": "Feature", "properties": { "uid": 98737806, "name": "Křídlovická", "bike_travel_time_min": 6.0, "remaining_walk_min": 24.0 }, "geometry": { "type": "Point", "coordinates": [ 16.6022, 49.18677 ] } },
{ "type": "Feature", "properties": { "uid": 98740055, "name": "Lužánky - Laundry", "bike_travel_time_min": 10.7, "remaining_walk_min": 19.3 }, "geometry": { "type": "Point", "coordinates": [ 16.606763, 49.203902 ] } },
{ "type": "Feature", "properties": { "uid": 98740520, "name": "Tř. Kpt. Jaroše", "bike_travel_time_min": 7.8, "remaining_walk_min": 22.2 }, "geometry": { "type": "Point", "coordinates": [ 16.610969, 49.20012 ] } },
{ "type": "Feature", "properties": { "uid": 106958675, "name": "Schodová", "bike_travel_time_min": 11.4, "remaining_walk_min": 18.6 }, "geometry": { "type": "Point", "coordinates": [ 16.61195, 49.206825 ] } },
{ "type": "Feature", "properties": { "uid": 108089720, "name": "Palackého - Albert", "bike_travel_time_min": 19.6, "remaining_walk_min": 10.4 }, "geometry": { "type": "Point", "coordinates": [ 16.59273, 49.228038 ] } },
{ "type": "Feature", "properties": { "uid": 108889872, "name": "Lužánky - Boby", "bike_travel_time_min": 13.8, "remaining_walk_min": 16.2 }, "geometry": { "type": "Point", "coordinates": [ 16.608435, 49.209206 ] } },
{ "type": "Feature", "properties": { "uid": 110955746, "name": "Prostřední", "bike_travel_time_min": 26.9, "remaining_walk_min": 3.1 }, "geometry": { "type": "Point", "coordinates": [ 16.608122, 49.231403 ] } },
{ "type": "Feature", "properties": { "uid": 112920359, "name": "Vaňkovka - Plotní", "bike_travel_time_min": 16.5, "remaining_walk_min": 13.5 }, "geometry": { "type": "Point", "coordinates": [ 16.615883, 49.187829 ] } },
{ "type": "Feature", "properties": { "uid": 172305245, "name": "Náměstí 28. října", "bike_travel_time_min": 8.2, "remaining_walk_min": 21.8 }, "geometry": { "type": "Point", "coordinates": [ 16.613646, 49.202079 ] } },
{ "type": "Feature", "properties": { "uid": 172307876, "name": "Skácelova - MHD", "bike_travel_time_min": 19.4, "remaining_walk_min": 10.6 }, "geometry": { "type": "Point", "coordinates": [ 16.58497, 49.22162 ] } },
{ "type": "Feature", "properties": { "uid": 172317335, "name": "Klusáčkova - MHD", "bike_travel_time_min": 14.8, "remaining_walk_min": 15.2 }, "geometry": { "type": "Point", "coordinates": [ 16.59289, 49.21217 ] } },
{ "type": "Feature", "properties": { "uid": 172321981, "name": "Botanic Bar & Bistro", "bike_travel_time_min": 14.9, "remaining_walk_min": 15.1 }, "geometry": { "type": "Point", "coordinates": [ 16.599954, 49.206922 ] } },
{ "type": "Feature", "properties": { "uid": 174319766, "name": "Benešova - MHD", "bike_travel_time_min": 5.8, "remaining_walk_min": 24.2 }, "geometry": { "type": "Point", "coordinates": [ 16.614584, 49.194746 ] } },
{ "type": "Feature", "properties": { "uid": 174789970, "name": "Konečného náměstí - MHD", "bike_travel_time_min": 11.1, "remaining_walk_min": 18.9 }, "geometry": { "type": "Point", "coordinates": [ 16.595159, 49.204451 ] } },
{ "type": "Feature", "properties": { "uid": 174795136, "name": "G. Preissové", "bike_travel_time_min": 20.0, "remaining_walk_min": 10.0 }, "geometry": { "type": "Point", "coordinates": [ 16.575939, 49.220271 ] } },
{ "type": "Feature", "properties": { "uid": 174796197, "name": "Vaňkovo náměstí", "bike_travel_time_min": 12.8, "remaining_walk_min": 17.2 }, "geometry": { "type": "Point", "coordinates": [ 16.585906, 49.194437 ] } },
{ "type": "Feature", "properties": { "uid": 185801414, "name": "DEPO Business Parking", "bike_travel_time_min": 19.3, "remaining_walk_min": 10.7 }, "geometry": { "type": "Point", "coordinates": [ 16.643985, 49.213354 ] } },
{ "type": "Feature", "properties": { "uid": 189122866, "name": "Nádražní - Kooperativa", "bike_travel_time_min": 6.1, "remaining_walk_min": 23.9 }, "geometry": { "type": "Point", "coordinates": [ 16.608076, 49.189787 ] } },
{ "type": "Feature", "properties": { "uid": 193857372, "name": "Svatopetrská", "bike_travel_time_min": 9.9, "remaining_walk_min": 20.1 }, "geometry": { "type": "Point", "coordinates": [ 16.62112, 49.179958 ] } },
{ "type": "Feature", "properties": { "uid": 193857973, "name": "Pedagogická fakulta MU", "bike_travel_time_min": 7.8, "remaining_walk_min": 22.2 }, "geometry": { "type": "Point", "coordinates": [ 16.598849, 49.186132 ] } },
{ "type": "Feature", "properties": { "uid": 193858401, "name": "Pellicova - Betlémský kostel", "bike_travel_time_min": 16.7, "remaining_walk_min": 13.3 }, "geometry": { "type": "Point", "coordinates": [ 16.601894, 49.192653 ] } },
{ "type": "Feature", "properties": { "uid": 193859785, "name": "Terezy Novákové - točna", "bike_travel_time_min": 28.2, "remaining_walk_min": 1.8 }, "geometry": { "type": "Point", "coordinates": [ 16.579045, 49.24725 ] } },
{ "type": "Feature", "properties": { "uid": 193860379, "name": "Veveří/Sokolská", "bike_travel_time_min": 11.3, "remaining_walk_min": 18.7 }, "geometry": { "type": "Point", "coordinates": [ 16.598024, 49.202637 ] } },
{ "type": "Feature", "properties": { "uid": 205052985, "name": "Semilasso", "bike_travel_time_min": 18.8, "remaining_walk_min": 11.2 }, "geometry": { "type": "Point", "coordinates": [ 16.593222, 49.22709 ] } },
{ "type": "Feature", "properties": { "uid": 205106755, "name": "Vyhlídka", "bike_travel_time_min": 27.9, "remaining_walk_min": 2.1 }, "geometry": { "type": "Point", "coordinates": [ 16.63336, 49.223497 ] } },
{ "type": "Feature", "properties": { "uid": 232458941, "name": "Celní", "bike_travel_time_min": 11.2, "remaining_walk_min": 18.8 }, "geometry": { "type": "Point", "coordinates": [ 16.596949, 49.179143 ] } },
{ "type": "Feature", "properties": { "uid": 257154152, "name": "Olympia - vchod Kika", "bike_travel_time_min": 28.6, "remaining_walk_min": 1.4 }, "geometry": { "type": "Point", "coordinates": [ 16.631602, 49.136618 ] } },
{ "type": "Feature", "properties": { "uid": 257156866, "name": "Olympia - vchod Subway", "bike_travel_time_min": 26.9, "remaining_walk_min": 3.1 }, "geometry": { "type": "Point", "coordinates": [ 16.631396, 49.139491 ] } },
{ "type": "Feature", "properties": { "uid": 265435635, "name": "Garáže u Janáčkova divadla", "bike_travel_time_min": 6.4, "remaining_walk_min": 23.6 }, "geometry": { "type": "Point", "coordinates": [ 16.60937, 49.19855 ] } },
{ "type": "Feature", "properties": { "uid": 276809565, "name": "Podzimní - zastávka MHD", "bike_travel_time_min": 21.6, "remaining_walk_min": 8.4 }, "geometry": { "type": "Point", "coordinates": [ 16.652945, 49.221669 ] } },
{ "type": "Feature", "properties": { "uid": 276811132, "name": "Radnice MČ Maloměřice a Obřany", "bike_travel_time_min": 21.6, "remaining_walk_min": 8.4 }, "geometry": { "type": "Point", "coordinates": [ 16.643393, 49.218537 ] } },
{ "type": "Feature", "properties": { "uid": 301708305, "name": "Franzova", "bike_travel_time_min": 21.0, "remaining_walk_min": 9.0 }, "geometry": { "type": "Point", "coordinates": [ 16.642529, 49.221898 ] } },
{ "type": "Feature", "properties": { "uid": 302407814, "name": "Bráfova - parkovací stání", "bike_travel_time_min": 22.1, "remaining_walk_min": 7.9 }, "geometry": { "type": "Point", "coordinates": [ 16.574525, 49.211288 ] } },
{ "type": "Feature", "properties": { "uid": 302408602, "name": "Fanderlíkova - parkovací stání", "bike_travel_time_min": 21.3, "remaining_walk_min": 8.7 }, "geometry": { "type": "Point", "coordinates": [ 16.576859, 49.210441 ] } },
{ "type": "Feature", "properties": { "uid": 317050602, "name": "Pellicova", "bike_travel_time_min": 8.4, "remaining_walk_min": 21.6 }, "geometry": { "type": "Point", "coordinates": [ 16.59802, 49.192785 ] } },
{ "type": "Feature", "properties": { "uid": 364983918, "name": "Botanická/Sokolská", "bike_travel_time_min": 11.9, "remaining_walk_min": 18.1 }, "geometry": { "type": "Point", "coordinates": [ 16.60169, 49.20469 ] } },
{ "type": "Feature", "properties": { "uid": 364984422, "name": "Sportovní hala Vodova", "bike_travel_time_min": 21.1, "remaining_walk_min": 8.9 }, "geometry": { "type": "Point", "coordinates": [ 16.58401, 49.22733 ] } },
{ "type": "Feature", "properties": { "uid": 364984724, "name": "Srbská, fotbalový stadion - parkovací stání", "bike_travel_time_min": 20.6, "remaining_walk_min": 9.4 }, "geometry": { "type": "Point", "coordinates": [ 16.58717, 49.22806 ] } },
{ "type": "Feature", "properties": { "uid": 364985073, "name": "Vranovská", "bike_travel_time_min": 11.5, "remaining_walk_min": 18.5 }, "geometry": { "type": "Point", "coordinates": [ 16.62615, 49.20268 ] } },
{ "type": "Feature", "properties": { "uid": 364985401, "name": "Žižkova, VUT fakulta stavební - parkovací stání", "bike_travel_time_min": 15.5, "remaining_walk_min": 14.5 }, "geometry": { "type": "Point", "coordinates": [ 16.59095, 49.2059 ] } },
{ "type": "Feature", "properties": { "uid": 364987364, "name": "Táborského nábřeží", "bike_travel_time_min": 10.1, "remaining_walk_min": 19.9 }, "geometry": { "type": "Point", "coordinates": [ 16.59478, 49.18615 ] } },
{ "type": "Feature", "properties": { "uid": 364987575, "name": "Celní - parkovací stání", "bike_travel_time_min": 10.3, "remaining_walk_min": 19.7 }, "geometry": { "type": "Point", "coordinates": [ 16.59323, 49.17884 ] } },
{ "type": "Feature", "properties": { "uid": 364987832, "name": "Renneská třída", "bike_travel_time_min": 10.9, "remaining_walk_min": 19.1 }, "geometry": { "type": "Point", "coordinates": [ 16.5991, 49.18103 ] } },
{ "type": "Feature", "properties": { "uid": 364988125, "name": "Jindřichova - parkovací stání", "bike_travel_time_min": 17.1, "remaining_walk_min": 12.9 }, "geometry": { "type": "Point", "coordinates": [ 16.58303, 49.21418 ] } },
{ "type": "Feature", "properties": { "uid": 364991152, "name": "Tererova - parkovací stání", "bike_travel_time_min": 15.6, "remaining_walk_min": 14.4 }, "geometry": { "type": "Point", "coordinates": [ 16.58888, 49.21594 ] } },
{ "type": "Feature", "properties": { "uid": 364991472, "name": "Technické muzeum v Brně", "bike_travel_time_min": 21.7, "remaining_walk_min": 8.3 }, "geometry": { "type": "Point", "coordinates": [ 16.58202, 49.2283 ] } },
{ "type": "Feature", "properties": { "uid": 364991900, "name": "Aquapark Kohoutovice", "bike_travel_time_min": 25.4, "remaining_walk_min": 4.6 }, "geometry": { "type": "Point", "coordinates": [ 16.5415, 49.19329 ] } },
{ "type": "Feature", "properties": { "uid": 364992022, "name": "Albert, Libušina třída", "bike_travel_time_min": 25.2, "remaining_walk_min": 4.8 }, "geometry": { "type": "Point", "coordinates": [ 16.54004, 49.19437 ] } },
{ "type": "Feature", "properties": { "uid": 364992274, "name": "Pošta, Libušina třída", "bike_travel_time_min": 25.3, "remaining_walk_min": 4.7 }, "geometry": { "type": "Point", "coordinates": [ 16.53922, 49.19525 ] } },
{ "type": "Feature", "properties": { "uid": 364992432, "name": "Chopinova", "bike_travel_time_min": 28.5, "remaining_walk_min": 1.5 }, "geometry": { "type": "Point", "coordinates": [ 16.53069, 49.19469 ] } },
{ "type": "Feature", "properties": { "uid": 364992918, "name": "Knihovna, Kohoutovice", "bike_travel_time_min": 26.5, "remaining_walk_min": 3.5 }, "geometry": { "type": "Point", "coordinates": [ 16.53527, 49.18802 ] } },
{ "type": "Feature", "properties": { "uid": 371388139, "name": "Moravské náměstí - Čechova", "bike_travel_time_min": 6.8, "remaining_walk_min": 23.2 }, "geometry": { "type": "Point", "coordinates": [ 16.606516, 49.198383 ] } },
{ "type": "Feature", "properties": { "uid": 377980769, "name": "Hangar Brno", "bike_travel_time_min": 13.7, "remaining_walk_min": 16.3 }, "geometry": { "type": "Point", "coordinates": [ 16.60212, 49.167356 ] } },
{ "type": "Feature", "properties": { "uid": 423626675, "name": "ImpactHub", "bike_travel_time_min": 6.5, "remaining_walk_min": 23.5 }, "geometry": { "type": "Point", "coordinates": [ 16.620397, 49.190362 ] } },
{ "type": "Feature", "properties": { "uid": 519721785, "name": "Tř. Kpt. Jaroše II", "bike_travel_time_min": 7.6, "remaining_walk_min": 22.4 }, "geometry": { "type": "Point", "coordinates": [ 16.61121, 49.20059 ] } },
{ "type": "Feature", "properties": { "uid": 519721929, "name": "Kroftova - parkovací stání", "bike_travel_time_min": 19.8, "remaining_walk_min": 10.2 }, "geometry": { "type": "Point", "coordinates": [ 16.56787, 49.21665 ] } },
{ "type": "Feature", "properties": { "uid": 519722054, "name": "Jezuitská - parkovací stání", "bike_travel_time_min": 9.2, "remaining_walk_min": 20.8 }, "geometry": { "type": "Point", "coordinates": [ 16.61141, 49.1972 ] } },
{ "type": "Feature", "properties": { "uid": 519722205, "name": "Horní - parkovací stání", "bike_travel_time_min": 13.8, "remaining_walk_min": 16.2 }, "geometry": { "type": "Point", "coordinates": [ 16.59195, 49.17969 ] } },
{ "type": "Feature", "properties": { "uid": 519722326, "name": "Charvatská - parkovací stání", "bike_travel_time_min": 19.8, "remaining_walk_min": 10.2 }, "geometry": { "type": "Point", "coordinates": [ 16.59185, 49.22035 ] } },
{ "type": "Feature", "properties": { "uid": 519722428, "name": "Botanka - parkovací stání", "bike_travel_time_min": 12.5, "remaining_walk_min": 17.5 }, "geometry": { "type": "Point", "coordinates": [ 16.6008, 49.20586 ] } },
{ "type": "Feature", "properties": { "uid": 519722546, "name": "Sirotkova - parkovací stání", "bike_travel_time_min": 15.0, "remaining_walk_min": 15.0 }, "geometry": { "type": "Point", "coordinates": [ 16.58001, 49.21059 ] } },
{ "type": "Feature", "properties": { "uid": 519722633, "name": "Nerudova - parkovací stání", "bike_travel_time_min": 17.2, "remaining_walk_min": 12.8 }, "geometry": { "type": "Point", "coordinates": [ 16.59558, 49.20672 ] } },
{ "type": "Feature", "properties": { "uid": 519722745, "name": "Za Lužánkami - parkovací stání", "bike_travel_time_min": 16.3, "remaining_walk_min": 13.7 }, "geometry": { "type": "Point", "coordinates": [ 16.60971, 49.21011 ] } },
{ "type": "Feature", "properties": { "uid": 519723053, "name": "Poznaňská, parkoviště", "bike_travel_time_min": 19.3, "remaining_walk_min": 10.7 }, "geometry": { "type": "Point", "coordinates": [ 16.57921, 49.218 ] } },
{ "type": "Feature", "properties": { "uid": 519723186, "name": "Vychodilova, parkoviště", "bike_travel_time_min": 20.1, "remaining_walk_min": 9.9 }, "geometry": { "type": "Point", "coordinates": [ 16.57195, 49.2202 ] } },
{ "type": "Feature", "properties": { "uid": 519723466, "name": "Gorkého, Pivnice U Čápa", "bike_travel_time_min": 10.5, "remaining_walk_min": 19.5 }, "geometry": { "type": "Point", "coordinates": [ 16.59808, 49.19975 ] } },
{ "type": "Feature", "properties": { "uid": 519723547, "name": "Foestrova, knihovna", "bike_travel_time_min": 19.2, "remaining_walk_min": 10.8 }, "geometry": { "type": "Point", "coordinates": [ 16.57623, 49.21652 ] } },
{ "type": "Feature", "properties": { "uid": 519723694, "name": "Šámalova, dětské hřiště", "bike_travel_time_min": 10.3, "remaining_walk_min": 19.7 }, "geometry": { "type": "Point", "coordinates": [ 16.63655, 49.1943 ] } },
{ "type": "Feature", "properties": { "uid": 519723956, "name": "Haškova, pošta", "bike_travel_time_min": 28.8, "remaining_walk_min": 1.2 }, "geometry": { "type": "Point", "coordinates": [ 16.62716, 49.23204 ] } },
{ "type": "Feature", "properties": { "uid": 519724032, "name": "Křenová, Úřad práce", "bike_travel_time_min": 4.8, "remaining_walk_min": 25.2 }, "geometry": { "type": "Point", "coordinates": [ 16.61974, 49.19185 ] } },
{ "type": "Feature", "properties": { "uid": 519725192, "name": "Janouškova, ZŠ", "bike_travel_time_min": 19.6, "remaining_walk_min": 10.4 }, "geometry": { "type": "Point", "coordinates": [ 16.62268, 49.21992 ] } },
{ "type": "Feature", "properties": { "uid": 519725268, "name": "Holzova, ZŠ", "bike_travel_time_min": 27.7, "remaining_walk_min": 2.3 }, "geometry": { "type": "Point", "coordinates": [ 16.69451, 49.202 ] } },
{ "type": "Feature", "properties": { "uid": 519725369, "name": "Amerlingova, ZŠ", "bike_travel_time_min": 21.1, "remaining_walk_min": 8.9 }, "geometry": { "type": "Point", "coordinates": [ 16.5811, 49.16807 ] } },
{ "type": "Feature", "properties": { "uid": 519725444, "name": "Sirotkova, ZŠ", "bike_travel_time_min": 15.4, "remaining_walk_min": 14.6 }, "geometry": { "type": "Point", "coordinates": [ 16.58207, 49.21025 ] } },
{ "type": "Feature", "properties": { "uid": 519725620, "name": "Palackého třída/Pešinova", "bike_travel_time_min": 15.9, "remaining_walk_min": 14.1 }, "geometry": { "type": "Point", "coordinates": [ 16.59708, 49.21978 ] } },
{ "type": "Feature", "properties": { "uid": 519725722, "name": "Souběžná", "bike_travel_time_min": 20.8, "remaining_walk_min": 9.2 }, "geometry": { "type": "Point", "coordinates": [ 16.65988, 49.19008 ] } },
{ "type": "Feature", "properties": { "uid": 519725891, "name": "Dětská nemocnice", "bike_travel_time_min": 10.4, "remaining_walk_min": 19.6 }, "geometry": { "type": "Point", "coordinates": [ 16.61819, 49.20373 ] } },
{ "type": "Feature", "properties": { "uid": 519726085, "name": "Šámalova/Kuldova", "bike_travel_time_min": 9.7, "remaining_walk_min": 20.3 }, "geometry": { "type": "Point", "coordinates": [ 16.63169, 49.19936 ] } },
{ "type": "Feature", "properties": { "uid": 519726264, "name": "Jungmannova", "bike_travel_time_min": 20.1, "remaining_walk_min": 9.9 }, "geometry": { "type": "Point", "coordinates": [ 16.59648, 49.22077 ] } },
{ "type": "Feature", "properties": { "uid": 519726515, "name": "Františkánská", "bike_travel_time_min": 14.0, "remaining_walk_min": 16.0 }, "geometry": { "type": "Point", "coordinates": [ 16.61186, 49.19281 ] } },
{ "type": "Feature", "properties": { "uid": 519726517, "name": "Mojmírovo náměstí, gymnázium - parkovací stání", "bike_travel_time_min": 18.9, "remaining_walk_min": 11.1 }, "geometry": { "type": "Point", "coordinates": [ 16.59729, 49.22445 ] } },
{ "type": "Feature", "properties": { "uid": 519726612, "name": "Mazourova", "bike_travel_time_min": 14.4, "remaining_walk_min": 15.6 }, "geometry": { "type": "Point", "coordinates": [ 16.6564, 49.19092 ] } },
{ "type": "Feature", "properties": { "uid": 519726703, "name": "Koupaliště Kraví hora", "bike_travel_time_min": 18.3, "remaining_walk_min": 11.7 }, "geometry": { "type": "Point", "coordinates": [ 16.58531, 49.2019 ] } },
{ "type": "Feature", "properties": { "uid": 519726772, "name": "Sportovní", "bike_travel_time_min": 14.6, "remaining_walk_min": 15.4 }, "geometry": { "type": "Point", "coordinates": [ 16.60805, 49.2115 ] } },
{ "type": "Feature", "properties": { "uid": 519726891, "name": "Rašelinová", "bike_travel_time_min": 26.9, "remaining_walk_min": 3.1 }, "geometry": { "type": "Point", "coordinates": [ 16.68603, 49.20562 ] } },
{ "type": "Feature", "properties": { "uid": 519726936, "name": "Kollárova", "bike_travel_time_min": 18.0, "remaining_walk_min": 12.0 }, "geometry": { "type": "Point", "coordinates": [ 16.5956, 49.22577 ] } },
{ "type": "Feature", "properties": { "uid": 519727121, "name": "Vaňkovka - Zvonařka", "bike_travel_time_min": 6.5, "remaining_walk_min": 23.5 }, "geometry": { "type": "Point", "coordinates": [ 16.61574, 49.18648 ] } },
{ "type": "Feature", "properties": { "uid": 519727187, "name": "Křídlovická/Zahradnická", "bike_travel_time_min": 7.3, "remaining_walk_min": 22.7 }, "geometry": { "type": "Point", "coordinates": [ 16.59797, 49.18835 ] } },
{ "type": "Feature", "properties": { "uid": 520718471, "name": "Smetanova", "bike_travel_time_min": 10.8, "remaining_walk_min": 19.2 }, "geometry": { "type": "Point", "coordinates": [ 16.60264, 49.20178 ] } },
{ "type": "Feature", "properties": { "uid": 552438125, "name": "Bratislavská/Stará (parkovací stání)", "bike_travel_time_min": 7.0, "remaining_walk_min": 23.0 }, "geometry": { "type": "Point", "coordinates": [ 16.617941, 49.199116 ] } },
{ "type": "Feature", "properties": { "uid": 557251598, "name": "Chodská/Tábor", "bike_travel_time_min": 15.2, "remaining_walk_min": 14.8 }, "geometry": { "type": "Point", "coordinates": [ 16.595219, 49.214016 ] } },
{ "type": "Feature", "properties": { "uid": 558515380, "name": "Leitnerova (parkovací stání)", "bike_travel_time_min": 7.5, "remaining_walk_min": 22.5 }, "geometry": { "type": "Point", "coordinates": [ 16.60257, 49.189785 ] } },
{ "type": "Feature", "properties": { "uid": 565584396, "name": "Náplavka, Renneská třída", "bike_travel_time_min": 7.3, "remaining_walk_min": 22.7 }, "geometry": { "type": "Point", "coordinates": [ 16.60192, 49.18368 ] } },
{ "type": "Feature", "properties": { "uid": 584469869, "name": "Bratří Žůrků (parkovací stání)", "bike_travel_time_min": 18.2, "remaining_walk_min": 11.8 }, "geometry": { "type": "Point", "coordinates": [ 16.62908, 49.17524 ] } },
{ "type": "Feature", "properties": { "uid": 589234395, "name": "Kobližná", "bike_travel_time_min": 7.2, "remaining_walk_min": 22.8 }, "geometry": { "type": "Point", "coordinates": [ 16.60962, 49.19535 ] } },
{ "type": "Feature", "properties": { "uid": 600454605, "name": "Kounicova - Sokol", "bike_travel_time_min": 10.8, "remaining_walk_min": 19.2 }, "geometry": { "type": "Point", "coordinates": [ 16.60023, 49.20324 ] } }
]
}
