{
"type": "FeatureCollection",
"name": "stations_shared_bike_15min",
"crs": { "type": "name", "properties": { "name": "urn:ogc:def:crs:OGC:1.3:CRS84" } },
"features": [
{ "type": "Feature", "properties": { "uid": 27619716, "name": "Veselá", "bike_travel_time_min": 8.1, "remaining_walk_min": 6.9 }, "geometry": { "type": "Point", "coordinates": [ 16.606506, 49.194872 ] } },
{ "type": "Feature", "properties": { "uid": 27619804, "name": "Dominikánské náměstí - Jalta", "bike_travel_time_min": 7.0, "remaining_walk_min": 8.0 }, "geometry": { "type": "Point", "coordinates": [ 16.606447, 49.194139 ] } },
{ "type": "Feature", "properties": { "uid": 27619984, "name": "Jakubská", "bike_travel_time_min": 8.3, "remaining_walk_min": 6.7 }, "geometry": { "type": "Point", "coordinates": [ 16.607289, 49.196369 ] } },
{ "type": "Feature", "properties": { "uid": 27620016, "name": "Zelný trh - Husa na provázku", "bike_travel_time_min": 5.4, "remaining_walk_min": 9.6 }, "geometry": { "type": "Point", "coordinates": [ 16.608168, 49.192036 ] } },
{ "type": "Feature", "properties": { "uid": 27620034, "name": "Zelný trh - Tržnice", "bike_travel_time_min": 5.0, "remaining_walk_min": 10.0 }, "geometry": { "type": "Point", "coordinates": [ 16.608233, 49.192544 ] } },
{ "type": "Feature", "properties": { "uid": 27620053, "name": "Zelný trh - Reduta", "bike_travel_time_min": 6.4, "remaining_walk_min": 8.6 }, "geometry": { "type": "Point", "coordinates": [ 16.609182, 49.192043 ] } },
{ "type": "Feature", "properties": { "uid": 27620080, "name": "Hlavní nádraží - pošta", "bike_travel_time_min": 12.1, "remaining_walk_min": 2.9 }, "geometry": { "type": "Point", "coordinates": [ 16.610845, 49.190507 ] } },
{ "type": "Feature", "properties": { "uid": 27620182, "name": "Orlí", "bike_travel_time_min": 5.9, "remaining_walk_min": 9.1 }, "geometry": { "type": "Point", "coordinates": [ 16.612144, 49.193999 ] } },
{ "type": "Feature", "properties": { "uid": 27620208, "name": "Novobranská", "bike_travel_time_min": 5.4, "remaining_walk_min": 9.6 }, "geometry": { "type": "Point", "coordinates": [ 16.612846, 49.195037 ] } },
{ "type": "Feature", "properties": { "uid": 27620262, "name": "Malinovského náměstí - Dům umění", "bike_travel_time_min": 8.4, "remaining_walk_min": 6.6 }, "geometry": { "type": "Point", "coordinates": [ 16.615046, 49.196004 ] } },
{ "type": "Feature", "properties": { "uid": 27620309, "name": "Dvořákova", "bike_travel_time_min": 8.1, "remaining_walk_min": 6.9 }, "geometry": { "type": "Point", "coordinates": [ 16.611285, 49.196159 ] } },
{ "type": "Feature", "properties": { "uid": 27620341, "name": "Moravské náměstí - Joštova", "bike_travel_time_min": 7.4, "remaining_walk_min": 7.6 }, "geometry": { "type": "Point", "coordinates": [ 16.606833, 49.197915 ] } },
{ "type": "Feature", "properties": { "uid": 27620421, "name": "Komenského náměstí - FSS MU", "bike_travel_time_min": 8.0, "remaining_walk_min": 7.0 }, "geometry": { "type": "Point", "coordinates": [ 16.601908, 49.197126 ] } },
{ "type": "Feature", "properties": { "uid": 27620459, "name": "Marešova - Café Atlas", "bike_travel_time_min": 7.8, "remaining_walk_min": 7.2 }, "geometry": { "type": "Point", "coordinates": [ 16.602257, 49.198122 ] } },
{ "type": "Feature", "properties": { "uid": 27708395, "name": "Veveří - Gorkého", "bike_travel_time_min": 9.5, "remaining_walk_min": 5.5 }, "geometry": { "type": "Point", "coordinates": [ 16.601045, 49.200137 ] } },
{ "type": "Feature", "properties": { "uid": 27708601, "name": "Arne Nováka - FF MU", "bike_travel_time_min": 10.6, "remaining_walk_min": 4.4 }, "geometry": { "type": "Point", "coordinates": [ 16.598657, 49.200137 ] } },
{ "type": "Feature", "properties": { "uid": 27719385, "name": "Kounicova - Melodka", "bike_travel_time_min": 9.5, "remaining_walk_min": 5.5 }, "geometry": { "type": "Point", "coordinates": [ 16.600626, 49.202871 ] } },
{ "type": "Feature", "properties": { "uid": 27759817, "name": "Poříčí - FA VUT", "bike_travel_time_min": 10.9, "remaining_walk_min": 4.1 }, "geometry": { "type": "Point", "coordinates": [ 16.594189, 49.186798 ] } },
{ "type": "Feature", "properties": { "uid": 27760315, "name": "Vaňkovka - Trnitá", "bike_travel_time_min": 6.2, "remaining_walk_min": 8.8 }, "geometry": { "type": "Point", "coordinates": [ 16.614209, 49.187121 ] } },
{ "type": "Feature", "properties": { "uid": 27760444, "name": "Tkalcovská - Albert", "bike_travel_time_min": 10.1, "remaining_walk_min": 4.9 }, "geometry": { "type": "Point", "coordinates": [ 16.627577, 49.199692 ] } },
{ "type": "Feature", "properties": { "uid": 28124608, "name": "Novobranská - DPMB", "bike_travel_time_min": 6.6, "remaining_walk_min": 8.4 }, "geometry": { "type": "Point", "coordinates": [ 16.613436, 49.193663 ] } },
{ "type": "Feature", "properties": { "uid": 28138980, "name": "Sportovní - Kaufland", "bike_travel_time_min": 13.8, "remaining_walk_min": 1.2 }, "geometry": { "type": "Point", "coordinates": [ 16.604574, 49.215772 ] } },
{ "type": "Feature", "properties": { "uid": 28139907, "name": "Konečného náměstí", "bike_travel_time_min": 11.3, "remaining_walk_min": 3.7 }, "geometry": { "type": "Point", "coordinates": [ 16.594602, 49.204613 ] } },
{ "type": "Feature", "properties": { "uid": 28345023, "name": "Mendlovo náměstí - Albert", "bike_travel_time_min": 10.0, "remaining_walk_min": 5.0 }, "geometry": { "type": "Point", "coordinates": [ 16.593508, 49.189694 ] } },
{ "type": "Feature", "properties": { "uid": 28370607, "name": "Spielberk Office Centre", "bike_travel_time_min": 9.3, "remaining_walk_min": 5.7 }, "geometry": { "type": "Point", "coordinates": [ 16.605315, 49.180353 ] } },
{ "type": "Feature", "properties": { "uid": 28371142, "name": "Vídeňská - Albert", "bike_travel_time_min": 11.7, "remaining_walk_min": 3.3 }, "geometry": { "type": "Point", "coordinates": [ 16.59635, 49.17646 ] } },
{ "type": "Feature", "properties": { "uid": 28401324, "name": "Gorkého - Bláhovka", "bike_travel_time_min": 13.3, "remaining_walk_min": 1.7 }, "geometry": { "type": "Point", "coordinates": [ 16.593615, 49.199177 ] } },
{ "type": "Feature", "properties": { "uid": 28842231, "name": "Gorkého - Jiráskova", "bike_travel_time_min": 10.7, "remaining_walk_min": 4.3 }, "geometry": { "type": "Point", "coordinates": [ 16.596667, 49.19959 ] } },
{ "type": "Feature", "properties": { "uid": 28842401, "name": "Joštova", "bike_travel_time_min": 7.7, "remaining_walk_min": 7.3 }, "geometry": { "type": "Point", "coordinates": [ 16.604832, 49.197372 ] } },
{ "type": "Feature", "properties": { "uid": 28968877, "name": "Žerotínovo náměstí - Bílý dům", "bike_travel_time_min": 7.3, "remaining_walk_min": 7.7 }, "geometry": { "type": "Point", "coordinates": [ 16.603035, 49.198514 ] } },
{ "type": "Feature", "properties": { "uid": 29078342, "name": "Morgal", "bike_travel_time_min": 8.1, "remaining_walk_min": 6.9 }, "geometry": { "type": "Point", "coordinates": [ 16.607959, 49.197754 ] } },
{ "type": "Feature", "properties": { "uid": 29316893, "name": "Jánská - U Tří knížat", "bike_travel_time_min": 6.5, "remaining_walk_min": 8.5 }, "geometry": { "type": "Point", "coordinates": [ 16.610405, 49.194364 ] } },
{ "type": "Feature", "properties": { "uid": 29559619, "name": "Mendlovo náměstí - Bazilika", "bike_travel_time_min": 11.2, "remaining_walk_min": 3.8 }, "geometry": { "type": "Point", "coordinates": [ 16.595079, 49.191128 ] } },
{ "type": "Feature", "properties": { "uid": 29559680, "name": "Pekařská - FNUSA", "bike_travel_time_min": 7.1, "remaining_walk_min": 7.9 }, "geometry": { "type": "Point", "coordinates": [ 16.598942, 49.191349 ] } },
{ "type": "Feature", "properties": { "uid": 29559771, "name": "Nové sady - Rondo", "bike_travel_time_min": 7.9, "remaining_walk_min": 7.1 }, "geometry": { "type": "Point", "coordinates": [ 16.603416, 49.18575 ] } },
{ "type": "Feature", "properties": { "uid": 29560088, "name": "Husova - SSUD", "bike_travel_time_min": 8.9, "remaining_walk_min": 6.1 }, "geometry": { "type": "Point", "coordinates": [ 16.605454, 49.193736 ] } },
{ "type": "Feature", "properties": { "uid": 29568816, "name": "Obilní trh - hřiště", "bike_travel_time_min": 10.5, "remaining_walk_min": 4.5 }, "geometry": { "type": "Point", "coordinates": [ 16.597515, 49.199527 ] } },
{ "type": "Feature", "properties": { "uid": 29798652, "name": "Moravské náměstí - Scala", "bike_travel_time_min": 8.5, "remaining_walk_min": 6.5 }, "geometry": { "type": "Point", "coordinates": [ 16.608324, 49.19747 ] } },
{ "type": "Feature", "properties": { "uid": 29798705, "name": "Tř. Kpt. Jaroše - Gymnázium", "bike_travel_time_min": 9.6, "remaining_walk_min": 5.4 }, "geometry": { "type": "Point", "coordinates": [ 16.610942, 49.202258 ] } },
{ "type": "Feature", "properties": { "uid": 29799643, "name": "Moravské náměstí - průchod Mášova", "bike_travel_time_min": 7.0, "remaining_walk_min": 8.0 }, "geometry": { "type": "Point", "coordinates": [ 16.606404, 49.199762 ] } },
{ "type": "Feature", "properties": { "uid": 30000076, "name": "ZŠ Řehořova", "bike_travel_time_min": 12.4, "remaining_walk_min": 2.6 }, "geometry": { "type": "Point", "coordinates": [ 16.634878, 49.18421 ] } },
{ "type": "Feature", "properties": { "uid": 30048036, "name": "Titanium", "bike_travel_time_min": 6.6, "remaining_walk_min": 8.4 }, "geometry": { "type": "Point", "coordinates": [ 16.606532, 49.187952 ] } },
{ "type": "Feature", "properties": { "uid": 30919249, "name": "Radnice MČ Černovice", "bike_travel_time_min": 10.4, "remaining_walk_min": 4.6 }, "geometry": { "type": "Point", "coordinates": [ 16.636949, 49.186563 ] } },
{ "type": "Feature", "properties": { "uid": 30921410, "name": "Cornovova - Albert", "bike_travel_time_min": 11.4, "remaining_walk_min": 3.6 }, "geometry": { "type": "Point", "coordinates": [ 16.642731, 49.187605 ] } },
{ "type": "Feature", "properties": { "uid": 32494084, "name": "ZŠ Štolcova", "bike_travel_time_min": 11.6, "remaining_walk_min": 3.4 }, "geometry": { "type": "Point", "coordinates": [ 16.635919, 49.188902 ] } },
{ "type": "Feature", "properties": { "uid": 32494412, "name": "Nádraží Židenice", "bike_travel_time_min": 12.2, "remaining_walk_min": 2.8 }, "geometry": { "type": "Point", "coordinates": [ 16.636573, 49.203719 ] } },
{ "type": "Feature", "properties": { "uid": 34836514, "name": "Vlněna Office Park", "bike_travel_time_min": 4.3, "remaining_walk_min": 10.7 }, "geometry": { "type": "Point", "coordinates": [ 16.617106, 49.189396 ] } },
{ "type": "Feature", "properties": { "uid": 34836775, "name": "Ponávka Business Park", "bike_travel_time_min": 6.7, "remaining_walk_min": 8.3 }, "geometry": { "type": "Point", "coordinates": [ 16.621928, 49.184929 ] } },
{ "type": "Feature", "properties": { "uid": 36274109, "name": "Spielberk Office Centre - hotel", "bike_travel_time_min": 8.8, "remaining_walk_min": 6.2 }, "geometry": { "type": "Point", "coordinates": [ 16.605695, 49.181865 ] } },
{ "type": "Feature", "properties": { "uid": 42907906, "name": "Gajdošova - kostel", "bike_travel_time_min": 13.9, "remaining_walk_min": 1.1 }, "geometry": { "type": "Point", "coordinates": [ 16.646056, 49.198745 ] } },
{ "type": "Feature", "properties": { "uid": 43219342, "name": "ZŠ Merhautova", "bike_travel_time_min": 12.3, "remaining_walk_min": 2.7 }, "geometry": { "type": "Point", "coordinates": [ 16.624193, 49.205131 ] } },
{ "type": "Feature", "properties": { "uid": 43219489, "name": "Šámalova - Tyršova ZŠ", "bike_travel_time_min": 10.9, "remaining_walk_min": 4.1 }, "geometry": { "type": "Point", "coordinates": [ 16.631748, 49.200186 ] } },
{ "type": "Feature", "properties": { "uid": 43220112, "name": "Masná - parkovací stání", "bike_travel_time_min": 7.0, "remaining_walk_min": 8.0 }, "geometry": { "type": "Point", "coordinates": [ 16.626689, 49.191178 ] } },
{ "type": "Feature", "properties": { "uid": 47249773, "name": "Štěpánská - parkovací stání", "bike_travel_time_min": 5.5, "remaining_walk_min": 9.5 }, "geometry": { "type": "Point", "coordinates": [ 16.619807, 49.191415 ] } },
{ "type": "Feature", "properties": { "uid": 47849096, "name": "Lužánecká - vstup do parku", "bike_travel_time_min": 11.2, "remaining_walk_min": 3.8 }, "geometry": { "type": "Point", "coordinates": [ 16.610548, 49.204735 ] } },
{ "type": "Feature", "properties": { "uid": 47849221, "name": "Výstaviště - parkovací stání", "bike_travel_time_min": 9.8, "remaining_walk_min": 5.2 }, "geometry": { "type": "Point", "coordinates": [ 16.587333, 49.188733 ] } },
{ "type": "Feature", "properties": { "uid": 58736437, "name": "Moravská galerie - Pražákův palác", "bike_travel_time_min": 6.8, "remaining_walk_min": 8.2 }, "geometry": { "type": "Point", "coordinates": [ 16.604413, 49.195343 ] } },
{ "type": "Feature", "properties": { "uid": 59619776, "name": "Pionýrská", "bike_travel_time_min": 10.9, "remaining_walk_min": 4.1 }, "geometry": { "type": "Point", "coordinates": [ 16.604758, 49.207695 ] } },
{ "type": "Feature", "properties": { "uid": 63609999, "name": "River park", "bike_travel_time_min": 8.5, "remaining_walk_min": 6.5 }, "geometry": { "type": "Point", "coordinates": [ 16.601447, 49.182598 ] } },
{ "type": "Feature", "properties": { "uid": 75593168, "name": "UÁN Zvonařka 1", "bike_travel_time_min": 6.9, "remaining_walk_min": 8.1 }, "geometry": { "type": "Point", "coordinates": [ 16.615596, 49.186015 ] } },
{ "type": "Feature", "properties": { "uid": 77290768, "name": "Sekaninova", "bike_travel_time_min": 11.9, "remaining_walk_min": 3.1 }, "geometry": { "type": "Point", "coordinates": [ 16.629138, 49.205791 ] } },
{ "type": "Feature", "properties": { "uid": 77290989, "name": "Zábrdovická", "bike_travel_time_min": 10.9, "remaining_walk_min": 4.1 }, "geometry": { "type": "Point", "coordinates": [ 16.628671, 49.202928 ] } },
{ "type": "Feature", "properties": { "uid": 77680310, "name": "Karáskovo náměstí", "bike_travel_time_min": 12.8, "remaining_walk_min": 2.2 }, "geometry": { "type": "Point", "coordinates": [ 16.64021, 49.197684 ] } },
{ "type": "Feature", "properties": { "uid": 78665624, "name": "Durďákova", "bike_travel_time_min": 10.8, "remaining_walk_min": 4.2 }, "geometry": { "type": "Point", "coordinates": [ 16.6189, 49.20321 ] } },
{ "type": "Feature", "properties": { "uid": 82238102, "name": "Plynárenská", "bike_travel_time_min": 9.2, "remaining_walk_min": 5.8 }, "geometry": { "type": "Point", "coordinates": [ 16.625609, 49.197184 ] } },
{ "type": "Feature", "properties": { "uid": 92054630, "name": "Volejníkova", "bike_travel_time_min": 12.4, "remaining_walk_min": 2.6 }, "geometry": { "type": "Point", "coordinates": [ 16.62126, 49.20877 ] } },
{ "type": "Feature", "properties": { "uid": 92061992, "name": "Durďákova/Tomanova", "bike_travel_time_min": 10.8, "remaining_walk_min": 4.2 }, "geometry": { "type": "Point", "coordinates": [ 16.61852, 49.20713 ] } },
{ "type": "Feature", "properties": { "uid": 98737806, "name": "Křídlovická", "bike_travel_time_min": 6.0, "remaining_walk_min": 9.0 }, "geometry": { "type": "Point", "coordinates": [ 16.6022, 49.18677 ] } },
{ "type": "Feature", "properties": { "uid": 98740055, "name": "Lužánky - Laundry", "bike_travel_time_min": 10.7, "remaining_walk_min": 4.3 }, "geometry": { "type": "Point", "coordinates": [ 16.606763, 49.203902 ] } },
{ "type": "Feature", "properties": { "uid": 98740520, "name": "Tř. Kpt. Jaroše", "bike_travel_time_min": 7.8, "remaining_walk_min": 7.2 }, "geometry": { "type": "Point", "coordinates": [ 16.610969, 49.20012 ] } },
{ "type": "Feature", "properties": { "uid": 106958675, "name": "Schodová", "bike_travel_time_min": 11.4, "remaining_walk_min": 3.6 }, "geometry": { "type": "Point", "coordinates": [ 16.61195, 49.206825 ] } },
{ "type": "Feature", "properties": { "uid": 108889872, "name": "Lužánky - Boby", "bike_travel_time_min": 13.8, "remaining_walk_min": 1.2 }, "geometry": { "type": "Point", "coordinates": [ 16.608435, 49.209206 ] } },
{ "type": "Feature", "properties": { "uid": 172305245, "name": "Náměstí 28. října", "bike_travel_time_min": 8.2, "remaining_walk_min": 6.8 }, "geometry": { "type": "Point", "coordinates": [ 16.613646, 49.202079 ] } },
{ "type": "Feature", "properties": { "uid": 174319766, "name": "Benešova - MHD", "bike_travel_time_min": 5.8, "remaining_walk_min": 9.2 }, "geometry": { "type": "Point", "coordinates": [ 16.614584, 49.194746 ] } },
{ "type": "Feature", "properties": { "uid": 174789970, "name": "Konečného náměstí - MHD", "bike_travel_time_min": 11.1, "remaining_walk_min": 3.9 }, "geometry": { "type": "Point", "coordinates": [ 16.595159, 49.204451 ] } },
{ "type": "Feature", "properties": { "uid": 174796197, "name": "Vaňkovo náměstí", "bike_travel_time_min": 12.8, "remaining_walk_min": 2.2 }, "geometry": { "type": "Point", "coordinates": [ 16.585906, 49.194437 ] } },
{ "type": "Feature", "properties": { "uid": 189122866, "name": "Nádražní - Kooperativa", "bike_travel_time_min": 6.1, "remaining_walk_min": 8.9 }, "geometry": { "type": "Point", "coordinates": [ 16.608076, 49.189787 ] } },
{ "type": "Feature", "properties": { "uid": 193857372, "name": "Svatopetrská", "bike_travel_time_min": 9.9, "remaining_walk_min": 5.1 }, "geometry": { "type": "Point", "coordinates": [ 16.62112, 49.179958 ] } },
{ "type": "Feature", "properties": { "uid": 193857973, "name": "Pedagogická fakulta MU", "bike_travel_time_min": 7.8, "remaining_walk_min": 7.2 }, "geometry": { "type": "Point", "coordinates": [ 16.598849, 49.186132 ] } },
{ "type": "Feature", "properties": { "uid": 193860379, "name": "Veveří/Sokolská", "bike_travel_time_min": 11.3, "remaining_walk_min": 3.7 }, "geometry": { "type": "Point", "coordinates": [ 16.598024, 49.202637 ] } },
{ "type": "Feature", "properties": { "uid": 232458941, "name": "Celní", "bike_travel_time_min": 11.2, "remaining_walk_min": 3.8 }, "geometry": { "type": "Point", "coordinates": [ 16.596949, 49.179143 ] } },
{ "type": "Feature", "properties": { "uid": 265435635, "name": "Garáže u Janáčkova divadla", "bike_travel_time_min": 6.4, "remaining_walk_min": 8.6 }, "geometry": { "type": "Point", "coordinates": [ 16.60937, 49.19855 ] } },
{ "type": "Feature", "properties": { "uid": 317050602, "name": "Pellicova", "bike_travel_time_min": 8.4, "remaining_walk_min": 6.6 }, "geometry": { "type": "Point", "coordinates": [ 16.59802, 49.192785 ] } },
{ "type": "Feature", "properties": { "uid": 364983918, "name": "Botanická/Sokolská", "bike_travel_time_min": 11.9, "remaining_walk_min": 3.1 }, "geometry": { "type": "Point", "coordinates": [ 16.60169, 49.20469 ] } },
{ "type": "Feature", "properties": { "uid": 364985073, "name": "Vranovská", "bike_travel_time_min": 11.5, "remaining_walk_min": 3.5 }, "geometry": { "type": "Point", "coordinates": [ 16.62615, 49.20268 ] } },
{ "type": "Feature", "properties": { "uid": 364987364, "name": "Táborského nábřeží", "bike_travel_time_min": 10.1, "remaining_walk_min": 4.9 }, "geometry": { "type": "Point", "coordinates": [ 16.59478, 49.18615 ] } },
{ "type": "Feature", "properties": { "uid": 364987575, "name": "Celní - parkovací stání", "bike_travel_time_min": 10.3, "remaining_walk_min": 4.7 }, "geometry": { "type": "Point", "coordinates": [ 16.59323, 49.17884 ] } },
{ "type": "Feature", "properties": { "uid": 364987832, "name": "Renneská třída", "bike_travel_time_min": 10.9, "remaining_walk_min": 4.1 }, "geometry": { "type": "Point", "coordinates": [ 16.5991, 49.18103 ] } },
{ "type": "Feature", "properties": { "uid": 371388139, "name": "Moravské náměstí - Čechova", "bike_travel_time_min": 6.8, "remaining_walk_min": 8.2 }, "geometry": { "type": "Point", "coordinates": [ 16.606516, 49.198383 ] } },
{ "type": "Feature", "properties": { "uid": 377980769, "name": "Hangar Brno", "bike_travel_time_min": 13.7, "remaining_walk_min": 1.3 }, "geometry": { "type": "Point", "coordinates": [ 16.60212, 49.167356 ] } },
{ "type": "Feature", "properties": { "uid": 423626675, "name": "ImpactHub", "bike_travel_time_min": 6.5, "remaining_walk_min": 8.5 }, "geometry": { "type": "Point", "coordinates": [ 16.620397, 49.190362 ] } },
{ "type": "Feature", "properties": { "uid": 519721785, "name": "Tř. Kpt. Jaroše II", "bike_travel_time_min": 7.6, "remaining_walk_min": 7.4 }, "geometry": { "type": "Point", "coordinates": [ 16.61121, 49.20059 ] } },
{ "type": "Feature", "properties": { "uid": 519722054, "name": "Jezuitská - parkovací stání", "bike_travel_time_min": 9.2, "remaining_walk_min": 5.8 }, "geometry": { "type": "Point", "coordinates": [ 16.61141, 49.1972 ] } },
{ "type": "Feature", "properties": { "uid": 519722205, "name": "Horní - parkovací stání", "bike_travel_time_min": 13.8, "remaining_walk_min": 1.2 }, "geometry": { "type": "Point", "coordinates": [ 16.59195, 49.17969 ] } },
{ "type": "Feature", "properties": { "uid": 519722428, "name": "Botanka - parkovací stání", "bike_travel_time_min": 12.5, "remaining_walk_min": 2.5 }, "geometry": { "type": "Point", "coordinates": [ 16.6008, 49.20586 ] } },
{ "type": "Feature", "properties": { "uid": 519723466, "name": "Gorkého, Pivnice U Čápa", "bike_travel_time_min": 10.5, "remaining_walk_min": 4.5 }, "geometry": { "type": "Point", "coordinates": [ 16.59808, 49.19975 ] } },
{ "type": "Feature", "properties": { "uid": 519723694, "name": "Šámalova, dětské hřiště", "bike_travel_time_min": 10.3, "remaining_walk_min": 4.7 }, "geometry": { "type": "Point", "coordinates": [ 16.63655, 49.1943 ] } },
{ "type": "Feature", "properties": { "uid": 519724032, "name": "Křenová, Úřad práce", "bike_travel_time_min": 4.8, "remaining_walk_min": 10.2 }, "geometry": { "type": "Point", "coordinates": [ 16.61974, 49.19185 ] } },
{ "type": "Feature", "properties": { "uid": 519725891, "name": "Dětská nemocnice", "bike_travel_time_min": 10.4, "remaining_walk_min": 4.6 }, "geometry": { "type": "Point", "coordinates": [ 16.61819, 49.20373 ] } },
{ "type": "Feature", "properties": { "uid": 519726085, "name": "Šámalova/Kuldova", "bike_travel_time_min": 9.7, "remaining_walk_min": 5.3 }, "geometry": { "type": "Point", "coordinates": [ 16.63169, 49.19936 ] } },
{ "type": "Feature", "properties": { "uid": 519726515, "name": "Františkánská", "bike_travel_time_min": 14.0, "remaining_walk_min": 1.0 }, "geometry": { "type": "Point", "coordinates": [ 16.61186, 49.19281 ] } },
{ "type": "Feature", "properties": { "uid": 519727121, "name": "Vaňkovka - Zvonařka", "bike_travel_time_min": 6.5, "remaining_walk_min": 8.5 }, "geometry": { "type": "Point", "coordinates": [ 16.61574, 49.18648 ] } },
{ "type": "Feature", "properties": { "uid": 519727187, "name": "Křídlovická/Zahradnická", "bike_travel_time_min": 7.3, "remaining_walk_min": 7.7 }, "geometry": { "type": "Point", "coordinates": [ 16.59797, 49.18835 ] } },
{ "type": "Feature", "properties": { "uid": 520718471, "name": "Smetanova", "bike_travel_time_min": 10.8, "remaining_walk_min": 4.2 }, "geometry": { "type": "Point", "coordinates": [ 16.60264, 49.20178 ] } },
{ "type": "Feature", "properties": { "uid": 552438125, "name": "Bratislavská/Stará (parkovací stání)", "bike_travel_time_min": 7.0, "remaining_walk_min": 8.0 }, "geometry": { "type": "Point", "coordinates": [ 16.617941, 49.199116 ] } },
{ "type": "Feature", "properties": { "uid": 558515380, "name": "Leitnerova (parkovací stání)", "bike_travel_time_min": 7.5, "remaining_walk_min": 7.5 }, "geometry": { "type": "Point", "coordinates": [ 16.60257, 49.189785 ] } },
{ "type": "Feature", "properties": { "uid": 565584396, "name": "Náplavka, Renneská třída", "bike_travel_time_min": 7.3, "remaining_walk_min": 7.7 }, "geometry": { "type": "Point", "coordinates": [ 16.60192, 49.18368 ] } },
{ "type": "Feature", "properties": { "uid": 589234395, "name": "Kobližná", "bike_travel_time_min": 7.2, "remaining_walk_min": 7.8 }, "geometry": { "type": "Point", "coordinates": [ 16.60962, 49.19535 ] } },
{ "type": "Feature", "properties": { "uid": 600454605, "name": "Kounicova - Sokol", "bike_travel_time_min": 10.8, "remaining_walk_min": 4.2 }, "geometry": { "type": "Point", "coordinates": [ 16.60023, 49.20324 ] } }
]
}
