{
"type": "FeatureCollection",
"name": "stations_shared_bike_15min",
"crs": { "type": "name", "properties": { "name": "urn:ogc:def:crs:OGC:1.3:CRS84" } },
"features": [
{ "type": "Feature", "properties": { "uid": 13361440, "name": "MOAP-sad B. Němcové", "bike_travel_time_min": 5.9, "remaining_walk_min": 9.1 }, "geometry": { "type": "Point", "coordinates": [ 18.277742, 49.850951 ] } },
{ "type": "Feature", "properties": { "uid": 13361455, "name": "MOAP-Husův sad", "bike_travel_time_min": 13.8, "remaining_walk_min": 1.2 }, "geometry": { "type": "Point", "coordinates": [ 18.287601, 49.838788 ] } },
{ "type": "Feature", "properties": { "uid": 13361487, "name": "MOAP-Prokešovo náměstí -Moravskoslezská vědecká knihovna", "bike_travel_time_min": 11.4, "remaining_walk_min": 3.6 }, "geometry": { "type": "Point", "coordinates": [ 18.29019, 49.841623 ] } },
{ "type": "Feature", "properties": { "uid": 13361512, "name": "MOAP-Hlavní nádraží", "bike_travel_time_min": 8.9, "remaining_walk_min": 6.1 }, "geometry": { "type": "Point", "coordinates": [ 18.267505, 49.850876 ] } },
{ "type": "Feature", "properties": { "uid": 13361767, "name": "MOAP-Tyršova", "bike_travel_time_min": 12.9, "remaining_walk_min": 2.1 }, "geometry": { "type": "Point", "coordinates": [ 18.287345, 49.835981 ] } },
{ "type": "Feature", "properties": { "uid": 13361894, "name": "MOAP-koupaliště Čapkárna", "bike_travel_time_min": 8.9, "remaining_walk_min": 6.1 }, "geometry": { "type": "Point", "coordinates": [ 18.289307, 49.844789 ] } },
{ "type": "Feature", "properties": { "uid": 13361908, "name": "MOAP-Komenského sady - vchod", "bike_travel_time_min": 9.8, "remaining_walk_min": 5.2 }, "geometry": { "type": "Point", "coordinates": [ 18.289475, 49.848961 ] } },
{ "type": "Feature", "properties": { "uid": 13361926, "name": "MOAP-Most Miloše Sýkory, knihovna", "bike_travel_time_min": 13.9, "remaining_walk_min": 1.1 }, "geometry": { "type": "Point", "coordinates": [ 18.2955, 49.83725 ] } },
{ "type": "Feature", "properties": { "uid": 13361945, "name": "MOAP-sportovní hala Sareza", "bike_travel_time_min": 6.9, "remaining_walk_min": 8.1 }, "geometry": { "type": "Point", "coordinates": [ 18.283739, 49.851439 ] } },
{ "type": "Feature", "properties": { "uid": 13361974, "name": "MOAP-Stodolní železniční zastávka", "bike_travel_time_min": 12.3, "remaining_walk_min": 2.7 }, "geometry": { "type": "Point", "coordinates": [ 18.281192, 49.834605 ] } },
{ "type": "Feature", "properties": { "uid": 13361988, "name": "MOAP-zastávka Futurum", "bike_travel_time_min": 13.4, "remaining_walk_min": 1.6 }, "geometry": { "type": "Point", "coordinates": [ 18.262184, 49.832802 ] } },
{ "type": "Feature", "properties": { "uid": 13362019, "name": "MOAP-Křižíkova", "bike_travel_time_min": 7.1, "remaining_walk_min": 7.9 }, "geometry": { "type": "Point", "coordinates": [ 18.280742, 49.845202 ] } },
{ "type": "Feature", "properties": { "uid": 13362033, "name": "MOAP-Partyzánské náměstí", "bike_travel_time_min": 7.7, "remaining_walk_min": 7.3 }, "geometry": { "type": "Point", "coordinates": [ 18.285678, 49.846717 ] } },
{ "type": "Feature", "properties": { "uid": 13362063, "name": "MOAP-Havlíčkovo nábřeží", "bike_travel_time_min": 12.3, "remaining_walk_min": 2.7 }, "geometry": { "type": "Point", "coordinates": [ 18.293708, 49.839928 ] } },
{ "type": "Feature", "properties": { "uid": 13362073, "name": "MOAP-Gorkého", "bike_travel_time_min": 8.6, "remaining_walk_min": 6.4 }, "geometry": { "type": "Point", "coordinates": [ 18.28206, 49.842562 ] } },
{ "type": "Feature", "properties": { "uid": 13362159, "name": "MOAP-křižovatka u pivovaru", "bike_travel_time_min": 10.9, "remaining_walk_min": 4.1 }, "geometry": { "type": "Point", "coordinates": [ 18.274943, 49.836406 ] } },
{ "type": "Feature", "properties": { "uid": 13362189, "name": "MOAP-Tieto towers", "bike_travel_time_min": 13.3, "remaining_walk_min": 1.7 }, "geometry": { "type": "Point", "coordinates": [ 18.278529, 49.830771 ] } },
{ "type": "Feature", "properties": { "uid": 13363184, "name": "MOAP-Orchard Park Inn", "bike_travel_time_min": 8.4, "remaining_walk_min": 6.6 }, "geometry": { "type": "Point", "coordinates": [ 18.269518, 49.841496 ] } },
{ "type": "Feature", "properties": { "uid": 13363203, "name": "MOAP-Novinářská", "bike_travel_time_min": 13.1, "remaining_walk_min": 1.9 }, "geometry": { "type": "Point", "coordinates": [ 18.262328, 49.836726 ] } },
{ "type": "Feature", "properties": { "uid": 13363263, "name": "MOAP-Generála Píky", "bike_travel_time_min": 8.4, "remaining_walk_min": 6.6 }, "geometry": { "type": "Point", "coordinates": [ 18.266199, 49.840458 ] } },
{ "type": "Feature", "properties": { "uid": 13363295, "name": "MOAP-nemocnice Fifejdy", "bike_travel_time_min": 12.2, "remaining_walk_min": 2.8 }, "geometry": { "type": "Point", "coordinates": [ 18.277164, 49.833055 ] } },
{ "type": "Feature", "properties": { "uid": 13363326, "name": "SL-Gagarinovo náměstí", "bike_travel_time_min": 13.8, "remaining_walk_min": 1.2 }, "geometry": { "type": "Point", "coordinates": [ 18.296655, 49.839974 ] } },
{ "type": "Feature", "properties": { "uid": 13363349, "name": "MOAP-Česká televize", "bike_travel_time_min": 12.6, "remaining_walk_min": 2.4 }, "geometry": { "type": "Point", "coordinates": [ 18.291408, 49.83811 ] } },
{ "type": "Feature", "properties": { "uid": 13363361, "name": "MOAP-Úřad práce", "bike_travel_time_min": 10.1, "remaining_walk_min": 4.9 }, "geometry": { "type": "Point", "coordinates": [ 18.283568, 49.839425 ] } },
{ "type": "Feature", "properties": { "uid": 13363378, "name": "MOAP-Most Pionýrů (rapzzz)", "bike_travel_time_min": 11.9, "remaining_walk_min": 3.1 }, "geometry": { "type": "Point", "coordinates": [ 18.291586, 49.840167 ] } },
{ "type": "Feature", "properties": { "uid": 13363387, "name": "MOAP-Pyková dáma", "bike_travel_time_min": 12.7, "remaining_walk_min": 2.3 }, "geometry": { "type": "Point", "coordinates": [ 18.292208, 49.842494 ] } },
{ "type": "Feature", "properties": { "uid": 13363423, "name": "MOAP-kino Vesmír", "bike_travel_time_min": 12.4, "remaining_walk_min": 2.6 }, "geometry": { "type": "Point", "coordinates": [ 18.286877, 49.836851 ] } },
{ "type": "Feature", "properties": { "uid": 13364025, "name": "MOAP-Poštovní", "bike_travel_time_min": 12.1, "remaining_walk_min": 2.9 }, "geometry": { "type": "Point", "coordinates": [ 18.289033, 49.837978 ] } },
{ "type": "Feature", "properties": { "uid": 13364215, "name": "MAR-Novoveská - Ostravské komunikace", "bike_travel_time_min": 11.8, "remaining_walk_min": 3.2 }, "geometry": { "type": "Point", "coordinates": [ 18.254626, 49.836986 ] } },
{ "type": "Feature", "properties": { "uid": 13364229, "name": "MOAP-MŠ Ostrava, Varenská", "bike_travel_time_min": 9.9, "remaining_walk_min": 5.1 }, "geometry": { "type": "Point", "coordinates": [ 18.272129, 49.836505 ] } },
{ "type": "Feature", "properties": { "uid": 13364397, "name": "MOAP-SC Varenská", "bike_travel_time_min": 11.5, "remaining_walk_min": 3.5 }, "geometry": { "type": "Point", "coordinates": [ 18.270251, 49.833657 ] } },
{ "type": "Feature", "properties": { "uid": 13364425, "name": "MOAP-náměstíčko Fifejdy", "bike_travel_time_min": 11.7, "remaining_walk_min": 3.3 }, "geometry": { "type": "Point", "coordinates": [ 18.272041, 49.835218 ] } },
{ "type": "Feature", "properties": { "uid": 13364442, "name": "MOAP-Špálova", "bike_travel_time_min": 5.2, "remaining_walk_min": 9.8 }, "geometry": { "type": "Point", "coordinates": [ 18.27305, 49.851703 ] } },
{ "type": "Feature", "properties": { "uid": 13364602, "name": "SL-sídliště Kamenec", "bike_travel_time_min": 12.0, "remaining_walk_min": 3.0 }, "geometry": { "type": "Point", "coordinates": [ 18.294918, 49.843186 ] } },
{ "type": "Feature", "properties": { "uid": 13366271, "name": "MAR-Stojanovo náměstí", "bike_travel_time_min": 13.8, "remaining_walk_min": 1.2 }, "geometry": { "type": "Point", "coordinates": [ 18.255627, 49.831474 ] } },
{ "type": "Feature", "properties": { "uid": 13366303, "name": "MAR-Novoveská", "bike_travel_time_min": 13.3, "remaining_walk_min": 1.7 }, "geometry": { "type": "Point", "coordinates": [ 18.251951, 49.834659 ] } },
{ "type": "Feature", "properties": { "uid": 13367618, "name": "MAR-parkoviště Jiřího Trnky", "bike_travel_time_min": 11.2, "remaining_walk_min": 3.8 }, "geometry": { "type": "Point", "coordinates": [ 18.260529, 49.836191 ] } },
{ "type": "Feature", "properties": { "uid": 13367709, "name": "MAR-Jiřího Trnky - knihovna", "bike_travel_time_min": 11.8, "remaining_walk_min": 3.2 }, "geometry": { "type": "Point", "coordinates": [ 18.259613, 49.834182 ] } },
{ "type": "Feature", "properties": { "uid": 14403130, "name": "MOAP-Outlet Arena Moravia", "bike_travel_time_min": 10.8, "remaining_walk_min": 4.2 }, "geometry": { "type": "Point", "coordinates": [ 18.254996, 49.859431 ] } },
{ "type": "Feature", "properties": { "uid": 14403347, "name": "SL-ČPP aréna", "bike_travel_time_min": 11.2, "remaining_walk_min": 3.8 }, "geometry": { "type": "Point", "coordinates": [ 18.295383, 49.85542 ] } },
{ "type": "Feature", "properties": { "uid": 27578940, "name": "MOAP-Hornopolní - pivovar", "bike_travel_time_min": 8.6, "remaining_walk_min": 6.4 }, "geometry": { "type": "Point", "coordinates": [ 18.271562, 49.840291 ] } },
{ "type": "Feature", "properties": { "uid": 27582509, "name": "MOAP-OZO Ostrava", "bike_travel_time_min": 11.1, "remaining_walk_min": 3.9 }, "geometry": { "type": "Point", "coordinates": [ 18.261124, 49.857124 ] } },
{ "type": "Feature", "properties": { "uid": 28402114, "name": "MOAP-Ostrčilova", "bike_travel_time_min": 10.3, "remaining_walk_min": 4.7 }, "geometry": { "type": "Point", "coordinates": [ 18.284924, 49.841585 ] } },
{ "type": "Feature", "properties": { "uid": 30920811, "name": "MOAP-Vozovna trolejbusů", "bike_travel_time_min": 6.7, "remaining_walk_min": 8.3 }, "geometry": { "type": "Point", "coordinates": [ 18.282614, 49.848754 ] } },
{ "type": "Feature", "properties": { "uid": 34071102, "name": "MOAP-Českobratrská", "bike_travel_time_min": 12.3, "remaining_walk_min": 2.7 }, "geometry": { "type": "Point", "coordinates": [ 18.289812, 49.839782 ] } },
{ "type": "Feature", "properties": { "uid": 41111379, "name": "PET-Pod Landekem", "bike_travel_time_min": 12.0, "remaining_walk_min": 3.0 }, "geometry": { "type": "Point", "coordinates": [ 18.25569, 49.866779 ] } },
{ "type": "Feature", "properties": { "uid": 47320754, "name": "MOAP-Prokešovo náměstí u kavárny", "bike_travel_time_min": 13.2, "remaining_walk_min": 1.8 }, "geometry": { "type": "Point", "coordinates": [ 18.29015, 49.84103 ] } },
{ "type": "Feature", "properties": { "uid": 55329579, "name": "MO-Park ČS. Letců", "bike_travel_time_min": 11.3, "remaining_walk_min": 3.7 }, "geometry": { "type": "Point", "coordinates": [ 18.288007, 49.840672 ] } },
{ "type": "Feature", "properties": { "uid": 82374110, "name": "MOAP-Parkoviště P+R u tramvajové smyčky Hlučínská", "bike_travel_time_min": 8.4, "remaining_walk_min": 6.6 }, "geometry": { "type": "Point", "coordinates": [ 18.265777, 49.860516 ] } },
{ "type": "Feature", "properties": { "uid": 89805272, "name": "SL - DPS Kamenec", "bike_travel_time_min": 12.4, "remaining_walk_min": 2.6 }, "geometry": { "type": "Point", "coordinates": [ 18.2947, 49.8464 ] } },
{ "type": "Feature", "properties": { "uid": 108153541, "name": "MOAP-Radniční restaurace", "bike_travel_time_min": 11.6, "remaining_walk_min": 3.4 }, "geometry": { "type": "Point", "coordinates": [ 18.292199, 49.841805 ] } },
{ "type": "Feature", "properties": { "uid": 108876378, "name": "MOAP-Mánesova", "bike_travel_time_min": 5.4, "remaining_walk_min": 9.6 }, "geometry": { "type": "Point", "coordinates": [ 18.275917, 49.847892 ] } },
{ "type": "Feature", "properties": { "uid": 110159155, "name": "MOAP - Sad B. Němcové, stanoviště 4", "bike_travel_time_min": 6.2, "remaining_walk_min": 8.8 }, "geometry": { "type": "Point", "coordinates": [ 18.279838, 49.850217 ] } },
{ "type": "Feature", "properties": { "uid": 150512151, "name": "MOAP - OC Koksovna", "bike_travel_time_min": 5.4, "remaining_walk_min": 9.6 }, "geometry": { "type": "Point", "coordinates": [ 18.27609, 49.85529 ] } },
{ "type": "Feature", "properties": { "uid": 176882402, "name": "MOAP - Muglinovská", "bike_travel_time_min": 5.5, "remaining_walk_min": 9.5 }, "geometry": { "type": "Point", "coordinates": [ 18.277774, 49.849364 ] } },
{ "type": "Feature", "properties": { "uid": 404529764, "name": "MOAP - Slavíčkova", "bike_travel_time_min": 7.5, "remaining_walk_min": 7.5 }, "geometry": { "type": "Point", "coordinates": [ 18.284134, 49.845802 ] } },
{ "type": "Feature", "properties": { "uid": 529205794, "name": "SL - U lávky", "bike_travel_time_min": 11.8, "remaining_walk_min": 3.2 }, "geometry": { "type": "Point", "coordinates": [ 18.293347, 49.843245 ] } },
{ "type": "Feature", "properties": { "uid": 545140379, "name": "SL-Stará cesta", "bike_travel_time_min": 13.9, "remaining_walk_min": 1.1 }, "geometry": { "type": "Point", "coordinates": [ 18.28542, 49.86692 ] } },
{ "type": "Feature", "properties": { "uid": 581591382, "name": "MOAP-Lechowiczova", "bike_travel_time_min": 9.0, "remaining_walk_min": 6.0 }, "geometry": { "type": "Point", "coordinates": [ 18.26186, 49.83998 ] } }
]
}
