{
"type": "FeatureCollection",
"name": "stations_shared_bike_30min",
"crs": { "type": "name", "properties": { "name": "urn:ogc:def:crs:OGC:1.3:CRS84" } },
"features": [
{ "type": "Feature", "properties": { "uid": 13361440, "name": "MOAP-sad B. Němcové", "bike_travel_time_min": 5.9, "remaining_walk_min": 24.1 }, "geometry": { "type": "Point", "coordinates": [ 18.277742, 49.850951 ] } },
{ "type": "Feature", "properties": { "uid": 13361455, "name": "MOAP-Husův sad", "bike_travel_time_min": 13.8, "remaining_walk_min": 16.2 }, "geometry": { "type": "Point", "coordinates": [ 18.287601, 49.838788 ] } },
{ "type": "Feature", "properties": { "uid": 13361473, "name": "SL-Slezskoostravský hrad", "bike_travel_time_min": 19.9, "remaining_walk_min": 10.1 }, "geometry": { "type": "Point", "coordinates": [ 18.300911, 49.830886 ] } },
{ "type": "Feature", "properties": { "uid": 13361487, "name": "MOAP-Prokešovo náměstí -Moravskoslezská vědecká knihovna", "bike_travel_time_min": 11.4, "remaining_walk_min": 18.6 }, "geometry": { "type": "Point", "coordinates": [ 18.29019, 49.841623 ] } },
{ "type": "Feature", "properties": { "uid": 13361512, "name": "MOAP-Hlavní nádraží", "bike_travel_time_min": 8.9, "remaining_walk_min": 21.1 }, "geometry": { "type": "Point", "coordinates": [ 18.267505, 49.850876 ] } },
{ "type": "Feature", "properties": { "uid": 13361525, "name": "MOAP-Trojhalí", "bike_travel_time_min": 21.6, "remaining_walk_min": 8.4 }, "geometry": { "type": "Point", "coordinates": [ 18.287504, 49.828513 ] } },
{ "type": "Feature", "properties": { "uid": 13361546, "name": "MOAP-Nová Karolina", "bike_travel_time_min": 18.9, "remaining_walk_min": 11.1 }, "geometry": { "type": "Point", "coordinates": [ 18.286777, 49.831368 ] } },
{ "type": "Feature", "properties": { "uid": 13361556, "name": "MOAP-zastávka Elektra", "bike_travel_time_min": 14.5, "remaining_walk_min": 15.5 }, "geometry": { "type": "Point", "coordinates": [ 18.287611, 49.835122 ] } },
{ "type": "Feature", "properties": { "uid": 13361767, "name": "MOAP-Tyršova", "bike_travel_time_min": 12.9, "remaining_walk_min": 17.1 }, "geometry": { "type": "Point", "coordinates": [ 18.287345, 49.835981 ] } },
{ "type": "Feature", "properties": { "uid": 13361783, "name": "MOAP-Masarykovo náměstí", "bike_travel_time_min": 16.8, "remaining_walk_min": 13.2 }, "geometry": { "type": "Point", "coordinates": [ 18.291869, 49.835196 ] } },
{ "type": "Feature", "properties": { "uid": 13361804, "name": "MOAP-Výstaviště", "bike_travel_time_min": 24.9, "remaining_walk_min": 5.1 }, "geometry": { "type": "Point", "coordinates": [ 18.291248, 49.833016 ] } },
{ "type": "Feature", "properties": { "uid": 13361820, "name": "MOAP-nám. Msgre Šrámka", "bike_travel_time_min": 19.5, "remaining_walk_min": 10.5 }, "geometry": { "type": "Point", "coordinates": [ 18.28942, 49.83597 ] } },
{ "type": "Feature", "properties": { "uid": 13361881, "name": "PET-Landek", "bike_travel_time_min": 26.4, "remaining_walk_min": 3.6 }, "geometry": { "type": "Point", "coordinates": [ 18.264121, 49.866755 ] } },
{ "type": "Feature", "properties": { "uid": 13361894, "name": "MOAP-koupaliště Čapkárna", "bike_travel_time_min": 8.9, "remaining_walk_min": 21.1 }, "geometry": { "type": "Point", "coordinates": [ 18.289307, 49.844789 ] } },
{ "type": "Feature", "properties": { "uid": 13361908, "name": "MOAP-Komenského sady - vchod", "bike_travel_time_min": 9.8, "remaining_walk_min": 20.2 }, "geometry": { "type": "Point", "coordinates": [ 18.289475, 49.848961 ] } },
{ "type": "Feature", "properties": { "uid": 13361926, "name": "MOAP-Most Miloše Sýkory, knihovna", "bike_travel_time_min": 13.9, "remaining_walk_min": 16.1 }, "geometry": { "type": "Point", "coordinates": [ 18.2955, 49.83725 ] } },
{ "type": "Feature", "properties": { "uid": 13361945, "name": "MOAP-sportovní hala Sareza", "bike_travel_time_min": 6.9, "remaining_walk_min": 23.1 }, "geometry": { "type": "Point", "coordinates": [ 18.283739, 49.851439 ] } },
{ "type": "Feature", "properties": { "uid": 13361960, "name": "VIT-DOV ETÁŽ", "bike_travel_time_min": 21.4, "remaining_walk_min": 8.6 }, "geometry": { "type": "Point", "coordinates": [ 18.278301, 49.822057 ] } },
{ "type": "Feature", "properties": { "uid": 13361974, "name": "MOAP-Stodolní železniční zastávka", "bike_travel_time_min": 12.3, "remaining_walk_min": 17.7 }, "geometry": { "type": "Point", "coordinates": [ 18.281192, 49.834605 ] } },
{ "type": "Feature", "properties": { "uid": 13361988, "name": "MOAP-zastávka Futurum", "bike_travel_time_min": 13.4, "remaining_walk_min": 16.6 }, "geometry": { "type": "Point", "coordinates": [ 18.262184, 49.832802 ] } },
{ "type": "Feature", "properties": { "uid": 13362004, "name": "VIT-DOV Velín", "bike_travel_time_min": 19.8, "remaining_walk_min": 10.2 }, "geometry": { "type": "Point", "coordinates": [ 18.276513, 49.819044 ] } },
{ "type": "Feature", "properties": { "uid": 13362019, "name": "MOAP-Křižíkova", "bike_travel_time_min": 7.1, "remaining_walk_min": 22.9 }, "geometry": { "type": "Point", "coordinates": [ 18.280742, 49.845202 ] } },
{ "type": "Feature", "properties": { "uid": 13362033, "name": "MOAP-Partyzánské náměstí", "bike_travel_time_min": 7.7, "remaining_walk_min": 22.3 }, "geometry": { "type": "Point", "coordinates": [ 18.285678, 49.846717 ] } },
{ "type": "Feature", "properties": { "uid": 13362063, "name": "MOAP-Havlíčkovo nábřeží", "bike_travel_time_min": 12.3, "remaining_walk_min": 17.7 }, "geometry": { "type": "Point", "coordinates": [ 18.293708, 49.839928 ] } },
{ "type": "Feature", "properties": { "uid": 13362073, "name": "MOAP-Gorkého", "bike_travel_time_min": 8.6, "remaining_walk_min": 21.4 }, "geometry": { "type": "Point", "coordinates": [ 18.28206, 49.842562 ] } },
{ "type": "Feature", "properties": { "uid": 13362159, "name": "MOAP-křižovatka u pivovaru", "bike_travel_time_min": 10.9, "remaining_walk_min": 19.1 }, "geometry": { "type": "Point", "coordinates": [ 18.274943, 49.836406 ] } },
{ "type": "Feature", "properties": { "uid": 13362167, "name": "MOAP-Dům vodohospodářů", "bike_travel_time_min": 14.2, "remaining_walk_min": 15.8 }, "geometry": { "type": "Point", "coordinates": [ 18.265162, 49.831389 ] } },
{ "type": "Feature", "properties": { "uid": 13362189, "name": "MOAP-Tieto towers", "bike_travel_time_min": 13.3, "remaining_walk_min": 16.7 }, "geometry": { "type": "Point", "coordinates": [ 18.278529, 49.830771 ] } },
{ "type": "Feature", "properties": { "uid": 13362286, "name": "MOAP-Dům Energetiky", "bike_travel_time_min": 14.6, "remaining_walk_min": 15.4 }, "geometry": { "type": "Point", "coordinates": [ 18.264035, 49.828758 ] } },
{ "type": "Feature", "properties": { "uid": 13363184, "name": "MOAP-Orchard Park Inn", "bike_travel_time_min": 8.4, "remaining_walk_min": 21.6 }, "geometry": { "type": "Point", "coordinates": [ 18.269518, 49.841496 ] } },
{ "type": "Feature", "properties": { "uid": 13363203, "name": "MOAP-Novinářská", "bike_travel_time_min": 13.1, "remaining_walk_min": 16.9 }, "geometry": { "type": "Point", "coordinates": [ 18.262328, 49.836726 ] } },
{ "type": "Feature", "properties": { "uid": 13363263, "name": "MOAP-Generála Píky", "bike_travel_time_min": 8.4, "remaining_walk_min": 21.6 }, "geometry": { "type": "Point", "coordinates": [ 18.266199, 49.840458 ] } },
{ "type": "Feature", "properties": { "uid": 13363295, "name": "MOAP-nemocnice Fifejdy", "bike_travel_time_min": 12.2, "remaining_walk_min": 17.8 }, "geometry": { "type": "Point", "coordinates": [ 18.277164, 49.833055 ] } },
{ "type": "Feature", "properties": { "uid": 13363326, "name": "SL-Gagarinovo náměstí", "bike_travel_time_min": 13.8, "remaining_walk_min": 16.2 }, "geometry": { "type": "Point", "coordinates": [ 18.296655, 49.839974 ] } },
{ "type": "Feature", "properties": { "uid": 13363349, "name": "MOAP-Česká televize", "bike_travel_time_min": 12.6, "remaining_walk_min": 17.4 }, "geometry": { "type": "Point", "coordinates": [ 18.291408, 49.83811 ] } },
{ "type": "Feature", "properties": { "uid": 13363361, "name": "MOAP-Úřad práce", "bike_travel_time_min": 10.1, "remaining_walk_min": 19.9 }, "geometry": { "type": "Point", "coordinates": [ 18.283568, 49.839425 ] } },
{ "type": "Feature", "properties": { "uid": 13363378, "name": "MOAP-Most Pionýrů (rapzzz)", "bike_travel_time_min": 11.9, "remaining_walk_min": 18.1 }, "geometry": { "type": "Point", "coordinates": [ 18.291586, 49.840167 ] } },
{ "type": "Feature", "properties": { "uid": 13363387, "name": "MOAP-Pyková dáma", "bike_travel_time_min": 12.7, "remaining_walk_min": 17.3 }, "geometry": { "type": "Point", "coordinates": [ 18.292208, 49.842494 ] } },
{ "type": "Feature", "properties": { "uid": 13363404, "name": "SL-radnice Slezská Ostrava", "bike_travel_time_min": 18.9, "remaining_walk_min": 11.1 }, "geometry": { "type": "Point", "coordinates": [ 18.298428, 49.837194 ] } },
{ "type": "Feature", "properties": { "uid": 13363423, "name": "MOAP-kino Vesmír", "bike_travel_time_min": 12.4, "remaining_walk_min": 17.6 }, "geometry": { "type": "Point", "coordinates": [ 18.286877, 49.836851 ] } },
{ "type": "Feature", "properties": { "uid": 13363436, "name": "MOAP-Dům Umění", "bike_travel_time_min": 14.3, "remaining_walk_min": 15.7 }, "geometry": { "type": "Point", "coordinates": [ 18.28686, 49.83414 ] } },
{ "type": "Feature", "properties": { "uid": 13363955, "name": "VIT-nám J. z Poděbrad", "bike_travel_time_min": 24.2, "remaining_walk_min": 5.8 }, "geometry": { "type": "Point", "coordinates": [ 18.27087, 49.812664 ] } },
{ "type": "Feature", "properties": { "uid": 13363996, "name": "VIT-Šalounova", "bike_travel_time_min": 25.1, "remaining_walk_min": 4.9 }, "geometry": { "type": "Point", "coordinates": [ 18.269051, 49.811516 ] } },
{ "type": "Feature", "properties": { "uid": 13364025, "name": "MOAP-Poštovní", "bike_travel_time_min": 12.1, "remaining_walk_min": 17.9 }, "geometry": { "type": "Point", "coordinates": [ 18.289033, 49.837978 ] } },
{ "type": "Feature", "properties": { "uid": 13364039, "name": "MOAP-Minikino kavárna", "bike_travel_time_min": 16.2, "remaining_walk_min": 13.8 }, "geometry": { "type": "Point", "coordinates": [ 18.29384, 49.835626 ] } },
{ "type": "Feature", "properties": { "uid": 13364055, "name": "VIT-Gong", "bike_travel_time_min": 19.8, "remaining_walk_min": 10.2 }, "geometry": { "type": "Point", "coordinates": [ 18.280323, 49.819198 ] } },
{ "type": "Feature", "properties": { "uid": 13364128, "name": "VIT-radnice Vítkovice", "bike_travel_time_min": 25.1, "remaining_walk_min": 4.9 }, "geometry": { "type": "Point", "coordinates": [ 18.266447, 49.815344 ] } },
{ "type": "Feature", "properties": { "uid": 13364168, "name": "MOAP - Masarykovo náměstí (Radegastovna)", "bike_travel_time_min": 16.3, "remaining_walk_min": 13.7 }, "geometry": { "type": "Point", "coordinates": [ 18.293175, 49.835941 ] } },
{ "type": "Feature", "properties": { "uid": 13364179, "name": "MOAP- PAVILON", "bike_travel_time_min": 19.7, "remaining_walk_min": 10.3 }, "geometry": { "type": "Point", "coordinates": [ 18.294205, 49.832751 ] } },
{ "type": "Feature", "properties": { "uid": 13364186, "name": "MOAP-radnice Moravská Ostrava", "bike_travel_time_min": 18.0, "remaining_walk_min": 12.0 }, "geometry": { "type": "Point", "coordinates": [ 18.288789, 49.834135 ] } },
{ "type": "Feature", "properties": { "uid": 13364192, "name": "MOAP-pěší zóna 28. října", "bike_travel_time_min": 16.3, "remaining_walk_min": 13.7 }, "geometry": { "type": "Point", "coordinates": [ 18.29094, 49.83459 ] } },
{ "type": "Feature", "properties": { "uid": 13364215, "name": "MAR-Novoveská - Ostravské komunikace", "bike_travel_time_min": 11.8, "remaining_walk_min": 18.2 }, "geometry": { "type": "Point", "coordinates": [ 18.254626, 49.836986 ] } },
{ "type": "Feature", "properties": { "uid": 13364229, "name": "MOAP-MŠ Ostrava, Varenská", "bike_travel_time_min": 9.9, "remaining_walk_min": 20.1 }, "geometry": { "type": "Point", "coordinates": [ 18.272129, 49.836505 ] } },
{ "type": "Feature", "properties": { "uid": 13364243, "name": "MOAP-Zelená, VOŠ sociální", "bike_travel_time_min": 15.4, "remaining_walk_min": 14.6 }, "geometry": { "type": "Point", "coordinates": [ 18.271435, 49.828574 ] } },
{ "type": "Feature", "properties": { "uid": 13364302, "name": "MOAP-Zelená, sídliště", "bike_travel_time_min": 18.9, "remaining_walk_min": 11.1 }, "geometry": { "type": "Point", "coordinates": [ 18.269795, 49.827822 ] } },
{ "type": "Feature", "properties": { "uid": 13364326, "name": "MOAP-Dr. Malého, VŠB - TUO", "bike_travel_time_min": 20.2, "remaining_walk_min": 9.8 }, "geometry": { "type": "Point", "coordinates": [ 18.273668, 49.826494 ] } },
{ "type": "Feature", "properties": { "uid": 13364341, "name": "MOAP-Sportovní", "bike_travel_time_min": 20.3, "remaining_walk_min": 9.7 }, "geometry": { "type": "Point", "coordinates": [ 18.270589, 49.824686 ] } },
{ "type": "Feature", "properties": { "uid": 13364351, "name": "MOAP-Na Široké", "bike_travel_time_min": 14.9, "remaining_walk_min": 15.1 }, "geometry": { "type": "Point", "coordinates": [ 18.273944, 49.829077 ] } },
{ "type": "Feature", "properties": { "uid": 13364366, "name": "MOAP-Železárenská", "bike_travel_time_min": 20.9, "remaining_walk_min": 9.1 }, "geometry": { "type": "Point", "coordinates": [ 18.269749, 49.821564 ] } },
{ "type": "Feature", "properties": { "uid": 13364385, "name": "MOAP-Nedbalova, Hruška", "bike_travel_time_min": 20.2, "remaining_walk_min": 9.8 }, "geometry": { "type": "Point", "coordinates": [ 18.269752, 49.826426 ] } },
{ "type": "Feature", "properties": { "uid": 13364397, "name": "MOAP-SC Varenská", "bike_travel_time_min": 11.5, "remaining_walk_min": 18.5 }, "geometry": { "type": "Point", "coordinates": [ 18.270251, 49.833657 ] } },
{ "type": "Feature", "properties": { "uid": 13364425, "name": "MOAP-náměstíčko Fifejdy", "bike_travel_time_min": 11.7, "remaining_walk_min": 18.3 }, "geometry": { "type": "Point", "coordinates": [ 18.272041, 49.835218 ] } },
{ "type": "Feature", "properties": { "uid": 13364442, "name": "MOAP-Špálova", "bike_travel_time_min": 5.2, "remaining_walk_min": 24.8 }, "geometry": { "type": "Point", "coordinates": [ 18.27305, 49.851703 ] } },
{ "type": "Feature", "properties": { "uid": 13364464, "name": "SL-točna Koblov", "bike_travel_time_min": 18.7, "remaining_walk_min": 11.3 }, "geometry": { "type": "Point", "coordinates": [ 18.284101, 49.873028 ] } },
{ "type": "Feature", "properties": { "uid": 13364494, "name": "SL-Na Bruni, halda Ema", "bike_travel_time_min": 19.9, "remaining_walk_min": 10.1 }, "geometry": { "type": "Point", "coordinates": [ 18.309119, 49.839791 ] } },
{ "type": "Feature", "properties": { "uid": 13364501, "name": "SL-Na Druhém, KD Muglinov", "bike_travel_time_min": 14.6, "remaining_walk_min": 15.4 }, "geometry": { "type": "Point", "coordinates": [ 18.299261, 49.853766 ] } },
{ "type": "Feature", "properties": { "uid": 13364510, "name": "SL-Švédská, COOP", "bike_travel_time_min": 14.3, "remaining_walk_min": 15.7 }, "geometry": { "type": "Point", "coordinates": [ 18.302877, 49.851638 ] } },
{ "type": "Feature", "properties": { "uid": 13364534, "name": "SL-Keltičkova, hřiště", "bike_travel_time_min": 19.1, "remaining_walk_min": 10.9 }, "geometry": { "type": "Point", "coordinates": [ 18.302135, 49.839535 ] } },
{ "type": "Feature", "properties": { "uid": 13364548, "name": "SL-ZOO Ostrava", "bike_travel_time_min": 22.9, "remaining_walk_min": 7.1 }, "geometry": { "type": "Point", "coordinates": [ 18.3189, 49.8434 ] } },
{ "type": "Feature", "properties": { "uid": 13364568, "name": "SL-Hladnovská, gymnázium", "bike_travel_time_min": 19.9, "remaining_walk_min": 10.1 }, "geometry": { "type": "Point", "coordinates": [ 18.30533, 49.846336 ] } },
{ "type": "Feature", "properties": { "uid": 13364590, "name": "SL-Nejedlého, Přír. fakulta OU", "bike_travel_time_min": 19.8, "remaining_walk_min": 10.2 }, "geometry": { "type": "Point", "coordinates": [ 18.303848, 49.843239 ] } },
{ "type": "Feature", "properties": { "uid": 13364602, "name": "SL-sídliště Kamenec", "bike_travel_time_min": 12.0, "remaining_walk_min": 18.0 }, "geometry": { "type": "Point", "coordinates": [ 18.294918, 49.843186 ] } },
{ "type": "Feature", "properties": { "uid": 13364623, "name": "SL-Loděnice", "bike_travel_time_min": 19.4, "remaining_walk_min": 10.6 }, "geometry": { "type": "Point", "coordinates": [ 18.297442, 49.832524 ] } },
{ "type": "Feature", "properties": { "uid": 13364635, "name": "SL-Most Miloše Sýkory, památník", "bike_travel_time_min": 24.3, "remaining_walk_min": 5.7 }, "geometry": { "type": "Point", "coordinates": [ 18.29678, 49.837532 ] } },
{ "type": "Feature", "properties": { "uid": 13364642, "name": "SL-Michálkovická, VŠ podnikání", "bike_travel_time_min": 28.1, "remaining_walk_min": 1.9 }, "geometry": { "type": "Point", "coordinates": [ 18.31556, 49.843911 ] } },
{ "type": "Feature", "properties": { "uid": 13365779, "name": "VIT-SPŠ Výstavní", "bike_travel_time_min": 24.7, "remaining_walk_min": 5.3 }, "geometry": { "type": "Point", "coordinates": [ 18.273887, 49.809196 ] } },
{ "type": "Feature", "properties": { "uid": 13365926, "name": "VIT-In line areál (sever)", "bike_travel_time_min": 25.0, "remaining_walk_min": 5.0 }, "geometry": { "type": "Point", "coordinates": [ 18.243357, 49.813777 ] } },
{ "type": "Feature", "properties": { "uid": 13366250, "name": "VIT-In-line areál (jih)", "bike_travel_time_min": 27.2, "remaining_walk_min": 2.8 }, "geometry": { "type": "Point", "coordinates": [ 18.24497, 49.81174 ] } },
{ "type": "Feature", "properties": { "uid": 13366271, "name": "MAR-Stojanovo náměstí", "bike_travel_time_min": 13.8, "remaining_walk_min": 16.2 }, "geometry": { "type": "Point", "coordinates": [ 18.255627, 49.831474 ] } },
{ "type": "Feature", "properties": { "uid": 13366286, "name": "MAR-radnice Mariánské hory", "bike_travel_time_min": 14.2, "remaining_walk_min": 15.8 }, "geometry": { "type": "Point", "coordinates": [ 18.25263, 49.83204 ] } },
{ "type": "Feature", "properties": { "uid": 13366303, "name": "MAR-Novoveská", "bike_travel_time_min": 13.3, "remaining_walk_min": 16.7 }, "geometry": { "type": "Point", "coordinates": [ 18.251951, 49.834659 ] } },
{ "type": "Feature", "properties": { "uid": 13366317, "name": "MAR-OA a VOŠ sociální", "bike_travel_time_min": 19.5, "remaining_walk_min": 10.5 }, "geometry": { "type": "Point", "coordinates": [ 18.250106, 49.829529 ] } },
{ "type": "Feature", "properties": { "uid": 13366344, "name": "MAR-Mojmírovců – PRIGO", "bike_travel_time_min": 20.1, "remaining_walk_min": 9.9 }, "geometry": { "type": "Point", "coordinates": [ 18.249199, 49.828021 ] } },
{ "type": "Feature", "properties": { "uid": 13366425, "name": "MAR-28. října - KB", "bike_travel_time_min": 20.3, "remaining_walk_min": 9.7 }, "geometry": { "type": "Point", "coordinates": [ 18.256198, 49.827979 ] } },
{ "type": "Feature", "properties": { "uid": 13366443, "name": "MAR-Emila Filly", "bike_travel_time_min": 14.3, "remaining_walk_min": 15.7 }, "geometry": { "type": "Point", "coordinates": [ 18.258444, 49.830466 ] } },
{ "type": "Feature", "properties": { "uid": 13366453, "name": "MAR-Sokola Tůmy", "bike_travel_time_min": 19.8, "remaining_walk_min": 10.2 }, "geometry": { "type": "Point", "coordinates": [ 18.246452, 49.827287 ] } },
{ "type": "Feature", "properties": { "uid": 13366483, "name": "MAR-terminál Hulváky", "bike_travel_time_min": 19.4, "remaining_walk_min": 10.6 }, "geometry": { "type": "Point", "coordinates": [ 18.244114, 49.826317 ] } },
{ "type": "Feature", "properties": { "uid": 13366529, "name": "MAR-Fráni Šrámka", "bike_travel_time_min": 19.9, "remaining_walk_min": 10.1 }, "geometry": { "type": "Point", "coordinates": [ 18.262232, 49.827439 ] } },
{ "type": "Feature", "properties": { "uid": 13366543, "name": "MAR-Mariánské náměstí", "bike_travel_time_min": 18.8, "remaining_walk_min": 11.2 }, "geometry": { "type": "Point", "coordinates": [ 18.2577, 49.828405 ] } },
{ "type": "Feature", "properties": { "uid": 13366583, "name": "MAR-Mojmírovců – parkoviště", "bike_travel_time_min": 20.4, "remaining_walk_min": 9.6 }, "geometry": { "type": "Point", "coordinates": [ 18.25063, 49.82854 ] } },
{ "type": "Feature", "properties": { "uid": 13366598, "name": "MAR-Závišova", "bike_travel_time_min": 16.7, "remaining_walk_min": 13.3 }, "geometry": { "type": "Point", "coordinates": [ 18.255813, 49.83019 ] } },
{ "type": "Feature", "properties": { "uid": 13366613, "name": "MAR-Hospodářská komora", "bike_travel_time_min": 19.3, "remaining_walk_min": 10.7 }, "geometry": { "type": "Point", "coordinates": [ 18.264626, 49.827185 ] } },
{ "type": "Feature", "properties": { "uid": 13367618, "name": "MAR-parkoviště Jiřího Trnky", "bike_travel_time_min": 11.2, "remaining_walk_min": 18.8 }, "geometry": { "type": "Point", "coordinates": [ 18.260529, 49.836191 ] } },
{ "type": "Feature", "properties": { "uid": 13367709, "name": "MAR-Jiřího Trnky - knihovna", "bike_travel_time_min": 11.8, "remaining_walk_min": 18.2 }, "geometry": { "type": "Point", "coordinates": [ 18.259613, 49.834182 ] } },
{ "type": "Feature", "properties": { "uid": 13387935, "name": "HOS-radnice Hošťálkovice", "bike_travel_time_min": 28.0, "remaining_walk_min": 2.0 }, "geometry": { "type": "Point", "coordinates": [ 18.21504, 49.84696 ] } },
{ "type": "Feature", "properties": { "uid": 13410953, "name": "JIH-U Zámku", "bike_travel_time_min": 28.2, "remaining_walk_min": 1.8 }, "geometry": { "type": "Point", "coordinates": [ 18.240589, 49.805637 ] } },
{ "type": "Feature", "properties": { "uid": 13411012, "name": "MOAP - DOCK", "bike_travel_time_min": 19.2, "remaining_walk_min": 10.8 }, "geometry": { "type": "Point", "coordinates": [ 18.2964, 49.8366 ] } },
{ "type": "Feature", "properties": { "uid": 13411662, "name": "HOS-horní zastávka Žleby", "bike_travel_time_min": 28.8, "remaining_walk_min": 1.2 }, "geometry": { "type": "Point", "coordinates": [ 18.214439, 49.855248 ] } },
{ "type": "Feature", "properties": { "uid": 13411670, "name": "HOS-sportovní areál u ZŠ", "bike_travel_time_min": 27.9, "remaining_walk_min": 2.1 }, "geometry": { "type": "Point", "coordinates": [ 18.211026, 49.847373 ] } },
{ "type": "Feature", "properties": { "uid": 13411678, "name": "HOS-Hošťálkovice točna autobusů", "bike_travel_time_min": 27.2, "remaining_walk_min": 2.8 }, "geometry": { "type": "Point", "coordinates": [ 18.214436, 49.849654 ] } },
{ "type": "Feature", "properties": { "uid": 13411690, "name": "HOS-Rozhledna", "bike_travel_time_min": 28.9, "remaining_walk_min": 1.1 }, "geometry": { "type": "Point", "coordinates": [ 18.211301, 49.844474 ] } },
{ "type": "Feature", "properties": { "uid": 14403073, "name": "LHOT-Golf Park Lhotka", "bike_travel_time_min": 22.3, "remaining_walk_min": 7.7 }, "geometry": { "type": "Point", "coordinates": [ 18.23072, 49.85384 ] } },
{ "type": "Feature", "properties": { "uid": 14403130, "name": "MOAP-Outlet Arena Moravia", "bike_travel_time_min": 10.8, "remaining_walk_min": 19.2 }, "geometry": { "type": "Point", "coordinates": [ 18.254996, 49.859431 ] } },
{ "type": "Feature", "properties": { "uid": 14403347, "name": "SL-ČPP aréna", "bike_travel_time_min": 11.2, "remaining_walk_min": 18.8 }, "geometry": { "type": "Point", "coordinates": [ 18.295383, 49.85542 ] } },
{ "type": "Feature", "properties": { "uid": 27578940, "name": "MOAP-Hornopolní - pivovar", "bike_travel_time_min": 8.6, "remaining_walk_min": 21.4 }, "geometry": { "type": "Point", "coordinates": [ 18.271562, 49.840291 ] } },
{ "type": "Feature", "properties": { "uid": 27578952, "name": "MOAP-Krajský úřad", "bike_travel_time_min": 14.1, "remaining_walk_min": 15.9 }, "geometry": { "type": "Point", "coordinates": [ 18.270436, 49.829906 ] } },
{ "type": "Feature", "properties": { "uid": 27579134, "name": "SL-Antošovická - U Nové šachty", "bike_travel_time_min": 21.2, "remaining_walk_min": 8.8 }, "geometry": { "type": "Point", "coordinates": [ 18.289139, 49.883871 ] } },
{ "type": "Feature", "properties": { "uid": 27579136, "name": "HER-KD Heřmanice", "bike_travel_time_min": 27.5, "remaining_walk_min": 2.5 }, "geometry": { "type": "Point", "coordinates": [ 18.329289, 49.859519 ] } },
{ "type": "Feature", "properties": { "uid": 27579146, "name": "HER-Na Strži", "bike_travel_time_min": 25.9, "remaining_walk_min": 4.1 }, "geometry": { "type": "Point", "coordinates": [ 18.331129, 49.854005 ] } },
{ "type": "Feature", "properties": { "uid": 27579156, "name": "SL-terminál Hranečník", "bike_travel_time_min": 25.5, "remaining_walk_min": 4.5 }, "geometry": { "type": "Point", "coordinates": [ 18.317599, 49.824323 ] } },
{ "type": "Feature", "properties": { "uid": 27579642, "name": "SL-RBP zdravotní pojišťovna", "bike_travel_time_min": 20.0, "remaining_walk_min": 10.0 }, "geometry": { "type": "Point", "coordinates": [ 18.307342, 49.843571 ] } },
{ "type": "Feature", "properties": { "uid": 27579716, "name": "NV-Paličkova", "bike_travel_time_min": 26.9, "remaining_walk_min": 3.1 }, "geometry": { "type": "Point", "coordinates": [ 18.220558, 49.816162 ] } },
{ "type": "Feature", "properties": { "uid": 27579719, "name": "NV-Na Lánech", "bike_travel_time_min": 22.0, "remaining_walk_min": 8.0 }, "geometry": { "type": "Point", "coordinates": [ 18.22706, 49.827388 ] } },
{ "type": "Feature", "properties": { "uid": 27579726, "name": "NV-Školní statek", "bike_travel_time_min": 26.6, "remaining_walk_min": 3.4 }, "geometry": { "type": "Point", "coordinates": [ 18.227683, 49.812502 ] } },
{ "type": "Feature", "properties": { "uid": 27579895, "name": "MAR-Chemická - točna", "bike_travel_time_min": 18.7, "remaining_walk_min": 11.3 }, "geometry": { "type": "Point", "coordinates": [ 18.229962, 49.833472 ] } },
{ "type": "Feature", "properties": { "uid": 27579909, "name": "SL-Restaurace Stará kuželna", "bike_travel_time_min": 19.1, "remaining_walk_min": 10.9 }, "geometry": { "type": "Point", "coordinates": [ 18.302087, 49.837412 ] } },
{ "type": "Feature", "properties": { "uid": 27582509, "name": "MOAP-OZO Ostrava", "bike_travel_time_min": 11.1, "remaining_walk_min": 18.9 }, "geometry": { "type": "Point", "coordinates": [ 18.261124, 49.857124 ] } },
{ "type": "Feature", "properties": { "uid": 27604130, "name": "MAR-Stanice Portáš", "bike_travel_time_min": 20.2, "remaining_walk_min": 9.8 }, "geometry": { "type": "Point", "coordinates": [ 18.252519, 49.82738 ] } },
{ "type": "Feature", "properties": { "uid": 28402114, "name": "MOAP-Ostrčilova", "bike_travel_time_min": 10.3, "remaining_walk_min": 19.7 }, "geometry": { "type": "Point", "coordinates": [ 18.284924, 49.841585 ] } },
{ "type": "Feature", "properties": { "uid": 30920811, "name": "MOAP-Vozovna trolejbusů", "bike_travel_time_min": 6.7, "remaining_walk_min": 23.3 }, "geometry": { "type": "Point", "coordinates": [ 18.282614, 49.848754 ] } },
{ "type": "Feature", "properties": { "uid": 34071102, "name": "MOAP-Českobratrská", "bike_travel_time_min": 12.3, "remaining_walk_min": 17.7 }, "geometry": { "type": "Point", "coordinates": [ 18.289812, 49.839782 ] } },
{ "type": "Feature", "properties": { "uid": 36120657, "name": "MOAP-Parkáč", "bike_travel_time_min": 14.5, "remaining_walk_min": 15.5 }, "geometry": { "type": "Point", "coordinates": [ 18.267273, 49.832389 ] } },
{ "type": "Feature", "properties": { "uid": 41111358, "name": "PET-Petřkovice náměstí", "bike_travel_time_min": 19.5, "remaining_walk_min": 10.5 }, "geometry": { "type": "Point", "coordinates": [ 18.259231, 49.875392 ] } },
{ "type": "Feature", "properties": { "uid": 41111379, "name": "PET-Pod Landekem", "bike_travel_time_min": 12.0, "remaining_walk_min": 18.0 }, "geometry": { "type": "Point", "coordinates": [ 18.25569, 49.866779 ] } },
{ "type": "Feature", "properties": { "uid": 41111524, "name": "LHOT-Stará čtvrť", "bike_travel_time_min": 20.7, "remaining_walk_min": 9.3 }, "geometry": { "type": "Point", "coordinates": [ 18.232946, 49.861975 ] } },
{ "type": "Feature", "properties": { "uid": 41111538, "name": "SL-Lechova", "bike_travel_time_min": 27.8, "remaining_walk_min": 2.2 }, "geometry": { "type": "Point", "coordinates": [ 18.337402, 49.834465 ] } },
{ "type": "Feature", "properties": { "uid": 41111567, "name": "MICH-Františka Davida", "bike_travel_time_min": 26.9, "remaining_walk_min": 3.1 }, "geometry": { "type": "Point", "coordinates": [ 18.336034, 49.843147 ] } },
{ "type": "Feature", "properties": { "uid": 43377637, "name": "MOAP-Farská zahrada", "bike_travel_time_min": 18.9, "remaining_walk_min": 11.1 }, "geometry": { "type": "Point", "coordinates": [ 18.29583, 49.834799 ] } },
{ "type": "Feature", "properties": { "uid": 44802908, "name": "VIT-Třinecké železárny - u zámku", "bike_travel_time_min": 22.7, "remaining_walk_min": 7.3 }, "geometry": { "type": "Point", "coordinates": [ 18.272061, 49.817992 ] } },
{ "type": "Feature", "properties": { "uid": 45120932, "name": "VIT-Zemědělské muzeum", "bike_travel_time_min": 22.1, "remaining_walk_min": 7.9 }, "geometry": { "type": "Point", "coordinates": [ 18.281093, 49.821349 ] } },
{ "type": "Feature", "properties": { "uid": 47320754, "name": "MOAP-Prokešovo náměstí u kavárny", "bike_travel_time_min": 13.2, "remaining_walk_min": 16.8 }, "geometry": { "type": "Point", "coordinates": [ 18.29015, 49.84103 ] } },
{ "type": "Feature", "properties": { "uid": 55329579, "name": "MO-Park ČS. Letců", "bike_travel_time_min": 11.3, "remaining_walk_min": 18.7 }, "geometry": { "type": "Point", "coordinates": [ 18.288007, 49.840672 ] } },
{ "type": "Feature", "properties": { "uid": 65270825, "name": "MAR-Švermova", "bike_travel_time_min": 17.8, "remaining_walk_min": 12.2 }, "geometry": { "type": "Point", "coordinates": [ 18.244932, 49.83341 ] } },
{ "type": "Feature", "properties": { "uid": 82374110, "name": "MOAP-Parkoviště P+R u tramvajové smyčky Hlučínská", "bike_travel_time_min": 8.4, "remaining_walk_min": 21.6 }, "geometry": { "type": "Point", "coordinates": [ 18.265777, 49.860516 ] } },
{ "type": "Feature", "properties": { "uid": 89805272, "name": "SL - DPS Kamenec", "bike_travel_time_min": 12.4, "remaining_walk_min": 17.6 }, "geometry": { "type": "Point", "coordinates": [ 18.2947, 49.8464 ] } },
{ "type": "Feature", "properties": { "uid": 93552941, "name": "SL - Contera", "bike_travel_time_min": 14.5, "remaining_walk_min": 15.5 }, "geometry": { "type": "Point", "coordinates": [ 18.289898, 49.867501 ] } },
{ "type": "Feature", "properties": { "uid": 94944321, "name": "SL - Těšínská", "bike_travel_time_min": 20.3, "remaining_walk_min": 9.7 }, "geometry": { "type": "Point", "coordinates": [ 18.304081, 49.831768 ] } },
{ "type": "Feature", "properties": { "uid": 102151652, "name": "MOAP-Náměstí Republiky (točna trolejbusů)", "bike_travel_time_min": 15.3, "remaining_walk_min": 14.7 }, "geometry": { "type": "Point", "coordinates": [ 18.278048, 49.831563 ] } },
{ "type": "Feature", "properties": { "uid": 103880791, "name": "MOAP-nádraží Ostrava střed", "bike_travel_time_min": 25.1, "remaining_walk_min": 4.9 }, "geometry": { "type": "Point", "coordinates": [ 18.28254, 49.82943 ] } },
{ "type": "Feature", "properties": { "uid": 108153541, "name": "MOAP-Radniční restaurace", "bike_travel_time_min": 11.6, "remaining_walk_min": 18.4 }, "geometry": { "type": "Point", "coordinates": [ 18.292199, 49.841805 ] } },
{ "type": "Feature", "properties": { "uid": 108876378, "name": "MOAP-Mánesova", "bike_travel_time_min": 5.4, "remaining_walk_min": 24.6 }, "geometry": { "type": "Point", "coordinates": [ 18.275917, 49.847892 ] } },
{ "type": "Feature", "properties": { "uid": 110159155, "name": "MOAP - Sad B. Němcové, stanoviště 4", "bike_travel_time_min": 6.2, "remaining_walk_min": 23.8 }, "geometry": { "type": "Point", "coordinates": [ 18.279838, 49.850217 ] } },
{ "type": "Feature", "properties": { "uid": 133204106, "name": "SL- ZŠ Chrustova", "bike_travel_time_min": 26.8, "remaining_walk_min": 3.2 }, "geometry": { "type": "Point", "coordinates": [ 18.319365, 49.849628 ] } },
{ "type": "Feature", "properties": { "uid": 147547004, "name": "MOAP-City Campus", "bike_travel_time_min": 19.9, "remaining_walk_min": 10.1 }, "geometry": { "type": "Point", "coordinates": [ 18.292348, 49.831052 ] } },
{ "type": "Feature", "properties": { "uid": 150512151, "name": "MOAP - OC Koksovna", "bike_travel_time_min": 5.4, "remaining_walk_min": 24.6 }, "geometry": { "type": "Point", "coordinates": [ 18.27609, 49.85529 ] } },
{ "type": "Feature", "properties": { "uid": 176882402, "name": "MOAP - Muglinovská", "bike_travel_time_min": 5.5, "remaining_walk_min": 24.5 }, "geometry": { "type": "Point", "coordinates": [ 18.277774, 49.849364 ] } },
{ "type": "Feature", "properties": { "uid": 176888761, "name": "NV - PPL Depo", "bike_travel_time_min": 27.5, "remaining_walk_min": 2.5 }, "geometry": { "type": "Point", "coordinates": [ 18.212949, 49.817978 ] } },
{ "type": "Feature", "properties": { "uid": 186561280, "name": "JIH - Dolní", "bike_travel_time_min": 27.7, "remaining_walk_min": 2.3 }, "geometry": { "type": "Point", "coordinates": [ 18.239085, 49.808734 ] } },
{ "type": "Feature", "properties": { "uid": 202413903, "name": "JIH - Horymírova", "bike_travel_time_min": 28.7, "remaining_walk_min": 1.3 }, "geometry": { "type": "Point", "coordinates": [ 18.235433, 49.805356 ] } },
{ "type": "Feature", "properties": { "uid": 223641925, "name": "JIH - Karpatská", "bike_travel_time_min": 28.6, "remaining_walk_min": 1.4 }, "geometry": { "type": "Point", "coordinates": [ 18.240051, 49.804878 ] } },
{ "type": "Feature", "properties": { "uid": 246207401, "name": "JIH - Zimmlerova", "bike_travel_time_min": 27.6, "remaining_walk_min": 2.4 }, "geometry": { "type": "Point", "coordinates": [ 18.23397, 49.809396 ] } },
{ "type": "Feature", "properties": { "uid": 254736359, "name": "JIH - Sport Arena", "bike_travel_time_min": 28.3, "remaining_walk_min": 1.7 }, "geometry": { "type": "Point", "coordinates": [ 18.249892, 49.805392 ] } },
{ "type": "Feature", "properties": { "uid": 368565708, "name": "MOAP- Fakulta umění", "bike_travel_time_min": 19.4, "remaining_walk_min": 10.6 }, "geometry": { "type": "Point", "coordinates": [ 18.292934, 49.831972 ] } },
{ "type": "Feature", "properties": { "uid": 391524741, "name": "JIH- Jugoslávská LIDL", "bike_travel_time_min": 28.5, "remaining_walk_min": 1.5 }, "geometry": { "type": "Point", "coordinates": [ 18.2433, 49.8035 ] } },
{ "type": "Feature", "properties": { "uid": 402739616, "name": "VIT-Ředitelství Vítkovic", "bike_travel_time_min": 28.2, "remaining_walk_min": 1.8 }, "geometry": { "type": "Point", "coordinates": [ 18.251669, 49.807816 ] } },
{ "type": "Feature", "properties": { "uid": 404529764, "name": "MOAP - Slavíčkova", "bike_travel_time_min": 7.5, "remaining_walk_min": 22.5 }, "geometry": { "type": "Point", "coordinates": [ 18.284134, 49.845802 ] } },
{ "type": "Feature", "properties": { "uid": 448747666, "name": "Vítkovice Steel 2 (+30 min zdarma na příjezd i odjezd)", "bike_travel_time_min": 23.8, "remaining_walk_min": 6.2 }, "geometry": { "type": "Point", "coordinates": [ 18.258285, 49.816324 ] } },
{ "type": "Feature", "properties": { "uid": 448747697, "name": "Vítkovice Steel 1 (+30 min zdarma na příjezd i odjezd)", "bike_travel_time_min": 26.8, "remaining_walk_min": 3.2 }, "geometry": { "type": "Point", "coordinates": [ 18.23889, 49.82011 ] } },
{ "type": "Feature", "properties": { "uid": 506004829, "name": "MOAP-Filozofická fakulta OU", "bike_travel_time_min": 16.4, "remaining_walk_min": 13.6 }, "geometry": { "type": "Point", "coordinates": [ 18.290508, 49.836506 ] } },
{ "type": "Feature", "properties": { "uid": 518280747, "name": "SL-Důl Cingr", "bike_travel_time_min": 25.1, "remaining_walk_min": 4.9 }, "geometry": { "type": "Point", "coordinates": [ 18.318058, 49.836083 ] } },
{ "type": "Feature", "properties": { "uid": 524487052, "name": "MAR-Kaufland, Grmelova", "bike_travel_time_min": 18.4, "remaining_walk_min": 11.6 }, "geometry": { "type": "Point", "coordinates": [ 18.24896, 49.836034 ] } },
{ "type": "Feature", "properties": { "uid": 529205794, "name": "SL - U lávky", "bike_travel_time_min": 11.8, "remaining_walk_min": 18.2 }, "geometry": { "type": "Point", "coordinates": [ 18.293347, 49.843245 ] } },
{ "type": "Feature", "properties": { "uid": 529206503, "name": "SL-Sionkova", "bike_travel_time_min": 26.6, "remaining_walk_min": 3.4 }, "geometry": { "type": "Point", "coordinates": [ 18.319983, 49.850389 ] } },
{ "type": "Feature", "properties": { "uid": 545140379, "name": "SL-Stará cesta", "bike_travel_time_min": 13.9, "remaining_walk_min": 16.1 }, "geometry": { "type": "Point", "coordinates": [ 18.28542, 49.86692 ] } },
{ "type": "Feature", "properties": { "uid": 548740045, "name": "MOAP - TJ Unie Hlubina", "bike_travel_time_min": 19.0, "remaining_walk_min": 11.0 }, "geometry": { "type": "Point", "coordinates": [ 18.274943, 49.823659 ] } },
{ "type": "Feature", "properties": { "uid": 579143958, "name": "VIT-PORG", "bike_travel_time_min": 26.6, "remaining_walk_min": 3.4 }, "geometry": { "type": "Point", "coordinates": [ 18.255155, 49.810915 ] } },
{ "type": "Feature", "properties": { "uid": 581591382, "name": "MOAP-Lechowiczova", "bike_travel_time_min": 9.0, "remaining_walk_min": 21.0 }, "geometry": { "type": "Point", "coordinates": [ 18.26186, 49.83998 ] } }
]
}
