{
"type": "FeatureCollection",
"name": "stations_shared_bike_30min",
"crs": { "type": "name", "properties": { "name": "urn:ogc:def:crs:OGC:1.3:CRS84" } },
"features": [
{ "type": "Feature", "properties": { "uid": 208066555, "name": "ZŠ Jana Amose Komenského", "bike_travel_time_min": 13.5, "remaining_walk_min": 16.5 }, "geometry": { "type": "Point", "coordinates": [ 17.440368, 49.467931 ] } },
{ "type": "Feature", "properties": { "uid": 208587864, "name": "Předmostí – náměstíčko", "bike_travel_time_min": 12.6, "remaining_walk_min": 17.4 }, "geometry": { "type": "Point", "coordinates": [ 17.439164, 49.46531 ] } },
{ "type": "Feature", "properties": { "uid": 208588265, "name": "Obchodní zóna S1 - Planeo", "bike_travel_time_min": 11.6, "remaining_walk_min": 18.4 }, "geometry": { "type": "Point", "coordinates": [ 17.44529, 49.46348 ] } },
{ "type": "Feature", "properties": { "uid": 208588429, "name": "Kopaniny - Racek", "bike_travel_time_min": 9.5, "remaining_walk_min": 20.5 }, "geometry": { "type": "Point", "coordinates": [ 17.451228, 49.461193 ] } },
{ "type": "Feature", "properties": { "uid": 208588693, "name": "Laguna - skatepark", "bike_travel_time_min": 13.5, "remaining_walk_min": 16.5 }, "geometry": { "type": "Point", "coordinates": [ 17.467881, 49.461726 ] } },
{ "type": "Feature", "properties": { "uid": 208589109, "name": "Přerovský bazén", "bike_travel_time_min": 9.8, "remaining_walk_min": 20.2 }, "geometry": { "type": "Point", "coordinates": [ 17.445775, 49.458988 ] } },
{ "type": "Feature", "properties": { "uid": 208589263, "name": "Velká Dlážka - U Saliho", "bike_travel_time_min": 8.0, "remaining_walk_min": 22.0 }, "geometry": { "type": "Point", "coordinates": [ 17.444921, 49.45761 ] } },
{ "type": "Feature", "properties": { "uid": 208589379, "name": "MŠ Na Odpoledni", "bike_travel_time_min": 7.8, "remaining_walk_min": 22.2 }, "geometry": { "type": "Point", "coordinates": [ 17.443019, 49.456184 ] } },
{ "type": "Feature", "properties": { "uid": 208593123, "name": "Na Marku", "bike_travel_time_min": 9.6, "remaining_walk_min": 20.4 }, "geometry": { "type": "Point", "coordinates": [ 17.450172, 49.456706 ] } },
{ "type": "Feature", "properties": { "uid": 208593268, "name": "U loděnice", "bike_travel_time_min": 8.9, "remaining_walk_min": 21.1 }, "geometry": { "type": "Point", "coordinates": [ 17.45409, 49.457432 ] } },
{ "type": "Feature", "properties": { "uid": 208593414, "name": "Lávka u Tenisu", "bike_travel_time_min": 9.8, "remaining_walk_min": 20.2 }, "geometry": { "type": "Point", "coordinates": [ 17.463304, 49.45686 ] } },
{ "type": "Feature", "properties": { "uid": 208593539, "name": "ZŠ U Tenisu", "bike_travel_time_min": 10.1, "remaining_walk_min": 19.9 }, "geometry": { "type": "Point", "coordinates": [ 17.464794, 49.454903 ] } },
{ "type": "Feature", "properties": { "uid": 208593712, "name": "Náměstí Tomáše Garrigua Masaryka", "bike_travel_time_min": 5.7, "remaining_walk_min": 24.3 }, "geometry": { "type": "Point", "coordinates": [ 17.449025, 49.454596 ] } },
{ "type": "Feature", "properties": { "uid": 208593855, "name": "Pod Valy", "bike_travel_time_min": 7.9, "remaining_walk_min": 22.1 }, "geometry": { "type": "Point", "coordinates": [ 17.453042, 49.455597 ] } },
{ "type": "Feature", "properties": { "uid": 208594367, "name": "Meopta + Nemocnice", "bike_travel_time_min": 10.8, "remaining_walk_min": 19.2 }, "geometry": { "type": "Point", "coordinates": [ 17.471703, 49.455963 ] } },
{ "type": "Feature", "properties": { "uid": 208594861, "name": "Bratrská - Magistrát", "bike_travel_time_min": 5.4, "remaining_walk_min": 24.6 }, "geometry": { "type": "Point", "coordinates": [ 17.445575, 49.453353 ] } },
{ "type": "Feature", "properties": { "uid": 208595231, "name": "Železniční poliklinika", "bike_travel_time_min": 5.0, "remaining_walk_min": 25.0 }, "geometry": { "type": "Point", "coordinates": [ 17.44513, 49.451787 ] } },
{ "type": "Feature", "properties": { "uid": 208595426, "name": "Tesco - třída 17. listopadu", "bike_travel_time_min": 6.3, "remaining_walk_min": 23.7 }, "geometry": { "type": "Point", "coordinates": [ 17.456986, 49.453031 ] } },
{ "type": "Feature", "properties": { "uid": 208595595, "name": "ZŠ Trávník", "bike_travel_time_min": 8.1, "remaining_walk_min": 21.9 }, "geometry": { "type": "Point", "coordinates": [ 17.46125, 49.45342 ] } },
{ "type": "Feature", "properties": { "uid": 208595737, "name": "Gymnázium Jakuba Škody", "bike_travel_time_min": 4.8, "remaining_walk_min": 25.2 }, "geometry": { "type": "Point", "coordinates": [ 17.449885, 49.450862 ] } },
{ "type": "Feature", "properties": { "uid": 208596159, "name": "Smetanova", "bike_travel_time_min": 4.9, "remaining_walk_min": 25.1 }, "geometry": { "type": "Point", "coordinates": [ 17.45139, 49.45044 ] } },
{ "type": "Feature", "properties": { "uid": 208596270, "name": "Galerie Přerov - před poliklinikou MENS", "bike_travel_time_min": 6.5, "remaining_walk_min": 23.5 }, "geometry": { "type": "Point", "coordinates": [ 17.454091, 49.450942 ] } },
{ "type": "Feature", "properties": { "uid": 208596452, "name": "Klivarova - Racek", "bike_travel_time_min": 9.4, "remaining_walk_min": 20.6 }, "geometry": { "type": "Point", "coordinates": [ 17.465348, 49.451213 ] } },
{ "type": "Feature", "properties": { "uid": 208596837, "name": "Optická - u Hrušky", "bike_travel_time_min": 10.7, "remaining_walk_min": 19.3 }, "geometry": { "type": "Point", "coordinates": [ 17.469673, 49.45251 ] } },
{ "type": "Feature", "properties": { "uid": 208596950, "name": "Želatovská", "bike_travel_time_min": 9.7, "remaining_walk_min": 20.3 }, "geometry": { "type": "Point", "coordinates": [ 17.468394, 49.450706 ] } },
{ "type": "Feature", "properties": { "uid": 208597276, "name": "Nádraží", "bike_travel_time_min": 5.4, "remaining_walk_min": 24.6 }, "geometry": { "type": "Point", "coordinates": [ 17.446419, 49.447197 ] } },
{ "type": "Feature", "properties": { "uid": 208597386, "name": "Želatovská - Kaufland", "bike_travel_time_min": 10.8, "remaining_walk_min": 19.2 }, "geometry": { "type": "Point", "coordinates": [ 17.473568, 49.449178 ] } },
{ "type": "Feature", "properties": { "uid": 208597507, "name": "Střední pedagogická škola", "bike_travel_time_min": 5.4, "remaining_walk_min": 24.6 }, "geometry": { "type": "Point", "coordinates": [ 17.452569, 49.446754 ] } },
{ "type": "Feature", "properties": { "uid": 208599223, "name": "Hřbitov - naproti zimnímu stadionu", "bike_travel_time_min": 7.5, "remaining_walk_min": 22.5 }, "geometry": { "type": "Point", "coordinates": [ 17.463023, 49.447173 ] } },
{ "type": "Feature", "properties": { "uid": 208599374, "name": "Hřbitov – 9. května", "bike_travel_time_min": 5.9, "remaining_walk_min": 24.1 }, "geometry": { "type": "Point", "coordinates": [ 17.458537, 49.446247 ] } },
{ "type": "Feature", "properties": { "uid": 208599466, "name": "Přerovské strojírny", "bike_travel_time_min": 6.5, "remaining_walk_min": 23.5 }, "geometry": { "type": "Point", "coordinates": [ 17.438507, 49.442059 ] } },
{ "type": "Feature", "properties": { "uid": 208599689, "name": "Jižní Čtvrť - Hruška", "bike_travel_time_min": 8.1, "remaining_walk_min": 21.9 }, "geometry": { "type": "Point", "coordinates": [ 17.45728, 49.441695 ] } },
{ "type": "Feature", "properties": { "uid": 208600015, "name": "Čekyně", "bike_travel_time_min": 23.7, "remaining_walk_min": 6.3 }, "geometry": { "type": "Point", "coordinates": [ 17.42708, 49.4928 ] } },
{ "type": "Feature", "properties": { "uid": 208600132, "name": "Vinary", "bike_travel_time_min": 19.1, "remaining_walk_min": 10.9 }, "geometry": { "type": "Point", "coordinates": [ 17.444612, 49.484101 ] } },
{ "type": "Feature", "properties": { "uid": 208600240, "name": "Lýsky", "bike_travel_time_min": 18.2, "remaining_walk_min": 11.8 }, "geometry": { "type": "Point", "coordinates": [ 17.457527, 49.480829 ] } },
{ "type": "Feature", "properties": { "uid": 208600371, "name": "Popovice", "bike_travel_time_min": 13.9, "remaining_walk_min": 16.1 }, "geometry": { "type": "Point", "coordinates": [ 17.44225, 49.471353 ] } },
{ "type": "Feature", "properties": { "uid": 208600487, "name": "Kozlovice", "bike_travel_time_min": 15.8, "remaining_walk_min": 14.2 }, "geometry": { "type": "Point", "coordinates": [ 17.487091, 49.463394 ] } },
{ "type": "Feature", "properties": { "uid": 208600604, "name": "Dluhonice", "bike_travel_time_min": 15.9, "remaining_walk_min": 14.1 }, "geometry": { "type": "Point", "coordinates": [ 17.414258, 49.454229 ] } },
{ "type": "Feature", "properties": { "uid": 208600740, "name": "Henčlov", "bike_travel_time_min": 18.1, "remaining_walk_min": 11.9 }, "geometry": { "type": "Point", "coordinates": [ 17.392296, 49.436305 ] } },
{ "type": "Feature", "properties": { "uid": 208600830, "name": "Lověšice - Na baště", "bike_travel_time_min": 11.9, "remaining_walk_min": 18.1 }, "geometry": { "type": "Point", "coordinates": [ 17.449097, 49.427396 ] } },
{ "type": "Feature", "properties": { "uid": 208600962, "name": "Újezdec - úřadovna", "bike_travel_time_min": 13.1, "remaining_walk_min": 16.9 }, "geometry": { "type": "Point", "coordinates": [ 17.47129, 49.43234 ] } },
{ "type": "Feature", "properties": { "uid": 208601062, "name": "Žerotínovo náměstí - Modrák (Jídelna)", "bike_travel_time_min": 7.8, "remaining_walk_min": 22.2 }, "geometry": { "type": "Point", "coordinates": [ 17.452803, 49.453435 ] } },
{ "type": "Feature", "properties": { "uid": 208601194, "name": "Lidl", "bike_travel_time_min": 9.5, "remaining_walk_min": 20.5 }, "geometry": { "type": "Point", "coordinates": [ 17.440473, 49.462197 ] } },
{ "type": "Feature", "properties": { "uid": 208601524, "name": "Kozlovská - Albert", "bike_travel_time_min": 8.0, "remaining_walk_min": 22.0 }, "geometry": { "type": "Point", "coordinates": [ 17.455622, 49.4545 ] } },
{ "type": "Feature", "properties": { "uid": 208602279, "name": "Hyperalbert", "bike_travel_time_min": 5.0, "remaining_walk_min": 25.0 }, "geometry": { "type": "Point", "coordinates": [ 17.449986, 49.445958 ] } },
{ "type": "Feature", "properties": { "uid": 208602713, "name": "Penny", "bike_travel_time_min": 5.7, "remaining_walk_min": 24.3 }, "geometry": { "type": "Point", "coordinates": [ 17.458785, 49.447888 ] } },
{ "type": "Feature", "properties": { "uid": 216523073, "name": "Restaurace Bečva", "bike_travel_time_min": 6.2, "remaining_walk_min": 23.8 }, "geometry": { "type": "Point", "coordinates": [ 17.444752, 49.454022 ] } },
{ "type": "Feature", "properties": { "uid": 233162051, "name": "Osmek", "bike_travel_time_min": 10.5, "remaining_walk_min": 19.5 }, "geometry": { "type": "Point", "coordinates": [ 17.45429, 49.46135 ] } },
{ "type": "Feature", "properties": { "uid": 266354825, "name": "Precheza", "bike_travel_time_min": 7.0, "remaining_walk_min": 23.0 }, "geometry": { "type": "Point", "coordinates": [ 17.435619, 49.449256 ] } },
{ "type": "Feature", "properties": { "uid": 272460123, "name": "Lokotka", "bike_travel_time_min": 12.7, "remaining_walk_min": 17.3 }, "geometry": { "type": "Point", "coordinates": [ 17.467, 49.45735 ] } },
{ "type": "Feature", "properties": { "uid": 272460430, "name": "Technické služby - vjezd", "bike_travel_time_min": 9.3, "remaining_walk_min": 20.7 }, "geometry": { "type": "Point", "coordinates": [ 17.439342, 49.458918 ] } },
{ "type": "Feature", "properties": { "uid": 272460800, "name": "Sokolovna", "bike_travel_time_min": 8.2, "remaining_walk_min": 21.8 }, "geometry": { "type": "Point", "coordinates": [ 17.447879, 49.457403 ] } },
{ "type": "Feature", "properties": { "uid": 272461071, "name": "OC Galerie - boční vchod", "bike_travel_time_min": 4.4, "remaining_walk_min": 25.6 }, "geometry": { "type": "Point", "coordinates": [ 17.456431, 49.451079 ] } },
{ "type": "Feature", "properties": { "uid": 272461353, "name": "Kopaniny - Billa", "bike_travel_time_min": 8.4, "remaining_walk_min": 21.6 }, "geometry": { "type": "Point", "coordinates": [ 17.448511, 49.460255 ] } },
{ "type": "Feature", "properties": { "uid": 367038728, "name": "Újezdec - Přerovská/Nová Čtvrť", "bike_travel_time_min": 10.0, "remaining_walk_min": 20.0 }, "geometry": { "type": "Point", "coordinates": [ 17.4661, 49.43655 ] } },
{ "type": "Feature", "properties": { "uid": 374411803, "name": "Zemědělská škola", "bike_travel_time_min": 11.3, "remaining_walk_min": 18.7 }, "geometry": { "type": "Point", "coordinates": [ 17.45828, 49.46356 ] } },
{ "type": "Feature", "properties": { "uid": 374412183, "name": "Centrum Leon", "bike_travel_time_min": 11.8, "remaining_walk_min": 18.2 }, "geometry": { "type": "Point", "coordinates": [ 17.44153, 49.46536 ] } },
{ "type": "Feature", "properties": { "uid": 398231649, "name": "Rokytnice - vlaková zastávka (+15 minut na příjezd/odjezd)", "bike_travel_time_min": 26.7, "remaining_walk_min": 3.3 }, "geometry": { "type": "Point", "coordinates": [ 17.37373, 49.4613 ] } },
{ "type": "Feature", "properties": { "uid": 398236470, "name": "Rokytnice - pálenice (+15 minut na příjezd/odjezd)", "bike_travel_time_min": 26.4, "remaining_walk_min": 3.6 }, "geometry": { "type": "Point", "coordinates": [ 17.379591, 49.463511 ] } },
{ "type": "Feature", "properties": { "uid": 398239076, "name": "Rokytnice - potraviny (+15 minut na příjezd/odjezd)", "bike_travel_time_min": 22.1, "remaining_walk_min": 7.9 }, "geometry": { "type": "Point", "coordinates": [ 17.39356, 49.46598 ] } },
{ "type": "Feature", "properties": { "uid": 416855077, "name": "Rokytnice - sokolovna (+15 minut na příjezd/odjezd)", "bike_travel_time_min": 24.6, "remaining_walk_min": 5.4 }, "geometry": { "type": "Point", "coordinates": [ 17.386319, 49.466595 ] } },
{ "type": "Feature", "properties": { "uid": 491289936, "name": "Mervartova (nové umístění)", "bike_travel_time_min": 8.4, "remaining_walk_min": 21.6 }, "geometry": { "type": "Point", "coordinates": [ 17.44079, 49.45495 ] } },
{ "type": "Feature", "properties": { "uid": 491290122, "name": "Dvořákova", "bike_travel_time_min": 10.4, "remaining_walk_min": 19.6 }, "geometry": { "type": "Point", "coordinates": [ 17.46778, 49.45428 ] } },
{ "type": "Feature", "properties": { "uid": 523521491, "name": "Předmostí – Prostějovská", "bike_travel_time_min": 13.0, "remaining_walk_min": 17.0 }, "geometry": { "type": "Point", "coordinates": [ 17.43597, 49.46596 ] } },
{ "type": "Feature", "properties": { "uid": 525237152, "name": "Přerovanka", "bike_travel_time_min": 6.4, "remaining_walk_min": 23.6 }, "geometry": { "type": "Point", "coordinates": [ 17.45098, 49.45295 ] } },
{ "type": "Feature", "properties": { "uid": 535353518, "name": "Želatovice (+15 min na odjezd)", "bike_travel_time_min": 17.8, "remaining_walk_min": 12.2 }, "geometry": { "type": "Point", "coordinates": [ 17.50188, 49.44484 ] } },
{ "type": "Feature", "properties": { "uid": 601933149, "name": "Tř. 17. listopadu", "bike_travel_time_min": 8.0, "remaining_walk_min": 22.0 }, "geometry": { "type": "Point", "coordinates": [ 17.46173, 49.45183 ] } }
]
}
