{
"type": "FeatureCollection",
"name": "stations_shared_bike_15min",
"crs": { "type": "name", "properties": { "name": "urn:ogc:def:crs:OGC:1.3:CRS84" } },
"features": [
{ "type": "Feature", "properties": { "uid": 13364893, "name": "P-Větrná", "bike_travel_time_min": 12.2, "remaining_walk_min": 2.8 }, "geometry": { "type": "Point", "coordinates": [ 18.180415, 49.824982 ] } },
{ "type": "Feature", "properties": { "uid": 13385412, "name": "P-Telekomunikační škola", "bike_travel_time_min": 12.4, "remaining_walk_min": 2.6 }, "geometry": { "type": "Point", "coordinates": [ 18.18661, 49.829589 ] } },
{ "type": "Feature", "properties": { "uid": 13385426, "name": "P-Třebovická", "bike_travel_time_min": 8.2, "remaining_walk_min": 6.8 }, "geometry": { "type": "Point", "coordinates": [ 18.192601, 49.828061 ] } },
{ "type": "Feature", "properties": { "uid": 13385592, "name": "P-Čistírny *(navíc 15min na odjezd)", "bike_travel_time_min": 12.1, "remaining_walk_min": 2.9 }, "geometry": { "type": "Point", "coordinates": [ 18.187839, 49.838944 ] } },
{ "type": "Feature", "properties": { "uid": 13387799, "name": "P-Hlavní třída č.p. 51", "bike_travel_time_min": 13.1, "remaining_walk_min": 1.9 }, "geometry": { "type": "Point", "coordinates": [ 18.175735, 49.827528 ] } },
{ "type": "Feature", "properties": { "uid": 13387831, "name": "P-Hlavní třída - Nálepkova", "bike_travel_time_min": 11.3, "remaining_walk_min": 3.7 }, "geometry": { "type": "Point", "coordinates": [ 18.179576, 49.826941 ] } },
{ "type": "Feature", "properties": { "uid": 13387886, "name": "P-Hlavní třída - dolní část", "bike_travel_time_min": 11.2, "remaining_walk_min": 3.8 }, "geometry": { "type": "Point", "coordinates": [ 18.184188, 49.825761 ] } },
{ "type": "Feature", "properties": { "uid": 13388009, "name": "P-Kaufland", "bike_travel_time_min": 9.6, "remaining_walk_min": 5.4 }, "geometry": { "type": "Point", "coordinates": [ 18.19069, 49.820893 ] } },
{ "type": "Feature", "properties": { "uid": 13410565, "name": "P-CVČ Vietnamská", "bike_travel_time_min": 9.3, "remaining_walk_min": 5.7 }, "geometry": { "type": "Point", "coordinates": [ 18.191206, 49.822445 ] } },
{ "type": "Feature", "properties": { "uid": 13410699, "name": "P-U Soudu, Francouzská", "bike_travel_time_min": 11.2, "remaining_walk_min": 3.8 }, "geometry": { "type": "Point", "coordinates": [ 18.185454, 49.827704 ] } },
{ "type": "Feature", "properties": { "uid": 13410760, "name": "TRE-5. května", "bike_travel_time_min": 13.1, "remaining_walk_min": 1.9 }, "geometry": { "type": "Point", "coordinates": [ 18.197832, 49.839548 ] } },
{ "type": "Feature", "properties": { "uid": 13410788, "name": "SV-radnice Svinov *(navíc 15min na odjezd)", "bike_travel_time_min": 7.0, "remaining_walk_min": 8.0 }, "geometry": { "type": "Point", "coordinates": [ 18.19794, 49.81589 ] } },
{ "type": "Feature", "properties": { "uid": 13410800, "name": "SV-Hruška Svinov *(navíc 15min na odjezd)", "bike_travel_time_min": 7.5, "remaining_walk_min": 7.5 }, "geometry": { "type": "Point", "coordinates": [ 18.196559, 49.814955 ] } },
{ "type": "Feature", "properties": { "uid": 13411540, "name": "TRE-Sladkovičovo náměstí *(navíc 15min na odjezd)", "bike_travel_time_min": 10.1, "remaining_walk_min": 4.9 }, "geometry": { "type": "Point", "coordinates": [ 18.194404, 49.835238 ] } },
{ "type": "Feature", "properties": { "uid": 13411701, "name": "SV-Svinov nádraží *(navíc 15min na odjezd)", "bike_travel_time_min": 8.9, "remaining_walk_min": 6.1 }, "geometry": { "type": "Point", "coordinates": [ 18.20981, 49.822109 ] } },
{ "type": "Feature", "properties": { "uid": 14403318, "name": "P-stadion VOKD", "bike_travel_time_min": 12.9, "remaining_walk_min": 2.1 }, "geometry": { "type": "Point", "coordinates": [ 18.180984, 49.823743 ] } },
{ "type": "Feature", "properties": { "uid": 14403424, "name": "P-Kofola", "bike_travel_time_min": 12.8, "remaining_walk_min": 2.2 }, "geometry": { "type": "Point", "coordinates": [ 18.182375, 49.819971 ] } },
{ "type": "Feature", "properties": { "uid": 27578638, "name": "P-Ukrajinská", "bike_travel_time_min": 8.7, "remaining_walk_min": 6.3 }, "geometry": { "type": "Point", "coordinates": [ 18.190987, 49.82411 ] } },
{ "type": "Feature", "properties": { "uid": 27579659, "name": "P-Sokolovská - Třebovice", "bike_travel_time_min": 12.7, "remaining_walk_min": 2.3 }, "geometry": { "type": "Point", "coordinates": [ 18.188289, 49.833596 ] } },
{ "type": "Feature", "properties": { "uid": 27579698, "name": "NV-U Vodárny", "bike_travel_time_min": 12.2, "remaining_walk_min": 2.8 }, "geometry": { "type": "Point", "coordinates": [ 18.233296, 49.823837 ] } },
{ "type": "Feature", "properties": { "uid": 27579706, "name": "NV-U Boříka", "bike_travel_time_min": 9.7, "remaining_walk_min": 5.3 }, "geometry": { "type": "Point", "coordinates": [ 18.223286, 49.822202 ] } },
{ "type": "Feature", "properties": { "uid": 27579716, "name": "NV-Paličkova", "bike_travel_time_min": 10.9, "remaining_walk_min": 4.1 }, "geometry": { "type": "Point", "coordinates": [ 18.220558, 49.816162 ] } },
{ "type": "Feature", "properties": { "uid": 27579719, "name": "NV-Na Lánech", "bike_travel_time_min": 11.7, "remaining_walk_min": 3.3 }, "geometry": { "type": "Point", "coordinates": [ 18.22706, 49.827388 ] } },
{ "type": "Feature", "properties": { "uid": 27579914, "name": "P-Sjízdná x Opavská (+15 minut na odjezd)", "bike_travel_time_min": 5.4, "remaining_walk_min": 9.6 }, "geometry": { "type": "Point", "coordinates": [ 18.197824, 49.826756 ] } },
{ "type": "Feature", "properties": { "uid": 27579933, "name": "NV-radnice Nová Ves", "bike_travel_time_min": 13.2, "remaining_walk_min": 1.8 }, "geometry": { "type": "Point", "coordinates": [ 18.228264, 49.824762 ] } },
{ "type": "Feature", "properties": { "uid": 41208801, "name": "P-Kubánská", "bike_travel_time_min": 10.7, "remaining_walk_min": 4.3 }, "geometry": { "type": "Point", "coordinates": [ 18.186668, 49.822942 ] } },
{ "type": "Feature", "properties": { "uid": 42906290, "name": "SV-ZŠ Bílovecká 10", "bike_travel_time_min": 5.0, "remaining_walk_min": 10.0 }, "geometry": { "type": "Point", "coordinates": [ 18.201678, 49.818073 ] } },
{ "type": "Feature", "properties": { "uid": 42906317, "name": "SV-E. Rošického", "bike_travel_time_min": 11.6, "remaining_walk_min": 3.4 }, "geometry": { "type": "Point", "coordinates": [ 18.188495, 49.819457 ] } },
{ "type": "Feature", "properties": { "uid": 45667441, "name": "SV- V Závětří", "bike_travel_time_min": 10.9, "remaining_walk_min": 4.1 }, "geometry": { "type": "Point", "coordinates": [ 18.189416, 49.816431 ] } },
{ "type": "Feature", "properties": { "uid": 49120793, "name": "SV-Svinov – mosty", "bike_travel_time_min": 5.1, "remaining_walk_min": 9.9 }, "geometry": { "type": "Point", "coordinates": [ 18.210516, 49.823789 ] } },
{ "type": "Feature", "properties": { "uid": 51775970, "name": "P-Nezvalovo náměstí", "bike_travel_time_min": 13.0, "remaining_walk_min": 2.0 }, "geometry": { "type": "Point", "coordinates": [ 18.17804, 49.828423 ] } },
{ "type": "Feature", "properties": { "uid": 176888761, "name": "NV - PPL Depo", "bike_travel_time_min": 9.2, "remaining_walk_min": 5.8 }, "geometry": { "type": "Point", "coordinates": [ 18.212949, 49.817978 ] } },
{ "type": "Feature", "properties": { "uid": 394367680, "name": "P-Hangar Ostrava", "bike_travel_time_min": 12.1, "remaining_walk_min": 2.9 }, "geometry": { "type": "Point", "coordinates": [ 18.17951, 49.82025 ] } },
{ "type": "Feature", "properties": { "uid": 522520101, "name": "SV - Sjízdná, Lidl", "bike_travel_time_min": 6.8, "remaining_walk_min": 8.2 }, "geometry": { "type": "Point", "coordinates": [ 18.19798, 49.82606 ] } },
{ "type": "Feature", "properties": { "uid": 529206336, "name": "P-OC Shopland", "bike_travel_time_min": 7.4, "remaining_walk_min": 7.6 }, "geometry": { "type": "Point", "coordinates": [ 18.201608, 49.827128 ] } },
{ "type": "Feature", "properties": { "uid": 535884962, "name": "SV - Lidl, Nad Porubkou", "bike_travel_time_min": 11.9, "remaining_walk_min": 3.1 }, "geometry": { "type": "Point", "coordinates": [ 18.18487, 49.81855 ] } },
{ "type": "Feature", "properties": { "uid": 580391484, "name": "P-Bulharská", "bike_travel_time_min": 10.3, "remaining_walk_min": 4.7 }, "geometry": { "type": "Point", "coordinates": [ 18.18825, 49.82672 ] } },
{ "type": "Feature", "properties": { "uid": 581595533, "name": "P-Mongolská", "bike_travel_time_min": 8.1, "remaining_walk_min": 6.9 }, "geometry": { "type": "Point", "coordinates": [ 18.19517, 49.82276 ] } }
]
}
