{
"type": "FeatureCollection",
"name": "stations_shared_bike_30min",
"crs": { "type": "name", "properties": { "name": "urn:ogc:def:crs:OGC:1.3:CRS84" } },
"features": [
{ "type": "Feature", "properties": { "uid": 13361525, "name": "MOAP-Trojhalí", "bike_travel_time_min": 28.7, "remaining_walk_min": 1.3 }, "geometry": { "type": "Point", "coordinates": [ 18.287504, 49.828513 ] } },
{ "type": "Feature", "properties": { "uid": 13361546, "name": "MOAP-Nová Karolina", "bike_travel_time_min": 27.1, "remaining_walk_min": 2.9 }, "geometry": { "type": "Point", "coordinates": [ 18.286777, 49.831368 ] } },
{ "type": "Feature", "properties": { "uid": 13362159, "name": "MOAP-křižovatka u pivovaru", "bike_travel_time_min": 25.8, "remaining_walk_min": 4.2 }, "geometry": { "type": "Point", "coordinates": [ 18.274943, 49.836406 ] } },
{ "type": "Feature", "properties": { "uid": 13362167, "name": "MOAP-Dům vodohospodářů", "bike_travel_time_min": 27.2, "remaining_walk_min": 2.8 }, "geometry": { "type": "Point", "coordinates": [ 18.265162, 49.831389 ] } },
{ "type": "Feature", "properties": { "uid": 13362197, "name": "MOAP-Don Bosco", "bike_travel_time_min": 26.0, "remaining_walk_min": 4.0 }, "geometry": { "type": "Point", "coordinates": [ 18.277258, 49.827763 ] } },
{ "type": "Feature", "properties": { "uid": 13362286, "name": "MOAP-Dům Energetiky", "bike_travel_time_min": 21.4, "remaining_walk_min": 8.6 }, "geometry": { "type": "Point", "coordinates": [ 18.264035, 49.828758 ] } },
{ "type": "Feature", "properties": { "uid": 13363203, "name": "MOAP-Novinářská", "bike_travel_time_min": 22.2, "remaining_walk_min": 7.8 }, "geometry": { "type": "Point", "coordinates": [ 18.262328, 49.836726 ] } },
{ "type": "Feature", "properties": { "uid": 13363263, "name": "MOAP-Generála Píky", "bike_travel_time_min": 25.0, "remaining_walk_min": 5.0 }, "geometry": { "type": "Point", "coordinates": [ 18.266199, 49.840458 ] } },
{ "type": "Feature", "properties": { "uid": 13363955, "name": "VIT-nám J. z Poděbrad", "bike_travel_time_min": 25.9, "remaining_walk_min": 4.1 }, "geometry": { "type": "Point", "coordinates": [ 18.27087, 49.812664 ] } },
{ "type": "Feature", "properties": { "uid": 13363996, "name": "VIT-Šalounova", "bike_travel_time_min": 26.0, "remaining_walk_min": 4.0 }, "geometry": { "type": "Point", "coordinates": [ 18.269051, 49.811516 ] } },
{ "type": "Feature", "properties": { "uid": 13364025, "name": "MOAP-Poštovní", "bike_travel_time_min": 28.8, "remaining_walk_min": 1.2 }, "geometry": { "type": "Point", "coordinates": [ 18.289033, 49.837978 ] } },
{ "type": "Feature", "properties": { "uid": 13364128, "name": "VIT-radnice Vítkovice", "bike_travel_time_min": 24.2, "remaining_walk_min": 5.8 }, "geometry": { "type": "Point", "coordinates": [ 18.266447, 49.815344 ] } },
{ "type": "Feature", "properties": { "uid": 13364215, "name": "MAR-Novoveská - Ostravské komunikace", "bike_travel_time_min": 20.4, "remaining_walk_min": 9.6 }, "geometry": { "type": "Point", "coordinates": [ 18.254626, 49.836986 ] } },
{ "type": "Feature", "properties": { "uid": 13364679, "name": "VIT-Vítkovice nádraží", "bike_travel_time_min": 26.4, "remaining_walk_min": 3.6 }, "geometry": { "type": "Point", "coordinates": [ 18.262787, 49.800851 ] } },
{ "type": "Feature", "properties": { "uid": 13364893, "name": "P-Větrná", "bike_travel_time_min": 12.2, "remaining_walk_min": 17.8 }, "geometry": { "type": "Point", "coordinates": [ 18.180415, 49.824982 ] } },
{ "type": "Feature", "properties": { "uid": 13365926, "name": "VIT-In line areál (sever)", "bike_travel_time_min": 20.6, "remaining_walk_min": 9.4 }, "geometry": { "type": "Point", "coordinates": [ 18.243357, 49.813777 ] } },
{ "type": "Feature", "properties": { "uid": 13366250, "name": "VIT-In-line areál (jih)", "bike_travel_time_min": 24.2, "remaining_walk_min": 5.8 }, "geometry": { "type": "Point", "coordinates": [ 18.24497, 49.81174 ] } },
{ "type": "Feature", "properties": { "uid": 13366286, "name": "MAR-radnice Mariánské hory", "bike_travel_time_min": 18.1, "remaining_walk_min": 11.9 }, "geometry": { "type": "Point", "coordinates": [ 18.25263, 49.83204 ] } },
{ "type": "Feature", "properties": { "uid": 13366303, "name": "MAR-Novoveská", "bike_travel_time_min": 18.3, "remaining_walk_min": 11.7 }, "geometry": { "type": "Point", "coordinates": [ 18.251951, 49.834659 ] } },
{ "type": "Feature", "properties": { "uid": 13366317, "name": "MAR-OA a VOŠ sociální", "bike_travel_time_min": 20.9, "remaining_walk_min": 9.1 }, "geometry": { "type": "Point", "coordinates": [ 18.250106, 49.829529 ] } },
{ "type": "Feature", "properties": { "uid": 13366344, "name": "MAR-Mojmírovců – PRIGO", "bike_travel_time_min": 19.0, "remaining_walk_min": 11.0 }, "geometry": { "type": "Point", "coordinates": [ 18.249199, 49.828021 ] } },
{ "type": "Feature", "properties": { "uid": 13366425, "name": "MAR-28. října - KB", "bike_travel_time_min": 18.7, "remaining_walk_min": 11.3 }, "geometry": { "type": "Point", "coordinates": [ 18.256198, 49.827979 ] } },
{ "type": "Feature", "properties": { "uid": 13366453, "name": "MAR-Sokola Tůmy", "bike_travel_time_min": 20.0, "remaining_walk_min": 10.0 }, "geometry": { "type": "Point", "coordinates": [ 18.246452, 49.827287 ] } },
{ "type": "Feature", "properties": { "uid": 13366483, "name": "MAR-terminál Hulváky", "bike_travel_time_min": 25.1, "remaining_walk_min": 4.9 }, "geometry": { "type": "Point", "coordinates": [ 18.244114, 49.826317 ] } },
{ "type": "Feature", "properties": { "uid": 13366543, "name": "MAR-Mariánské náměstí", "bike_travel_time_min": 22.1, "remaining_walk_min": 7.9 }, "geometry": { "type": "Point", "coordinates": [ 18.2577, 49.828405 ] } },
{ "type": "Feature", "properties": { "uid": 13366583, "name": "MAR-Mojmírovců – parkoviště", "bike_travel_time_min": 19.3, "remaining_walk_min": 10.7 }, "geometry": { "type": "Point", "coordinates": [ 18.25063, 49.82854 ] } },
{ "type": "Feature", "properties": { "uid": 13366598, "name": "MAR-Závišova", "bike_travel_time_min": 20.0, "remaining_walk_min": 10.0 }, "geometry": { "type": "Point", "coordinates": [ 18.255813, 49.83019 ] } },
{ "type": "Feature", "properties": { "uid": 13367618, "name": "MAR-parkoviště Jiřího Trnky", "bike_travel_time_min": 21.2, "remaining_walk_min": 8.8 }, "geometry": { "type": "Point", "coordinates": [ 18.260529, 49.836191 ] } },
{ "type": "Feature", "properties": { "uid": 13385346, "name": "P-Vřesinská *(navíc 15min na odjezd)", "bike_travel_time_min": 17.8, "remaining_walk_min": 12.2 }, "geometry": { "type": "Point", "coordinates": [ 18.158445, 49.822305 ] } },
{ "type": "Feature", "properties": { "uid": 13385361, "name": "P-Slovan", "bike_travel_time_min": 17.6, "remaining_walk_min": 12.4 }, "geometry": { "type": "Point", "coordinates": [ 18.166845, 49.834546 ] } },
{ "type": "Feature", "properties": { "uid": 13385372, "name": "P-Poruba vozovna", "bike_travel_time_min": 14.1, "remaining_walk_min": 15.9 }, "geometry": { "type": "Point", "coordinates": [ 18.175373, 49.832365 ] } },
{ "type": "Feature", "properties": { "uid": 13385412, "name": "P-Telekomunikační škola", "bike_travel_time_min": 12.4, "remaining_walk_min": 17.6 }, "geometry": { "type": "Point", "coordinates": [ 18.18661, 49.829589 ] } },
{ "type": "Feature", "properties": { "uid": 13385426, "name": "P-Třebovická", "bike_travel_time_min": 8.2, "remaining_walk_min": 21.8 }, "geometry": { "type": "Point", "coordinates": [ 18.192601, 49.828061 ] } },
{ "type": "Feature", "properties": { "uid": 13385442, "name": "P-Dílny DP *(navíc 15min na odjezd)", "bike_travel_time_min": 20.6, "remaining_walk_min": 9.4 }, "geometry": { "type": "Point", "coordinates": [ 18.181926, 49.847444 ] } },
{ "type": "Feature", "properties": { "uid": 13385563, "name": "P-Bedřicha Nikodéma - Martinovská *(navíc 15min na odjezd)", "bike_travel_time_min": 20.8, "remaining_walk_min": 9.2 }, "geometry": { "type": "Point", "coordinates": [ 18.182599, 49.841578 ] } },
{ "type": "Feature", "properties": { "uid": 13385592, "name": "P-Čistírny *(navíc 15min na odjezd)", "bike_travel_time_min": 12.1, "remaining_walk_min": 17.9 }, "geometry": { "type": "Point", "coordinates": [ 18.187839, 49.838944 ] } },
{ "type": "Feature", "properties": { "uid": 13385600, "name": "P-Duha", "bike_travel_time_min": 27.5, "remaining_walk_min": 2.5 }, "geometry": { "type": "Point", "coordinates": [ 18.16905, 49.844516 ] } },
{ "type": "Feature", "properties": { "uid": 13385611, "name": "P-Nikodéma - Jeremiáše", "bike_travel_time_min": 24.5, "remaining_walk_min": 5.5 }, "geometry": { "type": "Point", "coordinates": [ 18.157565, 49.842628 ] } },
{ "type": "Feature", "properties": { "uid": 13385686, "name": "P-Bohemka/nám. Družby", "bike_travel_time_min": 17.3, "remaining_walk_min": 12.7 }, "geometry": { "type": "Point", "coordinates": [ 18.181034, 49.83617 ] } },
{ "type": "Feature", "properties": { "uid": 13385706, "name": "P-Duha - horní náměstí", "bike_travel_time_min": 24.3, "remaining_walk_min": 5.7 }, "geometry": { "type": "Point", "coordinates": [ 18.166695, 49.843983 ] } },
{ "type": "Feature", "properties": { "uid": 13385720, "name": "P-Hlavní třída - horní část", "bike_travel_time_min": 19.1, "remaining_walk_min": 10.9 }, "geometry": { "type": "Point", "coordinates": [ 18.16464, 49.831107 ] } },
{ "type": "Feature", "properties": { "uid": 13385738, "name": "P-Hlavní třída - Havanská", "bike_travel_time_min": 18.5, "remaining_walk_min": 11.5 }, "geometry": { "type": "Point", "coordinates": [ 18.166733, 49.830192 ] } },
{ "type": "Feature", "properties": { "uid": 13387762, "name": "P-Hlavní třída - Bohuslava Martinů", "bike_travel_time_min": 15.6, "remaining_walk_min": 14.4 }, "geometry": { "type": "Point", "coordinates": [ 18.170296, 49.82928 ] } },
{ "type": "Feature", "properties": { "uid": 13387788, "name": "P-Hlavní třída - Rondl - středový pás", "bike_travel_time_min": 15.4, "remaining_walk_min": 14.6 }, "geometry": { "type": "Point", "coordinates": [ 18.174173, 49.828463 ] } },
{ "type": "Feature", "properties": { "uid": 13387799, "name": "P-Hlavní třída č.p. 51", "bike_travel_time_min": 13.1, "remaining_walk_min": 16.9 }, "geometry": { "type": "Point", "coordinates": [ 18.175735, 49.827528 ] } },
{ "type": "Feature", "properties": { "uid": 13387812, "name": "PUS-radnice Pustkovec", "bike_travel_time_min": 26.9, "remaining_walk_min": 3.1 }, "geometry": { "type": "Point", "coordinates": [ 18.163, 49.841417 ] } },
{ "type": "Feature", "properties": { "uid": 13387831, "name": "P-Hlavní třída - Nálepkova", "bike_travel_time_min": 11.3, "remaining_walk_min": 18.7 }, "geometry": { "type": "Point", "coordinates": [ 18.179576, 49.826941 ] } },
{ "type": "Feature", "properties": { "uid": 13387886, "name": "P-Hlavní třída - dolní část", "bike_travel_time_min": 11.2, "remaining_walk_min": 18.8 }, "geometry": { "type": "Point", "coordinates": [ 18.184188, 49.825761 ] } },
{ "type": "Feature", "properties": { "uid": 13387935, "name": "HOS-radnice Hošťálkovice", "bike_travel_time_min": 26.6, "remaining_walk_min": 3.4 }, "geometry": { "type": "Point", "coordinates": [ 18.21504, 49.84696 ] } },
{ "type": "Feature", "properties": { "uid": 13388009, "name": "P-Kaufland", "bike_travel_time_min": 9.6, "remaining_walk_min": 20.4 }, "geometry": { "type": "Point", "coordinates": [ 18.19069, 49.820893 ] } },
{ "type": "Feature", "properties": { "uid": 13388021, "name": "P-Ludvíka Podeště", "bike_travel_time_min": 28.2, "remaining_walk_min": 1.8 }, "geometry": { "type": "Point", "coordinates": [ 18.155353, 49.844635 ] } },
{ "type": "Feature", "properties": { "uid": 13388035, "name": "P-Koleje VŠB - vstup do lesoparku", "bike_travel_time_min": 17.3, "remaining_walk_min": 12.7 }, "geometry": { "type": "Point", "coordinates": [ 18.157593, 49.835953 ] } },
{ "type": "Feature", "properties": { "uid": 13388043, "name": "P-Komunitní centrum Všichni spolu", "bike_travel_time_min": 23.9, "remaining_walk_min": 6.1 }, "geometry": { "type": "Point", "coordinates": [ 18.180727, 49.838642 ] } },
{ "type": "Feature", "properties": { "uid": 13388231, "name": "P-Letní koupaliště \"Vřesina\" ", "bike_travel_time_min": 28.5, "remaining_walk_min": 1.5 }, "geometry": { "type": "Point", "coordinates": [ 18.1453, 49.82491 ] } },
{ "type": "Feature", "properties": { "uid": 13388251, "name": "P-Arrows baseball", "bike_travel_time_min": 20.8, "remaining_walk_min": 9.2 }, "geometry": { "type": "Point", "coordinates": [ 18.167611, 49.847031 ] } },
{ "type": "Feature", "properties": { "uid": 13388265, "name": "P-Jana Šoupala", "bike_travel_time_min": 21.6, "remaining_walk_min": 8.4 }, "geometry": { "type": "Point", "coordinates": [ 18.173919, 49.842279 ] } },
{ "type": "Feature", "properties": { "uid": 13388277, "name": "P-Pošta Porubská", "bike_travel_time_min": 14.7, "remaining_walk_min": 15.3 }, "geometry": { "type": "Point", "coordinates": [ 18.174782, 49.829888 ] } },
{ "type": "Feature", "properties": { "uid": 13388288, "name": "P-Středisko Pavlouskova", "bike_travel_time_min": 18.1, "remaining_walk_min": 11.9 }, "geometry": { "type": "Point", "coordinates": [ 18.162921, 49.838462 ] } },
{ "type": "Feature", "properties": { "uid": 13410565, "name": "P-CVČ Vietnamská", "bike_travel_time_min": 9.3, "remaining_walk_min": 20.7 }, "geometry": { "type": "Point", "coordinates": [ 18.191206, 49.822445 ] } },
{ "type": "Feature", "properties": { "uid": 13410573, "name": "P-Mephacentrum", "bike_travel_time_min": 14.3, "remaining_walk_min": 15.7 }, "geometry": { "type": "Point", "coordinates": [ 18.178819, 49.831438 ] } },
{ "type": "Feature", "properties": { "uid": 13410583, "name": "P-Fakultní nemocnice", "bike_travel_time_min": 20.2, "remaining_walk_min": 9.8 }, "geometry": { "type": "Point", "coordinates": [ 18.162449, 49.828514 ] } },
{ "type": "Feature", "properties": { "uid": 13410601, "name": "P-Středisko Zuzana", "bike_travel_time_min": 18.4, "remaining_walk_min": 11.6 }, "geometry": { "type": "Point", "coordinates": [ 18.177828, 49.840524 ] } },
{ "type": "Feature", "properties": { "uid": 13410627, "name": "P-Průběžná-Majerové", "bike_travel_time_min": 18.8, "remaining_walk_min": 11.2 }, "geometry": { "type": "Point", "coordinates": [ 18.172971, 49.847674 ] } },
{ "type": "Feature", "properties": { "uid": 13410656, "name": "P-Vřesinská, Klimkovická", "bike_travel_time_min": 18.7, "remaining_walk_min": 11.3 }, "geometry": { "type": "Point", "coordinates": [ 18.16606, 49.82261 ] } },
{ "type": "Feature", "properties": { "uid": 13410669, "name": "P-Generála Sochora, radnice Poruba C", "bike_travel_time_min": 16.1, "remaining_walk_min": 13.9 }, "geometry": { "type": "Point", "coordinates": [ 18.179551, 49.834198 ] } },
{ "type": "Feature", "properties": { "uid": 13410679, "name": "P-Opavská, úřad práce", "bike_travel_time_min": 16.7, "remaining_walk_min": 13.3 }, "geometry": { "type": "Point", "coordinates": [ 18.18099, 49.830853 ] } },
{ "type": "Feature", "properties": { "uid": 13410699, "name": "P-U Soudu, Francouzská", "bike_travel_time_min": 11.2, "remaining_walk_min": 18.8 }, "geometry": { "type": "Point", "coordinates": [ 18.185454, 49.827704 ] } },
{ "type": "Feature", "properties": { "uid": 13410707, "name": "P-FAST, VŠB-TUO", "bike_travel_time_min": 29.0, "remaining_walk_min": 1.0 }, "geometry": { "type": "Point", "coordinates": [ 18.153577, 49.845683 ] } },
{ "type": "Feature", "properties": { "uid": 13410718, "name": "P-FEI, VŠB-TUO (navíc 15min na příjezd i odjezd)", "bike_travel_time_min": 19.0, "remaining_walk_min": 11.0 }, "geometry": { "type": "Point", "coordinates": [ 18.161756, 49.831907 ] } },
{ "type": "Feature", "properties": { "uid": 13410727, "name": "P-rektorát, VŠB-TUO(+15 minut zdarma na příjezd i odjezd)", "bike_travel_time_min": 19.5, "remaining_walk_min": 10.5 }, "geometry": { "type": "Point", "coordinates": [ 18.164356, 49.834027 ] } },
{ "type": "Feature", "properties": { "uid": 13410745, "name": "P-koleje VŠB", "bike_travel_time_min": 17.2, "remaining_walk_min": 12.8 }, "geometry": { "type": "Point", "coordinates": [ 18.158608, 49.836662 ] } },
{ "type": "Feature", "properties": { "uid": 13410760, "name": "TRE-5. května", "bike_travel_time_min": 13.1, "remaining_walk_min": 16.9 }, "geometry": { "type": "Point", "coordinates": [ 18.197832, 49.839548 ] } },
{ "type": "Feature", "properties": { "uid": 13410769, "name": "P-MSIC - Piano", "bike_travel_time_min": 27.3, "remaining_walk_min": 2.7 }, "geometry": { "type": "Point", "coordinates": [ 18.154809, 49.837865 ] } },
{ "type": "Feature", "properties": { "uid": 13410779, "name": "P-MSIC - Viva", "bike_travel_time_min": 25.6, "remaining_walk_min": 4.4 }, "geometry": { "type": "Point", "coordinates": [ 18.154571, 49.838789 ] } },
{ "type": "Feature", "properties": { "uid": 13410788, "name": "SV-radnice Svinov *(navíc 15min na odjezd)", "bike_travel_time_min": 7.0, "remaining_walk_min": 23.0 }, "geometry": { "type": "Point", "coordinates": [ 18.19794, 49.81589 ] } },
{ "type": "Feature", "properties": { "uid": 13410800, "name": "SV-Hruška Svinov *(navíc 15min na odjezd)", "bike_travel_time_min": 7.5, "remaining_walk_min": 22.5 }, "geometry": { "type": "Point", "coordinates": [ 18.196559, 49.814955 ] } },
{ "type": "Feature", "properties": { "uid": 13410820, "name": "JIH-Jičínská", "bike_travel_time_min": 27.7, "remaining_walk_min": 2.3 }, "geometry": { "type": "Point", "coordinates": [ 18.22479, 49.773809 ] } },
{ "type": "Feature", "properties": { "uid": 13410827, "name": "JIH-Srbská", "bike_travel_time_min": 27.3, "remaining_walk_min": 2.7 }, "geometry": { "type": "Point", "coordinates": [ 18.22462, 49.775828 ] } },
{ "type": "Feature", "properties": { "uid": 13410835, "name": "JIH-Svornosti (koliba)", "bike_travel_time_min": 27.4, "remaining_walk_min": 2.6 }, "geometry": { "type": "Point", "coordinates": [ 18.233441, 49.780964 ] } },
{ "type": "Feature", "properties": { "uid": 13410853, "name": "JIH-Svornosti (MHD)", "bike_travel_time_min": 24.4, "remaining_walk_min": 5.6 }, "geometry": { "type": "Point", "coordinates": [ 18.235155, 49.784009 ] } },
{ "type": "Feature", "properties": { "uid": 13410871, "name": "JIH-Svazácká", "bike_travel_time_min": 23.1, "remaining_walk_min": 6.9 }, "geometry": { "type": "Point", "coordinates": [ 18.238381, 49.790121 ] } },
{ "type": "Feature", "properties": { "uid": 13410885, "name": "JIH-Volgogradská", "bike_travel_time_min": 28.1, "remaining_walk_min": 1.9 }, "geometry": { "type": "Point", "coordinates": [ 18.227954, 49.793591 ] } },
{ "type": "Feature", "properties": { "uid": 13410918, "name": "JIH-Tylova x Rottrova", "bike_travel_time_min": 23.5, "remaining_walk_min": 6.5 }, "geometry": { "type": "Point", "coordinates": [ 18.243779, 49.801347 ] } },
{ "type": "Feature", "properties": { "uid": 13410972, "name": "JIH-U Hrůbků *(navíc 15min na odjezd)", "bike_travel_time_min": 19.0, "remaining_walk_min": 11.0 }, "geometry": { "type": "Point", "coordinates": [ 18.229952, 49.809537 ] } },
{ "type": "Feature", "properties": { "uid": 13411024, "name": "JIH-hotel Vista", "bike_travel_time_min": 25.0, "remaining_walk_min": 5.0 }, "geometry": { "type": "Point", "coordinates": [ 18.245824, 49.791753 ] } },
{ "type": "Feature", "properties": { "uid": 13411220, "name": "JIH-Cholevova", "bike_travel_time_min": 28.5, "remaining_walk_min": 1.5 }, "geometry": { "type": "Point", "coordinates": [ 18.249396, 49.783704 ] } },
{ "type": "Feature", "properties": { "uid": 13411230, "name": "JIH-Slezská", "bike_travel_time_min": 28.5, "remaining_walk_min": 1.5 }, "geometry": { "type": "Point", "coordinates": [ 18.263547, 49.79162 ] } },
{ "type": "Feature", "properties": { "uid": 13411540, "name": "TRE-Sladkovičovo náměstí *(navíc 15min na odjezd)", "bike_travel_time_min": 10.1, "remaining_walk_min": 19.9 }, "geometry": { "type": "Point", "coordinates": [ 18.194404, 49.835238 ] } },
{ "type": "Feature", "properties": { "uid": 13411551, "name": "JIH-Zábřeh, poliklinika", "bike_travel_time_min": 22.5, "remaining_walk_min": 7.5 }, "geometry": { "type": "Point", "coordinates": [ 18.238769, 49.791991 ] } },
{ "type": "Feature", "properties": { "uid": 13411586, "name": "JIH-Kotlářova", "bike_travel_time_min": 24.6, "remaining_walk_min": 5.4 }, "geometry": { "type": "Point", "coordinates": [ 18.22654, 49.78941 ] } },
{ "type": "Feature", "properties": { "uid": 13411590, "name": "JIH-Výškovice, poliklinika", "bike_travel_time_min": 27.6, "remaining_walk_min": 2.4 }, "geometry": { "type": "Point", "coordinates": [ 18.221096, 49.778076 ] } },
{ "type": "Feature", "properties": { "uid": 13411654, "name": "HOS-Lipka", "bike_travel_time_min": 19.5, "remaining_walk_min": 10.5 }, "geometry": { "type": "Point", "coordinates": [ 18.216606, 49.843536 ] } },
{ "type": "Feature", "properties": { "uid": 13411662, "name": "HOS-horní zastávka Žleby", "bike_travel_time_min": 24.3, "remaining_walk_min": 5.7 }, "geometry": { "type": "Point", "coordinates": [ 18.214439, 49.855248 ] } },
{ "type": "Feature", "properties": { "uid": 13411670, "name": "HOS-sportovní areál u ZŠ", "bike_travel_time_min": 18.3, "remaining_walk_min": 11.7 }, "geometry": { "type": "Point", "coordinates": [ 18.211026, 49.847373 ] } },
{ "type": "Feature", "properties": { "uid": 13411678, "name": "HOS-Hošťálkovice točna autobusů", "bike_travel_time_min": 21.2, "remaining_walk_min": 8.8 }, "geometry": { "type": "Point", "coordinates": [ 18.214436, 49.849654 ] } },
{ "type": "Feature", "properties": { "uid": 13411690, "name": "HOS-Rozhledna", "bike_travel_time_min": 20.6, "remaining_walk_min": 9.4 }, "geometry": { "type": "Point", "coordinates": [ 18.211301, 49.844474 ] } },
{ "type": "Feature", "properties": { "uid": 13411701, "name": "SV-Svinov nádraží *(navíc 15min na odjezd)", "bike_travel_time_min": 8.9, "remaining_walk_min": 21.1 }, "geometry": { "type": "Point", "coordinates": [ 18.20981, 49.822109 ] } },
{ "type": "Feature", "properties": { "uid": 14402984, "name": "P-Skalka family park", "bike_travel_time_min": 28.5, "remaining_walk_min": 1.5 }, "geometry": { "type": "Point", "coordinates": [ 18.13915, 49.81933 ] } },
{ "type": "Feature", "properties": { "uid": 14403073, "name": "LHOT-Golf Park Lhotka", "bike_travel_time_min": 25.3, "remaining_walk_min": 4.7 }, "geometry": { "type": "Point", "coordinates": [ 18.23072, 49.85384 ] } },
{ "type": "Feature", "properties": { "uid": 14403318, "name": "P-stadion VOKD", "bike_travel_time_min": 12.9, "remaining_walk_min": 17.1 }, "geometry": { "type": "Point", "coordinates": [ 18.180984, 49.823743 ] } },
{ "type": "Feature", "properties": { "uid": 14403325, "name": "P-U Oblouku", "bike_travel_time_min": 17.2, "remaining_walk_min": 12.8 }, "geometry": { "type": "Point", "coordinates": [ 18.174045, 49.822369 ] } },
{ "type": "Feature", "properties": { "uid": 14403377, "name": "MTNV-Martinov - smyčka", "bike_travel_time_min": 27.7, "remaining_walk_min": 2.3 }, "geometry": { "type": "Point", "coordinates": [ 18.182908, 49.853428 ] } },
{ "type": "Feature", "properties": { "uid": 14403409, "name": "MTNV-Martinov - U Hůry", "bike_travel_time_min": 27.8, "remaining_walk_min": 2.2 }, "geometry": { "type": "Point", "coordinates": [ 18.169237, 49.858876 ] } },
{ "type": "Feature", "properties": { "uid": 14403424, "name": "P-Kofola", "bike_travel_time_min": 12.8, "remaining_walk_min": 17.2 }, "geometry": { "type": "Point", "coordinates": [ 18.182375, 49.819971 ] } },
{ "type": "Feature", "properties": { "uid": 14403570, "name": "P-Slavíkova - Lidl", "bike_travel_time_min": 20.6, "remaining_walk_min": 9.4 }, "geometry": { "type": "Point", "coordinates": [ 18.168774, 49.837808 ] } },
{ "type": "Feature", "properties": { "uid": 27578638, "name": "P-Ukrajinská", "bike_travel_time_min": 8.7, "remaining_walk_min": 21.3 }, "geometry": { "type": "Point", "coordinates": [ 18.190987, 49.82411 ] } },
{ "type": "Feature", "properties": { "uid": 27578902, "name": "KP-Radnice Krásné Pole", "bike_travel_time_min": 28.8, "remaining_walk_min": 1.2 }, "geometry": { "type": "Point", "coordinates": [ 18.123392, 49.845266 ] } },
{ "type": "Feature", "properties": { "uid": 27578940, "name": "MOAP-Hornopolní - pivovar", "bike_travel_time_min": 26.7, "remaining_walk_min": 3.3 }, "geometry": { "type": "Point", "coordinates": [ 18.271562, 49.840291 ] } },
{ "type": "Feature", "properties": { "uid": 27579052, "name": "PUS-Pustkovec - kostel", "bike_travel_time_min": 19.6, "remaining_walk_min": 10.4 }, "geometry": { "type": "Point", "coordinates": [ 18.16847, 49.840964 ] } },
{ "type": "Feature", "properties": { "uid": 27579168, "name": "PLE-Globus - Ostrava", "bike_travel_time_min": 28.5, "remaining_walk_min": 1.5 }, "geometry": { "type": "Point", "coordinates": [ 18.146427, 49.848036 ] } },
{ "type": "Feature", "properties": { "uid": 27579218, "name": "JIH-Charvátská, CDU", "bike_travel_time_min": 27.6, "remaining_walk_min": 2.4 }, "geometry": { "type": "Point", "coordinates": [ 18.216219, 49.779307 ] } },
{ "type": "Feature", "properties": { "uid": 27579244, "name": "JIH-Dakota", "bike_travel_time_min": 28.0, "remaining_walk_min": 2.0 }, "geometry": { "type": "Point", "coordinates": [ 18.245443, 49.782962 ] } },
{ "type": "Feature", "properties": { "uid": 27579378, "name": "JIH-Předškolní (U Racka)", "bike_travel_time_min": 25.9, "remaining_walk_min": 4.1 }, "geometry": { "type": "Point", "coordinates": [ 18.222758, 49.780978 ] } },
{ "type": "Feature", "properties": { "uid": 27579394, "name": "JIH-Zábřeh vodárna", "bike_travel_time_min": 20.1, "remaining_walk_min": 9.9 }, "geometry": { "type": "Point", "coordinates": [ 18.232917, 49.794466 ] } },
{ "type": "Feature", "properties": { "uid": 27579524, "name": "JIH-Obchodní centrum", "bike_travel_time_min": 27.4, "remaining_walk_min": 2.6 }, "geometry": { "type": "Point", "coordinates": [ 18.232775, 49.799916 ] } },
{ "type": "Feature", "properties": { "uid": 27579659, "name": "P-Sokolovská - Třebovice", "bike_travel_time_min": 12.7, "remaining_walk_min": 17.3 }, "geometry": { "type": "Point", "coordinates": [ 18.188289, 49.833596 ] } },
{ "type": "Feature", "properties": { "uid": 27579698, "name": "NV-U Vodárny", "bike_travel_time_min": 12.2, "remaining_walk_min": 17.8 }, "geometry": { "type": "Point", "coordinates": [ 18.233296, 49.823837 ] } },
{ "type": "Feature", "properties": { "uid": 27579706, "name": "NV-U Boříka", "bike_travel_time_min": 9.7, "remaining_walk_min": 20.3 }, "geometry": { "type": "Point", "coordinates": [ 18.223286, 49.822202 ] } },
{ "type": "Feature", "properties": { "uid": 27579716, "name": "NV-Paličkova", "bike_travel_time_min": 10.9, "remaining_walk_min": 19.1 }, "geometry": { "type": "Point", "coordinates": [ 18.220558, 49.816162 ] } },
{ "type": "Feature", "properties": { "uid": 27579719, "name": "NV-Na Lánech", "bike_travel_time_min": 11.7, "remaining_walk_min": 18.3 }, "geometry": { "type": "Point", "coordinates": [ 18.22706, 49.827388 ] } },
{ "type": "Feature", "properties": { "uid": 27579726, "name": "NV-Školní statek", "bike_travel_time_min": 15.1, "remaining_walk_min": 14.9 }, "geometry": { "type": "Point", "coordinates": [ 18.227683, 49.812502 ] } },
{ "type": "Feature", "properties": { "uid": 27579895, "name": "MAR-Chemická - točna", "bike_travel_time_min": 15.8, "remaining_walk_min": 14.2 }, "geometry": { "type": "Point", "coordinates": [ 18.229962, 49.833472 ] } },
{ "type": "Feature", "properties": { "uid": 27579914, "name": "P-Sjízdná x Opavská (+15 minut na odjezd)", "bike_travel_time_min": 5.4, "remaining_walk_min": 24.6 }, "geometry": { "type": "Point", "coordinates": [ 18.197824, 49.826756 ] } },
{ "type": "Feature", "properties": { "uid": 27579933, "name": "NV-radnice Nová Ves", "bike_travel_time_min": 13.2, "remaining_walk_min": 16.8 }, "geometry": { "type": "Point", "coordinates": [ 18.228264, 49.824762 ] } },
{ "type": "Feature", "properties": { "uid": 27582938, "name": "P - Sídliště Oty Synka", "bike_travel_time_min": 27.5, "remaining_walk_min": 2.5 }, "geometry": { "type": "Point", "coordinates": [ 18.161503, 49.84432 ] } },
{ "type": "Feature", "properties": { "uid": 27583397, "name": "P-Myslivna", "bike_travel_time_min": 27.5, "remaining_walk_min": 2.5 }, "geometry": { "type": "Point", "coordinates": [ 18.150127, 49.830777 ] } },
{ "type": "Feature", "properties": { "uid": 27604130, "name": "MAR-Stanice Portáš", "bike_travel_time_min": 20.1, "remaining_walk_min": 9.9 }, "geometry": { "type": "Point", "coordinates": [ 18.252519, 49.82738 ] } },
{ "type": "Feature", "properties": { "uid": 34572433, "name": "JIH-AVION hlavní vchod", "bike_travel_time_min": 20.1, "remaining_walk_min": 9.9 }, "geometry": { "type": "Point", "coordinates": [ 18.23119, 49.801061 ] } },
{ "type": "Feature", "properties": { "uid": 34572586, "name": "JIH-IKEA", "bike_travel_time_min": 18.4, "remaining_walk_min": 11.6 }, "geometry": { "type": "Point", "coordinates": [ 18.227067, 49.799194 ] } },
{ "type": "Feature", "properties": { "uid": 41111524, "name": "LHOT-Stará čtvrť", "bike_travel_time_min": 28.9, "remaining_walk_min": 1.1 }, "geometry": { "type": "Point", "coordinates": [ 18.232946, 49.861975 ] } },
{ "type": "Feature", "properties": { "uid": 41111726, "name": "PNO-sportovní hala Polanka", "bike_travel_time_min": 26.8, "remaining_walk_min": 3.2 }, "geometry": { "type": "Point", "coordinates": [ 18.16873, 49.791291 ] } },
{ "type": "Feature", "properties": { "uid": 41111735, "name": "PNO-zastávka Janová", "bike_travel_time_min": 22.5, "remaining_walk_min": 7.5 }, "geometry": { "type": "Point", "coordinates": [ 18.168738, 49.805678 ] } },
{ "type": "Feature", "properties": { "uid": 41111744, "name": "PNO-dětské hřiště, Janová", "bike_travel_time_min": 24.6, "remaining_walk_min": 5.4 }, "geometry": { "type": "Point", "coordinates": [ 18.161794, 49.803118 ] } },
{ "type": "Feature", "properties": { "uid": 41208801, "name": "P-Kubánská", "bike_travel_time_min": 10.7, "remaining_walk_min": 19.3 }, "geometry": { "type": "Point", "coordinates": [ 18.186668, 49.822942 ] } },
{ "type": "Feature", "properties": { "uid": 41208888, "name": "P-Sokolovská", "bike_travel_time_min": 17.1, "remaining_walk_min": 12.9 }, "geometry": { "type": "Point", "coordinates": [ 18.177438, 49.83575 ] } },
{ "type": "Feature", "properties": { "uid": 41208889, "name": "P-Opavská", "bike_travel_time_min": 15.2, "remaining_walk_min": 14.8 }, "geometry": { "type": "Point", "coordinates": [ 18.173543, 49.833621 ] } },
{ "type": "Feature", "properties": { "uid": 41208893, "name": "P-Oty Synka", "bike_travel_time_min": 28.1, "remaining_walk_min": 1.9 }, "geometry": { "type": "Point", "coordinates": [ 18.159098, 49.848859 ] } },
{ "type": "Feature", "properties": { "uid": 42906290, "name": "SV-ZŠ Bílovecká 10", "bike_travel_time_min": 5.0, "remaining_walk_min": 25.0 }, "geometry": { "type": "Point", "coordinates": [ 18.201678, 49.818073 ] } },
{ "type": "Feature", "properties": { "uid": 42906317, "name": "SV-E. Rošického", "bike_travel_time_min": 11.6, "remaining_walk_min": 18.4 }, "geometry": { "type": "Point", "coordinates": [ 18.188495, 49.819457 ] } },
{ "type": "Feature", "properties": { "uid": 44802908, "name": "VIT-Třinecké železárny - u zámku", "bike_travel_time_min": 25.0, "remaining_walk_min": 5.0 }, "geometry": { "type": "Point", "coordinates": [ 18.272061, 49.817992 ] } },
{ "type": "Feature", "properties": { "uid": 45667441, "name": "SV- V Závětří", "bike_travel_time_min": 10.9, "remaining_walk_min": 19.1 }, "geometry": { "type": "Point", "coordinates": [ 18.189416, 49.816431 ] } },
{ "type": "Feature", "properties": { "uid": 49120793, "name": "SV-Svinov – mosty", "bike_travel_time_min": 5.1, "remaining_walk_min": 24.9 }, "geometry": { "type": "Point", "coordinates": [ 18.210516, 49.823789 ] } },
{ "type": "Feature", "properties": { "uid": 51775920, "name": "P-KD Harmonie", "bike_travel_time_min": 16.5, "remaining_walk_min": 13.5 }, "geometry": { "type": "Point", "coordinates": [ 18.17554, 49.824519 ] } },
{ "type": "Feature", "properties": { "uid": 51775970, "name": "P-Nezvalovo náměstí", "bike_travel_time_min": 13.0, "remaining_walk_min": 17.0 }, "geometry": { "type": "Point", "coordinates": [ 18.17804, 49.828423 ] } },
{ "type": "Feature", "properties": { "uid": 57001927, "name": "P- Dům kultury Poklad", "bike_travel_time_min": 18.0, "remaining_walk_min": 12.0 }, "geometry": { "type": "Point", "coordinates": [ 18.167035, 49.827471 ] } },
{ "type": "Feature", "properties": { "uid": 57431076, "name": "P-Gymnázium P. Tigrida", "bike_travel_time_min": 17.0, "remaining_walk_min": 13.0 }, "geometry": { "type": "Point", "coordinates": [ 18.171856, 49.824511 ] } },
{ "type": "Feature", "properties": { "uid": 59534039, "name": "P-Knihovna Podroužkova", "bike_travel_time_min": 18.8, "remaining_walk_min": 11.2 }, "geometry": { "type": "Point", "coordinates": [ 18.171536, 49.845691 ] } },
{ "type": "Feature", "properties": { "uid": 65270825, "name": "MAR-Švermova", "bike_travel_time_min": 27.2, "remaining_walk_min": 2.8 }, "geometry": { "type": "Point", "coordinates": [ 18.244932, 49.83341 ] } },
{ "type": "Feature", "properties": { "uid": 82371100, "name": "P-Logistics Park", "bike_travel_time_min": 23.9, "remaining_walk_min": 6.1 }, "geometry": { "type": "Point", "coordinates": [ 18.156764, 49.817134 ] } },
{ "type": "Feature", "properties": { "uid": 103880791, "name": "MOAP-nádraží Ostrava střed", "bike_travel_time_min": 26.8, "remaining_walk_min": 3.2 }, "geometry": { "type": "Point", "coordinates": [ 18.28254, 49.82943 ] } },
{ "type": "Feature", "properties": { "uid": 122695989, "name": "JIH-OC Kotva", "bike_travel_time_min": 23.5, "remaining_walk_min": 6.5 }, "geometry": { "type": "Point", "coordinates": [ 18.22898, 49.791539 ] } },
{ "type": "Feature", "properties": { "uid": 147547004, "name": "MOAP-City Campus", "bike_travel_time_min": 28.7, "remaining_walk_min": 1.3 }, "geometry": { "type": "Point", "coordinates": [ 18.292348, 49.831052 ] } },
{ "type": "Feature", "properties": { "uid": 154591373, "name": "JIH - Kosmonautů (základní škola)", "bike_travel_time_min": 23.0, "remaining_walk_min": 7.0 }, "geometry": { "type": "Point", "coordinates": [ 18.229719, 49.787758 ] } },
{ "type": "Feature", "properties": { "uid": 168301491, "name": "JIH - MŠ Patrice Lumumby", "bike_travel_time_min": 26.1, "remaining_walk_min": 3.9 }, "geometry": { "type": "Point", "coordinates": [ 18.226061, 49.786931 ] } },
{ "type": "Feature", "properties": { "uid": 176071655, "name": "JIH - Odborářská", "bike_travel_time_min": 26.8, "remaining_walk_min": 3.2 }, "geometry": { "type": "Point", "coordinates": [ 18.253154, 49.791319 ] } },
{ "type": "Feature", "properties": { "uid": 176105805, "name": "JIH - Dr. Lukášové", "bike_travel_time_min": 28.8, "remaining_walk_min": 1.2 }, "geometry": { "type": "Point", "coordinates": [ 18.257172, 49.788208 ] } },
{ "type": "Feature", "properties": { "uid": 176882402, "name": "MOAP - Muglinovská", "bike_travel_time_min": 29.0, "remaining_walk_min": 1.0 }, "geometry": { "type": "Point", "coordinates": [ 18.277774, 49.849364 ] } },
{ "type": "Feature", "properties": { "uid": 176888761, "name": "NV - PPL Depo", "bike_travel_time_min": 9.2, "remaining_walk_min": 20.8 }, "geometry": { "type": "Point", "coordinates": [ 18.212949, 49.817978 ] } },
{ "type": "Feature", "properties": { "uid": 180055071, "name": "JIH - Horní", "bike_travel_time_min": 26.4, "remaining_walk_min": 3.6 }, "geometry": { "type": "Point", "coordinates": [ 18.249734, 49.792324 ] } },
{ "type": "Feature", "properties": { "uid": 180193416, "name": "JIH - U Lesa", "bike_travel_time_min": 26.5, "remaining_walk_min": 3.5 }, "geometry": { "type": "Point", "coordinates": [ 18.247235, 49.789975 ] } },
{ "type": "Feature", "properties": { "uid": 180715445, "name": "JIH - Volgogradská (Hruška)", "bike_travel_time_min": 25.1, "remaining_walk_min": 4.9 }, "geometry": { "type": "Point", "coordinates": [ 18.222557, 49.787648 ] } },
{ "type": "Feature", "properties": { "uid": 183173603, "name": "JIH - Svazácká 2", "bike_travel_time_min": 23.4, "remaining_walk_min": 6.6 }, "geometry": { "type": "Point", "coordinates": [ 18.234302, 49.789763 ] } },
{ "type": "Feature", "properties": { "uid": 186561280, "name": "JIH - Dolní", "bike_travel_time_min": 19.4, "remaining_walk_min": 10.6 }, "geometry": { "type": "Point", "coordinates": [ 18.239085, 49.808734 ] } },
{ "type": "Feature", "properties": { "uid": 202413903, "name": "JIH - Horymírova", "bike_travel_time_min": 19.4, "remaining_walk_min": 10.6 }, "geometry": { "type": "Point", "coordinates": [ 18.235433, 49.805356 ] } },
{ "type": "Feature", "properties": { "uid": 202414259, "name": "JIH - Markova", "bike_travel_time_min": 20.5, "remaining_walk_min": 9.5 }, "geometry": { "type": "Point", "coordinates": [ 18.228491, 49.80555 ] } },
{ "type": "Feature", "properties": { "uid": 208607121, "name": "JIH - Staňkova - Restaurace", "bike_travel_time_min": 24.9, "remaining_walk_min": 5.1 }, "geometry": { "type": "Point", "coordinates": [ 18.226249, 49.783376 ] } },
{ "type": "Feature", "properties": { "uid": 208608441, "name": "JIH - K Odře", "bike_travel_time_min": 23.1, "remaining_walk_min": 6.9 }, "geometry": { "type": "Point", "coordinates": [ 18.213168, 49.783706 ] } },
{ "type": "Feature", "properties": { "uid": 208624999, "name": "JIH - Volgogradká - Korýtko", "bike_travel_time_min": 23.2, "remaining_walk_min": 6.8 }, "geometry": { "type": "Point", "coordinates": [ 18.222967, 49.792262 ] } },
{ "type": "Feature", "properties": { "uid": 217178663, "name": "JIH - ul. Zlepšovatelů", "bike_travel_time_min": 28.4, "remaining_walk_min": 1.6 }, "geometry": { "type": "Point", "coordinates": [ 18.258027, 49.792788 ] } },
{ "type": "Feature", "properties": { "uid": 223641925, "name": "JIH - Karpatská", "bike_travel_time_min": 20.9, "remaining_walk_min": 9.1 }, "geometry": { "type": "Point", "coordinates": [ 18.240051, 49.804878 ] } },
{ "type": "Feature", "properties": { "uid": 243554603, "name": "PLES - Na Žižkově", "bike_travel_time_min": 28.2, "remaining_walk_min": 1.8 }, "geometry": { "type": "Point", "coordinates": [ 18.163286, 49.859404 ] } },
{ "type": "Feature", "properties": { "uid": 246207401, "name": "JIH - Zimmlerova", "bike_travel_time_min": 20.3, "remaining_walk_min": 9.7 }, "geometry": { "type": "Point", "coordinates": [ 18.23397, 49.809396 ] } },
{ "type": "Feature", "properties": { "uid": 254726408, "name": "JIH - knihovna Výškovice", "bike_travel_time_min": 26.9, "remaining_walk_min": 3.1 }, "geometry": { "type": "Point", "coordinates": [ 18.22686, 49.77867 ] } },
{ "type": "Feature", "properties": { "uid": 260333870, "name": "JIH - Břenkova", "bike_travel_time_min": 20.7, "remaining_walk_min": 9.3 }, "geometry": { "type": "Point", "coordinates": [ 18.235976, 49.806738 ] } },
{ "type": "Feature", "properties": { "uid": 267246328, "name": "JIH - Závodní", "bike_travel_time_min": 28.3, "remaining_walk_min": 1.7 }, "geometry": { "type": "Point", "coordinates": [ 18.265604, 49.794027 ] } },
{ "type": "Feature", "properties": { "uid": 297884179, "name": "JIH - Šeříková", "bike_travel_time_min": 23.9, "remaining_walk_min": 6.1 }, "geometry": { "type": "Point", "coordinates": [ 18.219035, 49.783019 ] } },
{ "type": "Feature", "properties": { "uid": 368565708, "name": "MOAP- Fakulta umění", "bike_travel_time_min": 28.5, "remaining_walk_min": 1.5 }, "geometry": { "type": "Point", "coordinates": [ 18.292934, 49.831972 ] } },
{ "type": "Feature", "properties": { "uid": 391524741, "name": "JIH- Jugoslávská LIDL", "bike_travel_time_min": 24.2, "remaining_walk_min": 5.8 }, "geometry": { "type": "Point", "coordinates": [ 18.2433, 49.8035 ] } },
{ "type": "Feature", "properties": { "uid": 394367680, "name": "P-Hangar Ostrava", "bike_travel_time_min": 12.1, "remaining_walk_min": 17.9 }, "geometry": { "type": "Point", "coordinates": [ 18.17951, 49.82025 ] } },
{ "type": "Feature", "properties": { "uid": 401007087, "name": "JIH - Výškovická", "bike_travel_time_min": 24.9, "remaining_walk_min": 5.1 }, "geometry": { "type": "Point", "coordinates": [ 18.223365, 49.783018 ] } },
{ "type": "Feature", "properties": { "uid": 402739616, "name": "VIT-Ředitelství Vítkovic", "bike_travel_time_min": 22.0, "remaining_walk_min": 8.0 }, "geometry": { "type": "Point", "coordinates": [ 18.251669, 49.807816 ] } },
{ "type": "Feature", "properties": { "uid": 448747666, "name": "Vítkovice Steel 2 (+30 min zdarma na příjezd i odjezd)", "bike_travel_time_min": 23.4, "remaining_walk_min": 6.6 }, "geometry": { "type": "Point", "coordinates": [ 18.258285, 49.816324 ] } },
{ "type": "Feature", "properties": { "uid": 448747697, "name": "Vítkovice Steel 1 (+30 min zdarma na příjezd i odjezd)", "bike_travel_time_min": 17.9, "remaining_walk_min": 12.1 }, "geometry": { "type": "Point", "coordinates": [ 18.23889, 49.82011 ] } },
{ "type": "Feature", "properties": { "uid": 522520101, "name": "SV - Sjízdná, Lidl", "bike_travel_time_min": 6.8, "remaining_walk_min": 23.2 }, "geometry": { "type": "Point", "coordinates": [ 18.19798, 49.82606 ] } },
{ "type": "Feature", "properties": { "uid": 524484661, "name": "JIH - AVION, vstup od dětského hřiště", "bike_travel_time_min": 28.6, "remaining_walk_min": 1.4 }, "geometry": { "type": "Point", "coordinates": [ 18.22786, 49.80304 ] } },
{ "type": "Feature", "properties": { "uid": 524487052, "name": "MAR-Kaufland, Grmelova", "bike_travel_time_min": 22.4, "remaining_walk_min": 7.6 }, "geometry": { "type": "Point", "coordinates": [ 18.24896, 49.836034 ] } },
{ "type": "Feature", "properties": { "uid": 529206336, "name": "P-OC Shopland", "bike_travel_time_min": 7.4, "remaining_walk_min": 22.6 }, "geometry": { "type": "Point", "coordinates": [ 18.201608, 49.827128 ] } },
{ "type": "Feature", "properties": { "uid": 529511559, "name": "PUS-Pustkovecká", "bike_travel_time_min": 19.9, "remaining_walk_min": 10.1 }, "geometry": { "type": "Point", "coordinates": [ 18.17849, 49.83919 ] } },
{ "type": "Feature", "properties": { "uid": 534995813, "name": "JIH-Chaloupeckého", "bike_travel_time_min": 19.7, "remaining_walk_min": 10.3 }, "geometry": { "type": "Point", "coordinates": [ 18.23223, 49.81072 ] } },
{ "type": "Feature", "properties": { "uid": 535884962, "name": "SV - Lidl, Nad Porubkou", "bike_travel_time_min": 11.9, "remaining_walk_min": 18.1 }, "geometry": { "type": "Point", "coordinates": [ 18.18487, 49.81855 ] } },
{ "type": "Feature", "properties": { "uid": 535885256, "name": "P-Fakultní nemocnice II", "bike_travel_time_min": 19.5, "remaining_walk_min": 10.5 }, "geometry": { "type": "Point", "coordinates": [ 18.16169, 49.82747 ] } },
{ "type": "Feature", "properties": { "uid": 535885350, "name": "P-Fakultní nemocnice, bus", "bike_travel_time_min": 20.4, "remaining_walk_min": 9.6 }, "geometry": { "type": "Point", "coordinates": [ 18.16249, 49.82762 ] } },
{ "type": "Feature", "properties": { "uid": 535886261, "name": "P-Hlavní třída - Rondl - Porubská", "bike_travel_time_min": 15.6, "remaining_walk_min": 14.4 }, "geometry": { "type": "Point", "coordinates": [ 18.17272, 49.82836 ] } },
{ "type": "Feature", "properties": { "uid": 542916820, "name": "JIH-Bastlova/Mozartova", "bike_travel_time_min": 27.0, "remaining_walk_min": 3.0 }, "geometry": { "type": "Point", "coordinates": [ 18.25641, 49.7971 ] } },
{ "type": "Feature", "properties": { "uid": 580390533, "name": "P-Na Robinsonce", "bike_travel_time_min": 19.6, "remaining_walk_min": 10.4 }, "geometry": { "type": "Point", "coordinates": [ 18.17564, 49.84621 ] } },
{ "type": "Feature", "properties": { "uid": 580390893, "name": "P-ZŠ Karla Pokorného", "bike_travel_time_min": 22.1, "remaining_walk_min": 7.9 }, "geometry": { "type": "Point", "coordinates": [ 18.17877, 49.83759 ] } },
{ "type": "Feature", "properties": { "uid": 580391484, "name": "P-Bulharská", "bike_travel_time_min": 10.3, "remaining_walk_min": 19.7 }, "geometry": { "type": "Point", "coordinates": [ 18.18825, 49.82672 ] } },
{ "type": "Feature", "properties": { "uid": 580842580, "name": "P-Heyrovského", "bike_travel_time_min": 18.3, "remaining_walk_min": 11.7 }, "geometry": { "type": "Point", "coordinates": [ 18.17943, 49.8422 ] } },
{ "type": "Feature", "properties": { "uid": 581580943, "name": "P-1. čs. armádního sboru", "bike_travel_time_min": 19.9, "remaining_walk_min": 10.1 }, "geometry": { "type": "Point", "coordinates": [ 18.1845, 49.83781 ] } },
{ "type": "Feature", "properties": { "uid": 581595533, "name": "P-Mongolská", "bike_travel_time_min": 8.1, "remaining_walk_min": 21.9 }, "geometry": { "type": "Point", "coordinates": [ 18.19517, 49.82276 ] } }
]
}
