{
"type": "FeatureCollection",
"name": "stations_shared_bike_15min",
"crs": { "type": "name", "properties": { "name": "urn:ogc:def:crs:OGC:1.3:CRS84" } },
"features": [
{ "type": "Feature", "properties": { "uid": 558542684, "name": "Křížkovského", "bike_travel_time_min": 12.3, "remaining_walk_min": 2.7 }, "geometry": { "type": "Point", "coordinates": [ 17.97094, 49.47206 ] } },
{ "type": "Feature", "properties": { "uid": 558543352, "name": "Vlakové nádraží Valašské Meziříčí (nové umístění)", "bike_travel_time_min": 4.4, "remaining_walk_min": 10.6 }, "geometry": { "type": "Point", "coordinates": [ 17.96176, 49.47396 ] } },
{ "type": "Feature", "properties": { "uid": 558543562, "name": "U autobusového nádraží ", "bike_travel_time_min": 13.2, "remaining_walk_min": 1.8 }, "geometry": { "type": "Point", "coordinates": [ 17.97257, 49.47406 ] } },
{ "type": "Feature", "properties": { "uid": 558544453, "name": "Tesco, bus", "bike_travel_time_min": 11.3, "remaining_walk_min": 3.7 }, "geometry": { "type": "Point", "coordinates": [ 17.96507, 49.48456 ] } },
{ "type": "Feature", "properties": { "uid": 558545117, "name": "PONAST (krajní parkovací místo)", "bike_travel_time_min": 9.1, "remaining_walk_min": 5.9 }, "geometry": { "type": "Point", "coordinates": [ 17.97939, 49.4775 ] } },
{ "type": "Feature", "properties": { "uid": 558545319, "name": "SVČ Domeček", "bike_travel_time_min": 10.0, "remaining_walk_min": 5.0 }, "geometry": { "type": "Point", "coordinates": [ 17.96873, 49.4652 ] } },
{ "type": "Feature", "properties": { "uid": 558545869, "name": "Atletický stadion", "bike_travel_time_min": 13.1, "remaining_walk_min": 1.9 }, "geometry": { "type": "Point", "coordinates": [ 17.98574, 49.47011 ] } },
{ "type": "Feature", "properties": { "uid": 558546943, "name": "Městský úřad, Zašovská", "bike_travel_time_min": 12.1, "remaining_walk_min": 2.9 }, "geometry": { "type": "Point", "coordinates": [ 17.98436, 49.47654 ] } },
{ "type": "Feature", "properties": { "uid": 558548871, "name": "Křižná /Svěrákova", "bike_travel_time_min": 7.7, "remaining_walk_min": 7.3 }, "geometry": { "type": "Point", "coordinates": [ 17.97057, 49.47446 ] } },
{ "type": "Feature", "properties": { "uid": 558549048, "name": "Havlíčkova", "bike_travel_time_min": 13.4, "remaining_walk_min": 1.6 }, "geometry": { "type": "Point", "coordinates": [ 17.97042, 49.46331 ] } },
{ "type": "Feature", "properties": { "uid": 558549174, "name": "Křižná", "bike_travel_time_min": 11.1, "remaining_walk_min": 3.9 }, "geometry": { "type": "Point", "coordinates": [ 17.96483, 49.47297 ] } },
{ "type": "Feature", "properties": { "uid": 558551196, "name": "SPŠ Stavební", "bike_travel_time_min": 10.4, "remaining_walk_min": 4.6 }, "geometry": { "type": "Point", "coordinates": [ 17.97562, 49.46923 ] } },
{ "type": "Feature", "properties": { "uid": 565942003, "name": "Palackého, parkoviště", "bike_travel_time_min": 11.0, "remaining_walk_min": 4.0 }, "geometry": { "type": "Point", "coordinates": [ 17.96822, 49.46209 ] } },
{ "type": "Feature", "properties": { "uid": 565942292, "name": "Hranická/Uhelná", "bike_travel_time_min": 12.3, "remaining_walk_min": 2.7 }, "geometry": { "type": "Point", "coordinates": [ 17.9566, 49.48367 ] } },
{ "type": "Feature", "properties": { "uid": 581998770, "name": "Juřinka, bus", "bike_travel_time_min": 12.1, "remaining_walk_min": 2.9 }, "geometry": { "type": "Point", "coordinates": [ 17.9489, 49.48367 ] } },
{ "type": "Feature", "properties": { "uid": 581998905, "name": "Štěpánov, točna", "bike_travel_time_min": 13.8, "remaining_walk_min": 1.2 }, "geometry": { "type": "Point", "coordinates": [ 17.9853, 49.46274 ] } },
{ "type": "Feature", "properties": { "uid": 585370655, "name": "Poličná, Jednota", "bike_travel_time_min": 10.1, "remaining_walk_min": 4.9 }, "geometry": { "type": "Point", "coordinates": [ 17.94742, 49.46645 ] } },
{ "type": "Feature", "properties": { "uid": 585370726, "name": "Poličná, točna", "bike_travel_time_min": 13.0, "remaining_walk_min": 2.0 }, "geometry": { "type": "Point", "coordinates": [ 17.93964, 49.46594 ] } },
{ "type": "Feature", "properties": { "uid": 601113150, "name": "Krhová, zastávka", "bike_travel_time_min": 12.3, "remaining_walk_min": 2.7 }, "geometry": { "type": "Point", "coordinates": [ 17.990864, 49.477112 ] } }
]
}
