{
"type": "FeatureCollection",
"name": "stations_shared_bike_30min",
"crs": { "type": "name", "properties": { "name": "urn:ogc:def:crs:OGC:1.3:CRS84" } },
"features": [
{ "type": "Feature", "properties": { "uid": 558542684, "name": "Křížkovského", "bike_travel_time_min": 12.3, "remaining_walk_min": 17.7 }, "geometry": { "type": "Point", "coordinates": [ 17.97094, 49.47206 ] } },
{ "type": "Feature", "properties": { "uid": 558543352, "name": "Vlakové nádraží Valašské Meziříčí (nové umístění)", "bike_travel_time_min": 4.4, "remaining_walk_min": 25.6 }, "geometry": { "type": "Point", "coordinates": [ 17.96176, 49.47396 ] } },
{ "type": "Feature", "properties": { "uid": 558543562, "name": "U autobusového nádraží ", "bike_travel_time_min": 13.2, "remaining_walk_min": 16.8 }, "geometry": { "type": "Point", "coordinates": [ 17.97257, 49.47406 ] } },
{ "type": "Feature", "properties": { "uid": 558543726, "name": "Nemocnice Valašské Meziříčí", "bike_travel_time_min": 15.8, "remaining_walk_min": 14.2 }, "geometry": { "type": "Point", "coordinates": [ 17.97615, 49.46314 ] } },
{ "type": "Feature", "properties": { "uid": 558544453, "name": "Tesco, bus", "bike_travel_time_min": 11.3, "remaining_walk_min": 18.7 }, "geometry": { "type": "Point", "coordinates": [ 17.96507, 49.48456 ] } },
{ "type": "Feature", "properties": { "uid": 558545117, "name": "PONAST (krajní parkovací místo)", "bike_travel_time_min": 9.1, "remaining_walk_min": 20.9 }, "geometry": { "type": "Point", "coordinates": [ 17.97939, 49.4775 ] } },
{ "type": "Feature", "properties": { "uid": 558545319, "name": "SVČ Domeček", "bike_travel_time_min": 10.0, "remaining_walk_min": 20.0 }, "geometry": { "type": "Point", "coordinates": [ 17.96873, 49.4652 ] } },
{ "type": "Feature", "properties": { "uid": 558545736, "name": "Koupaliště", "bike_travel_time_min": 14.6, "remaining_walk_min": 15.4 }, "geometry": { "type": "Point", "coordinates": [ 17.98728, 49.47112 ] } },
{ "type": "Feature", "properties": { "uid": 558545869, "name": "Atletický stadion", "bike_travel_time_min": 13.1, "remaining_walk_min": 16.9 }, "geometry": { "type": "Point", "coordinates": [ 17.98574, 49.47011 ] } },
{ "type": "Feature", "properties": { "uid": 558546118, "name": "Úřad práce (nové umístění)", "bike_travel_time_min": 14.4, "remaining_walk_min": 15.6 }, "geometry": { "type": "Point", "coordinates": [ 17.98321, 49.46999 ] } },
{ "type": "Feature", "properties": { "uid": 558546738, "name": "Králova", "bike_travel_time_min": 19.2, "remaining_walk_min": 10.8 }, "geometry": { "type": "Point", "coordinates": [ 17.97093, 49.46895 ] } },
{ "type": "Feature", "properties": { "uid": 558546943, "name": "Městský úřad, Zašovská", "bike_travel_time_min": 12.1, "remaining_walk_min": 17.9 }, "geometry": { "type": "Point", "coordinates": [ 17.98436, 49.47654 ] } },
{ "type": "Feature", "properties": { "uid": 558547086, "name": "Hrachovec, sportoviště", "bike_travel_time_min": 17.8, "remaining_walk_min": 12.2 }, "geometry": { "type": "Point", "coordinates": [ 18.00678, 49.47204 ] } },
{ "type": "Feature", "properties": { "uid": 558547687, "name": "Podlesí, u hřiště", "bike_travel_time_min": 17.0, "remaining_walk_min": 13.0 }, "geometry": { "type": "Point", "coordinates": [ 17.97742, 49.45527 ] } },
{ "type": "Feature", "properties": { "uid": 558548464, "name": "Zámek Kinských, vstup do parku", "bike_travel_time_min": 15.9, "remaining_walk_min": 14.1 }, "geometry": { "type": "Point", "coordinates": [ 17.96827, 49.47879 ] } },
{ "type": "Feature", "properties": { "uid": 558548718, "name": "Šafaříkova/Smetanova", "bike_travel_time_min": 14.4, "remaining_walk_min": 15.6 }, "geometry": { "type": "Point", "coordinates": [ 17.9789, 49.46574 ] } },
{ "type": "Feature", "properties": { "uid": 558548871, "name": "Křižná /Svěrákova", "bike_travel_time_min": 7.7, "remaining_walk_min": 22.3 }, "geometry": { "type": "Point", "coordinates": [ 17.97057, 49.47446 ] } },
{ "type": "Feature", "properties": { "uid": 558549048, "name": "Havlíčkova", "bike_travel_time_min": 13.4, "remaining_walk_min": 16.6 }, "geometry": { "type": "Point", "coordinates": [ 17.97042, 49.46331 ] } },
{ "type": "Feature", "properties": { "uid": 558549174, "name": "Křižná", "bike_travel_time_min": 11.1, "remaining_walk_min": 18.9 }, "geometry": { "type": "Point", "coordinates": [ 17.96483, 49.47297 ] } },
{ "type": "Feature", "properties": { "uid": 558549367, "name": "B. Němcové, Albert", "bike_travel_time_min": 15.1, "remaining_walk_min": 14.9 }, "geometry": { "type": "Point", "coordinates": [ 17.97538, 49.47563 ] } },
{ "type": "Feature", "properties": { "uid": 558550714, "name": "Galerie Sýpka", "bike_travel_time_min": 15.4, "remaining_walk_min": 14.6 }, "geometry": { "type": "Point", "coordinates": [ 17.969, 49.47151 ] } },
{ "type": "Feature", "properties": { "uid": 558551064, "name": "Zimní stadion, krytý bazén", "bike_travel_time_min": 14.0, "remaining_walk_min": 16.0 }, "geometry": { "type": "Point", "coordinates": [ 17.98916, 49.47017 ] } },
{ "type": "Feature", "properties": { "uid": 558551196, "name": "SPŠ Stavební", "bike_travel_time_min": 10.4, "remaining_walk_min": 19.6 }, "geometry": { "type": "Point", "coordinates": [ 17.97562, 49.46923 ] } },
{ "type": "Feature", "properties": { "uid": 565942003, "name": "Palackého, parkoviště", "bike_travel_time_min": 11.0, "remaining_walk_min": 19.0 }, "geometry": { "type": "Point", "coordinates": [ 17.96822, 49.46209 ] } },
{ "type": "Feature", "properties": { "uid": 565942292, "name": "Hranická/Uhelná", "bike_travel_time_min": 12.3, "remaining_walk_min": 17.7 }, "geometry": { "type": "Point", "coordinates": [ 17.9566, 49.48367 ] } },
{ "type": "Feature", "properties": { "uid": 581998770, "name": "Juřinka, bus", "bike_travel_time_min": 12.1, "remaining_walk_min": 17.9 }, "geometry": { "type": "Point", "coordinates": [ 17.9489, 49.48367 ] } },
{ "type": "Feature", "properties": { "uid": 581998905, "name": "Štěpánov, točna", "bike_travel_time_min": 13.8, "remaining_walk_min": 16.2 }, "geometry": { "type": "Point", "coordinates": [ 17.9853, 49.46274 ] } },
{ "type": "Feature", "properties": { "uid": 581999042, "name": "Šafaříkova/Beskydská", "bike_travel_time_min": 21.6, "remaining_walk_min": 8.4 }, "geometry": { "type": "Point", "coordinates": [ 17.99313, 49.46437 ] } },
{ "type": "Feature", "properties": { "uid": 581999442, "name": "Hrachovec, kulturní dům", "bike_travel_time_min": 21.0, "remaining_walk_min": 9.0 }, "geometry": { "type": "Point", "coordinates": [ 18.00265, 49.46549 ] } },
{ "type": "Feature", "properties": { "uid": 558554065, "name": "Zašová, zastávka (přesunuto)", "bike_travel_time_min": 24.4, "remaining_walk_min": 5.6 }, "geometry": { "type": "Point", "coordinates": [ 18.04034, 49.4688 ] } },
{ "type": "Feature", "properties": { "uid": 558554541, "name": "Zašová, kulturní dům", "bike_travel_time_min": 28.1, "remaining_walk_min": 1.9 }, "geometry": { "type": "Point", "coordinates": [ 18.04408, 49.47624 ] } },
{ "type": "Feature", "properties": { "uid": 558555324, "name": "Veselá, škola", "bike_travel_time_min": 24.0, "remaining_walk_min": 6.0 }, "geometry": { "type": "Point", "coordinates": [ 18.02719, 49.46413 ] } },
{ "type": "Feature", "properties": { "uid": 585370504, "name": "Poličná, škola", "bike_travel_time_min": 14.0, "remaining_walk_min": 16.0 }, "geometry": { "type": "Point", "coordinates": [ 17.95187, 49.46673 ] } },
{ "type": "Feature", "properties": { "uid": 585370655, "name": "Poličná, Jednota", "bike_travel_time_min": 10.1, "remaining_walk_min": 19.9 }, "geometry": { "type": "Point", "coordinates": [ 17.94742, 49.46645 ] } },
{ "type": "Feature", "properties": { "uid": 585370726, "name": "Poličná, točna", "bike_travel_time_min": 13.0, "remaining_walk_min": 17.0 }, "geometry": { "type": "Point", "coordinates": [ 17.93964, 49.46594 ] } },
{ "type": "Feature", "properties": { "uid": 601113150, "name": "Krhová, zastávka", "bike_travel_time_min": 12.3, "remaining_walk_min": 17.7 }, "geometry": { "type": "Point", "coordinates": [ 17.990864, 49.477112 ] } },
{ "type": "Feature", "properties": { "uid": 601113218, "name": "Krhová, restaurace", "bike_travel_time_min": 19.7, "remaining_walk_min": 10.3 }, "geometry": { "type": "Point", "coordinates": [ 17.995359, 49.485321 ] } },
{ "type": "Feature", "properties": { "uid": 601113305, "name": "Krhová, potraviny", "bike_travel_time_min": 20.3, "remaining_walk_min": 9.7 }, "geometry": { "type": "Point", "coordinates": [ 17.994303, 49.491791 ] } },
{ "type": "Feature", "properties": { "uid": 601113389, "name": "Krhová, Hrádky", "bike_travel_time_min": 19.8, "remaining_walk_min": 10.2 }, "geometry": { "type": "Point", "coordinates": [ 18.007458, 49.478127 ] } }
]
}
